usaf,wban,name,country,state,call,lat,lon,elev,begin,end
690014,99999,C STN  WHITE SANDS,US,NM,,32.35,-106.367,+1224.0,19870101,19910611
690020,93218,JOLON HUNTER LIGGETT MIL RES,US,CA,KHGT,36.0,-121.233,+0317.0,19640715,19970401
690020,99999,JOLON HUNTER LIGGETT MIL RES,US,CA,KHGT,36.0,-121.233,+0317.0,20030702,20030801
690070,93217,FRITZSCHE AAF,US,CA,KOAR,36.683,-121.767,+0043.0,19600404,19930831
690140,93101,EL TORO MCAS,US,CA,KNZJ,33.667,-117.733,+0116.7,19890101,19990630
690150,99999,TWENTYNINE PALMS,US,CA,KNXP,34.3,-116.167,+0626.0,19891115,19891229
690174,99999,INDIAN SPRINGS RANGE,US,NV,L63  ,36.533,-115.567,+0972.0,19780823,19800430
690230,24255,WHIDBEY ISLAND NAS,US,WA,KNUW,48.35,-122.667,+0014.3,19891201,20090602
690240,99999,PACIFIC BEACH,US,WA,KNIX,47.217,-124.2,+0018.0,19800603,19851031
690310,03125,YUMA PROVING GROUND,US,AZ,,32.833,-114.4,+0098.8,19870701,19900420
690320,99999,BLAINE HARBOR MUNI,US,WA,WA09 ,48.983,-122.733,+0021.0,19920416,19940303
690330,99999,HOOD CANAL BRIDGE,US,OR,K4S2 ,45.667,-121.533,+0192.0,19910307,20080106
690584,99999,LZ BULL / EXERCISE,US,CA,,33.067,-115.067,+0230.1,19990602,20010606
691414,99999,SPEED BAG AIRFIELD,US,CA,,33.267,-115.417,+0093.0,19850424,19971123
691484,99999,FAIRCHILD AFB / EXERCISE,US,WA,,47.617,-117.667,+0750.4,19840709,19950502
692364,99999,FALLON NAS,US,NV,KQAV,39.417,-118.7,+1199.0,19781027,20020501
692494,99999,SUPERIOR VALLEY G R,US,CA,KQCK,35.333,-117.1,+0961.0,19950401,19991210
692584,99999,CREECH AFB TMOS-P,US,NV,KQCR,36.583,-115.667,+0955.0,19831201,19910314
692694,99999,FOB MIAMI NTC/EXERCI,US,CA,KQMY,35.283,-116.35,+0570.0,19910209,20020125
694300,99999,EAGLE RANGE       &          ,US,UT,,41.05,-113.067,+1292.0,19800423,19910626
695414,99999,RED PASS LAKE / NTC,US,CA,,35.267,-116.367,+0683.1,20010319,20080611
696334,99999,ORO GRANDE - EXERCISE,US,NM,,32.417,-105.993,+1237.8,19910304,19990625
696454,99999,AUX 2 / EXERCISE             ,US,AZ,,32.533,-114.517,+0082.0,19840426,19920829
696464,99999,TACTS AIRFIELD / EXERCISE,US,AZ,,32.5,-114.15,+0248.1,19900809,19960709
697534,99999,FORT IRWIN,US,CA,KQIW,35.283,-116.617,+0322.0,19850218,20080201
697564,99999,STOVAL AIRFIELD / EXERCISE,US,AZ,,32.733,-113.633,+0117.0,19830901,19970418
698114,99999,METMFR 29 PALMS              ,US,CA,KQGY,34.3,-116.15,+0626.0,19840216,19980618
698414,99999,319 MISSILE SQ               ,US,CO,KQXG,40.5,-103.833,+1880.0,20010320,20010411
699604,03145,YUMA MCAS,US,AZ,KNYL,32.65,-114.617,+0064.9,19870701,20091231
720046,99999,NEWHALL,US,CA,K3A6 ,34.37,-118.57,+0427.0,20040224,20110905
720059,99999,VALLE,US,AZ,K40G ,35.651,-112.148,+1828.5,20040408,20040614
720122,00114,STARR BROWNING AIRSTRIP,US,MT,K8S0 ,48.6,-113.117,+1419.2,20140731,20150930
720165,99999,WARNER SPRINGS GLIDERPORT,US,CA,,34.264,-116.854,+2056.8,20070307,20130430
720193,00117,LONNIE POOL FIELD WEAVERVILLE,US,CA,KO54 ,40.747,-122.922,+0716.3,20101030,20200812
720262,94076,MC ELROY AFLD,US,CO,K20V ,40.054,-106.369,+2258.9,20060101,20130430
720387,99999,HOBBS,US,NM,KHBB,32.767,-103.217,+1130.0,20070401,20120227
720406,99999,GNOSS FIELD AIRPORT,US,CA,KDVO,38.15,-122.55,+0000.6,20071114,20140730
720424,99999,CAMP RED DEVIL,US,CO,K1PW ,38.5,-104.917,+1816.9,20131119,20131119
720518,99999,FORT BRIDGER AIRPORT,US,WY,KFBR,41.392,-110.107,+2144.0,20120720,20120720
720524,99999,FREMONT CO AIRPORT,US,CO,,38.428,-105.106,+1657.8,20120713,20130430
720529,00429,HOPKINS FIELD AIRPORT,US,CO,KAIB,38.239,-108.563,+1810.5,20121206,20210625
720529,99999,HOPKINS FIELD,US,CO,KAIB,38.233,-108.567,+1811.0,20080704,20080704
720534,99999,ERIE MUNI,US,CO,KEIK,40.017,-105.05,+1564.0,20100218,20140630
720546,99999,EUREKA,US,NV,,39.604,-116.005,+1814.8,20120209,20130430
720562,99999,RANGE OP 13 / YAKIMA TRAINING,US,WA,K1QW ,46.8,-120.167,+0928.0,20080530,20170920
720576,00174,UNIVERSITY AIRPORT,US,CA,KEDU,38.533,-121.783,+0021.0,20090102,20210623
720576,99999,DAVIS,US,CA,KEDU,38.533,-121.783,+0021.0,20080721,20081106
720641,99999,SCHRIEVER AFB,US,CO,KSHM,38.8,-104.517,+1899.5,20121018,20180217
720644,99999,BUCKEYE MUNI,US,AZ,KBXK,33.42,-112.686,+0311.2,20090708,20121231
720652,99999,USMC MTN WARFARE TRAINING CEN,US,CA,KBAN,38.35,-119.517,+2067.2,20090813,20090826
720675,99999,INDIAN SPRINGS RANGE 63      ,US,NV,KL63 ,36.53,-115.57,+0972.0,20050103,20111230
720753,99999,KEN JERNSTEDT,US,OR,,45.672,-121.536,+0192.3,20060112,20070516
720772,99999,MORIARTY AIRPORT,US,NM,,34.986,-106.009,+1889.5,20101013,20130430
720922,99999,ST GEORGE MUNI,US,UT,KDXZ,37.036,-113.51,+0879.0,20110113,20111214
720934,99999,WRAY MUNI,US,CO,,40.1,-102.241,+1120.7,20110512,20130430
720935,99999,PETALUMA MUNI,US,CA,,38.258,-122.606,+0026.5,20110517,20130430
720963,99999,MCGREGOR RANGE BASE CAMP,US,NM,KM63 ,32.079,-106.153,+1246.0,20100429,20190106
720969,00341,TEN SLEEP,US,WY,KJPD,44.15,-107.167,+2741.1,20120130,20121213
720969,99999,TEN SLEEP,US,WY,KJPD,44.15,-107.167,+2741.0,20111201,20120129
720971,00342,SOUTH PASS,US,WY,KFWZ,42.517,-108.783,+2588.1,20120130,20210725
720971,99999,SOUTH PASS,US,WY,KFWZ,42.517,-108.783,+2588.0,20111201,20120129
720976,00345,LORDSBURG MUNICIPAL AIRPORT,US,NM,KLSB,32.333,-108.691,+1304.2,20120215,20180226
720987,99999,JULIET (PEETZ)               ,US,CO,K1JW ,40.967,-103.2,+1380.1,20130829,20210828
720995,99999,BRAVO (GEYSER)               ,US,MT,K1BM ,47.283,-110.367,+1234.4,20120920,20210404
720997,99999,DELTA (DENTON)               ,US,MT,K1DM ,47.383,-109.817,+1093.3,20131025,20210915
721002,99999,HOTEL (FAIRFIELD)            ,US,MT,K1HM ,47.7,-111.95,+1178.7,20130625,20210708
721003,99999,INDIA (ULM)                  ,US,MT,K1IM ,47.317,-111.467,+1108.0,20120920,20210914
721004,99999,JULIE (POWER)                ,US,MT,K1JM ,47.75,-111.55,+1152.1,20120504,20200917
721006,99999,LIMA (JUDITH GAP)            ,US,MT,K1LM ,46.7,-109.733,+1414.3,20120607,20210121
721027,99999,TRINITY CENTER,US,CA,,40.983,-122.694,+0728.5,20120302,20130430
721036,00353,BOYSEN THERMOPOL,US,WY,KTBX,43.467,-108.389,+2225.0,20120806,20210913
721036,99999,BOYSEN,US,WY,KTBX,43.467,-108.238,+2225.0,20120503,20120713
722018,99999,CLOVIS(NEXRAD)               ,US,NM,KFDX,34.633,-103.633,+1417.0,20000101,20010516
722333,03069,SAGUACHE MUNICIPAL AIRPORT,US,CO,K04V ,38.097,-106.169,+2385.4,20060101,20210910
722684,99999,RUIDOSO,US,NM,,33.35,-105.667,+2106.0,19820101,19880703
722685,99999,CORONA / LINCOLN,US,NM,K4CR ,34.1,-105.667,+1981.0,19730101,20120930
722690,99999,WHITE SANDS  NM.             ,US,NM,,32.383,-106.483,+1244.0,19800101,19980731
722696,99999,HOLLOMAN AFB,US,NM,,32.85,-106.1,+1248.0,19420902,19811110
722697,99999,NORTHROP STRIP/ALAM,US,NM,,32.95,-106.417,+1324.0,19810114,19811114
722720,93063,BISBEE DOUGLAS INTL,US,AZ,KSVC,32.633,-108.167,+1659.9,19730101,20100801
722726,93045,NOGALES (AMOS)               ,US,AZ,KTCS,33.237,-107.268,+1480.7,19730101,19780228
722726,99999,NOGALES AUTOMATIC METEOROLOGI,US,AZ,,31.42,-110.85,+1198.0,19881208,19990728
722733,99999,LUKEVILLE,US,AZ,,31.88,-112.82,+0511.0,19850208,19880826
722735,93026,BISBEE DOUGLAS INTL,US,AZ,KDUG,31.458,-109.606,+1250.0,19421116,20100801
722743,99999,TUCSON NEXRAD,US,AZ,EMX,31.883,-110.617,+1586.0,19991115,20021202
722746,99999,SAFFORD MUNICIPAL,US,AZ,,32.85,-109.633,+0968.0,19730101,19730601
722785,99999,LUKE AFB,US,AZ,KLUF,33.533,-112.383,+0331.0,20000103,20041229
722800,23195,YUMA MARINE CORPS AIR STATION,US,AZ,KYUM,32.667,-114.6,+0062.8,19420116,20070105
722805,03145,YUMA MCAS,US,AZ,KNYL,32.65,-114.617,+0064.9,19770127,19870630
722806,99999,AJO MUNI,US,AZ,KP01 ,32.45,-112.867,+0444.4,19420115,19460120
722825,53145,TONOPAH TEST RANGE #74       ,US,NV,KBJN,37.617,-116.264,+1755.7,20060101,20150201
722864,99999,BIG BEAR CITY ARPT,US,CA,,34.267,-116.85,+2057.0,19801202,19840614
722865,93180,ONTARIO,US,CA,KONT,34.067,-117.65,+0303.9,19421215,19991231
722865,99999,ONTARIO,US,CA,KONT,34.067,-117.65,+0303.9,20000101,20010516
722866,23122,SAN BERNARDINO INTERNATIONAL,US,CA,KSBD,34.095,-117.235,+0353.3,19430106,19931030
722867,23156,BEAUMONT,US,CA,KBUO,33.933,-116.967,+0692.0,19730101,19991231
722867,99999,BEAUMONT,US,CA,KBUO,33.933,-116.967,+0692.0,20000101,20010901
722889,99999,APPLE VALLEY,US,CA,KAPV,34.575,-117.186,+0933.3,19730622,19730622
722890,93136,MOUNT WILSON,US,CA,KMWS,34.233,-118.067,+1739.2,19500101,20150513
722890,99999,MOUNT WILSON,US,CA,KMWS,34.233,-118.067,+1739.0,20000103,20030601
722898,99999,ANACAPA ISLAND,US,CA,,34.02,-119.37,+0042.0,19780407,19870919
722901,99999,SAN DIEGO/MONTGOMER,US,CA,,32.817,-117.133,+0129.0,19730101,19900206
722904,23196,BROWN FLD MUNI,US,CA,KSDM,32.567,-116.967,+0160.0,19780429,19991231
722905,99999,POINT LOMA / CABRILLO,US,CA,,32.67,-117.48,+0111.0,19760130,19960630
722908,99999,EL TORO(USMC)                ,US,CA,,33.667,-117.733,+0117.0,19730101,19890112
722910,99999,SAN NICHOLAS ISLAND,US,CA,KNSI,33.25,-119.45,+0174.0,20000103,20041229
722915,93114,TUSTIN MCAF,US,CA,KNTK,33.7,-117.833,+0016.5,19760101,19891130
722916,99999,MALIBU BEACH,US,CA,,34.03,-118.68,+0139.0,19780823,19820702
722923,99999,CAMP PENDLETON MCAS,US,CA,,33.3,-117.35,+0019.0,19770317,19780206
722928,00369,MCOLF CAMP PENDLETON RED BEAC,US,CA,KNXF,33.286,-117.456,+0027.1,20091029,20210516
722928,99999,MCOLF CAMP PENDLETON (RED BEA,US,CA,KNXF,33.286,-117.456,+0027.0,19750916,19880104
722930,93107,SAN DIEGO/MIRAMAR N,US,CA,KNKX,32.867,-117.133,+0145.7,19890101,20050331
722931,99999,MIRAMAR MCAS,US,CA,KNKX,32.867,-117.15,+0146.0,20040713,20050331
722935,99999,EL CAPITAN BEACH,US,CA,,34.467,-120.033,+0027.0,19880107,19960630
722955,03122,TORRANCE AIRPORT,US,CA,KTOA,33.802,-118.342,+0027.4,19440601,19991231
722957,99999,LONG BEACH,US,CA,,32.75,-118.417,+0024.0,19761129,19880105
722978,99999,HUNTINGTON BEACH,US,CA,,33.65,-118.0,+0035.0,19730101,19960630
722979,03157,LONG BEACH NAVAL STN,US,CA,NWF,33.75,-118.233,+0004.3,19730102,19731228
722984,99999,HUNTINGTON B. OIL,US,CA,,33.57,-118.13,+0036.0,19870403,19880309
723620,99999,SOCORRO MUNI,US,NM,KONM,34.022,-106.903,+1485.9,19730101,20000206
723653,99999,ALBUQUERQUE RADAR,US,NM,KZAB,35.167,-106.567,+1621.0,20100512,20100512
723655,99999,MORIARTY,US,NM,,34.98,-106.05,+1890.0,19730101,20090331
723657,03014,TORREON,US,NM,K4SL ,35.799,-107.181,+2105.9,20060101,20130226
723659,99999,TAOS,US,NM,KE23 ,36.383,-105.6,+2126.0,19730101,19950720
723671,23051,CLAYTON MUNICIPAL AIRPARK,US,NM,KCAO,36.449,-103.154,+1515.5,19730101,19770831
723675,93092,CHAMA AWRS,US,NM,KE33 ,36.9,-106.583,+2393.0,20060101,20120930
723678,23052,RATON MUNICIPAL CREWS FIELD A,US,NM,KRTN,36.741,-104.502,+1935.2,19730101,19810402
723700,99999,KINGMAN,US,AZ,KIGM,35.259,-113.95,+1051.0,19430329,19981231
723721,23184,PRESCOTT MUNICIPAL AP,US,AZ,KPRC,34.652,-112.421,+1539.8,19730101,19900228
723745,93139,PAYSON,US,AZ,KPAN,34.257,-111.339,+1572.0,19730101,19990131
723746,99999,SHOW LOW MUNICIPAL,US,AZ,,34.25,-110.033,+1943.0,19730102,19850125
723756,99999,SEDONA,US,AZ,KSEZ,34.849,-111.788,+1471.3,19920408,19960625
723757,99999,FLAGSTAFF NEXRAD,US,AZ,FSX,34.567,-111.2,+2291.0,20001130,20021021
723762,99999,SANTA YNEZ,US,CA,KIZA,34.606,-120.076,+0205.0,20050430,20051222
723781,99999,GRAND CANYON PARK,US,AZ,,35.95,-112.15,+2014.0,19760309,19900206
723785,99999,PAGE MUNI (AMOS)  &          ,US,AZ,,36.933,-111.45,+1314.0,19730102,19770802
723786,99999,KINGMAN (AMOS)    &          ,US,AZ,,35.25,-113.933,+1033.0,19730101,19770802
723787,99999,LAKE HAVASU (AWOS)           ,US,AZ,,34.467,-111.767,+0147.0,19730420,19940508
723814,93121,TWENTYNINE PALMS NAAS,US,CA,KNXP,34.3,-116.167,+0695.9,19770711,19891127
723826,93194,INYOKERN AIRPORT,US,CA,KIYK,35.667,-117.833,+0748.9,20060101,20131104
723850,03133,YUCCA FLATS TEST S T,US,NV,,36.95,-116.05,+1196.9,19730101,19790514
723874,99999,BICYCLE LAKE FORT IRWIN AAF(N,US,CA,,35.283,-116.617,+0716.0,19791111,19831205
723884,93218,JOLON HUNTER LIGGETT MIL RES,US,CA,,36.0,-121.233,+0317.0,19880105,19891127
723894,99999,MAMMOTH YOSEMITE,US,CA,KMMH,37.624,-118.838,+2173.0,19840331,20051217
723897,23167,FRESNO CHANDLER DOWNTOWN AP,US,CA,KFCH,36.733,-119.817,+0084.1,19950423,19970923
723897,99999,FRESNO CHANDLER EXECUTIVE,US,CA,KFCH,36.732,-119.82,+0084.7,20150717,20210817
723900,93226,SAN SIMEON/PT. PIED,US,CA,K87Q ,35.666,-121.285,+0021.0,19990101,20050607
723900,99999,POINT PIEDRAS BLANCA,US,CA,,35.67,-121.28,+0017.0,19430607,19981231
723914,93218,JOLON HUNTER LIGGETT MIL RES,US,CA,,36.0,-121.233,+0317.0,19790315,19880105
723920,99999,SANTA PAULA,US,CA,,34.35,-119.067,+0075.0,19730207,19760305
723928,99999,SANTA PAULA ARPT,US,CA,KSZP,34.35,-119.083,+0078.9,19841106,19841106
723935,99999,VANDENBERG RANGE,US,CA,KXVW,34.717,-120.567,+0100.0,19950505,20020308
724293,00376,MOUNT WERNER,US,CO,K3MW ,40.46,-106.76,+3241.2,20050322,20140721
724503,99999,SPENCER,US,ID,,44.35,-112.18,+1793.0,19970123,20041224
724630,99999,LAMAR,US,CO,,38.083,-102.617,+1103.0,19741113,20040306
724663,99999,PETERSON AFB,US,CO,,38.817,-104.733,+1876.0,19420901,19480401
724670,03017,DENVER INTL AP,US,CO,KDEN,39.833,-104.658,+1655.4,19741113,19940529
724671,99999,LEADVILLE/LAKE CO.           ,US,CO,LXV,39.25,-106.3,+3096.0,19480103,19900206
724678,99999,STEAMBOAT SPRINGS B,US,CO,KSBS,40.516,-106.866,+2096.0,19840607,20040402
724679,99999,WINTER PARK RESORT,US,CO,,39.88,-105.77,+2771.0,19860501,19930715
724680,99999,FORT CARSON/BUTTS,US,CO,KFCS,38.7,-104.767,+1789.0,20000104,20041230
724684,99999,SALIDA,US,CO,,38.517,-106.017,+2186.0,19870403,19920707
724685,99999,SALIDA/ALEXANDER,US,CO,0V2  ,38.533,-106.05,+2282.0,19730101,19860910
724690,23062,DENVER WSFO,US,CO,KDNR,39.75,-104.867,+1612.0,19400515,19950301
724690,99999,DENVER/STAPLETON INT,US,CO,KDNR,39.75,-104.867,+1611.9,20021121,20021121
724694,00450,FRONT RANGE AIRPORT,US,CO,KFTG,39.784,-104.538,+1680.4,20051203,20200130
724696,99999,FRASER,US,CO,,39.95,-105.833,+2609.0,19730101,19740624
724697,99999,FORT COLLINS DOWNTOWN,US,CO,,40.588,-105.042,+1505.4,19730101,19940901
724721,93025,BLANDING,US,UT,,37.617,-109.467,+0184.1,19750814,19900206
724723,93025,BLANDING MUNI,US,UT,K4BL ,37.583,-109.483,+1789.0,19900208,20080612
724725,99999,TOOELE,US,UT,,40.32,-112.3,+1628.0,19510625,20020930
724735,23170,HANKSVILLE,US,UT,KHVE,38.371,-110.715,+1354.5,19730101,20121001
724736,99999,BULLFROG MARINA,US,UT,,37.5,-110.7,+1110.0,19730101,19960319
724757,23176,MILFORD MUNICIPAL AP,US,UT,KMLF,38.417,-113.017,+1534.1,19770101,19830430
724766,99999,MONTROSE,US,CO,,38.5,-107.883,+1752.0,19730101,19901011
724770,99999,EUREKA (RAMOS)               ,US,NV,KP68 ,39.6,-116.0,+1811.0,19730101,20100731
724771,99999,GREEN RIVER RANGE,US,UT,,39.0,-110.15,+1241.0,19750814,19900219
724773,93132,GREEN RIVER RANGE,US,UT,KU28 ,39.0,-110.15,+1255.8,20060102,20090501
724773,99999,GREEN RIVER RANGE,US,UT,,39.0,-110.17,+1241.0,19900314,20051221
724795,99999,DELTA,US,UT,KU24 ,39.33,-112.58,+1414.0,19730101,20121001
724796,99999,LOGAN CACHE,US,UT,KLGU,41.783,-111.85,+1358.0,19811111,19981231
724810,99999,CASTLE,US,CA,KMER,37.38,-120.568,+0057.6,20011031,20011115
724834,99999,POINT CABRILLO,US,CA,,39.35,-123.82,+0020.0,19810906,19871007
724835,23206,MATHER FIELD,US,CA,KMHR,38.567,-121.3,+0029.3,19410901,19930515
724836,99999,MC CLELLAN AFLD,US,CA,KMCC,38.668,-121.401,+0022.9,20000101,20031204
724844,99999,TONOPAH TEST RANGE,US,NV,KTNX,37.799,-116.781,+1691.3,19820816,20021016
724845,99999,WELLS,US,NV,,41.12,-114.97,+1722.0,19990114,20061212
724870,03163,CALIENTE (AMOS)              ,US,NV,KP38 ,37.612,-114.526,+1332.9,20120123,20120123
724915,23245,MONTEREY PENINSULA,US,CA,KMRY,36.583,-121.833,+0078.0,19730101,19991231
724917,23233,SALINAS MUNI,US,CA,KSNS,36.664,-121.608,+0023.5,19410805,20100801
724925,23240,CROWS LANDING,US,CA,KNRC,37.4,-121.133,+0056.7,19730102,19940309
724927,99999,LIVERMORE MUNICIPAL,US,CA,KLVK,37.7,-121.817,+0121.0,19730625,19991231
724935,93228,HAYWARD AIR TERM,US,CA,KHWD,37.654,-122.115,+0014.3,20000101,20100731
724935,99999,HAYWARD AIR TERM,US,CA,,37.667,-122.117,+0014.0,19730101,19991231
724936,23254,CONCORD/BUCHANAN,US,CA,KCCR,37.992,-122.055,+0018.3,19730101,20100731
724947,99999,PILLAR PT / EL GRANDA,US,CA,,37.5,-122.5,+0040.0,19760130,19960701
724957,99999,C M SCHULZ SONOMA CO,US,CA,KSTS,38.517,-122.817,+0038.0,19430404,19991231
724959,99999,POINT REYES COAST GUARD STATI,US,CA,,38.0,-123.02,+0087.0,19780404,19921020
724970,99999,CHICO CALIFORNIA MAP,US,CA,CIC,39.783,-121.85,+0069.0,19420506,19760305
724971,99999,CHICO MUNICIPAL   &          ,US,CA,,39.783,-121.85,+0073.0,19760305,19900219
724991,99999,POINT ARENA (CGS)            ,US,CA,89Q  ,38.95,-123.733,+0018.0,19760309,19840928
725643,99999,ARLINGTON EXIT I-80          ,US,WY,KARL,41.583,-106.2,+2388.0,19750803,20080928
725644,99999,PUMPKIN VINE,US,WY,KPUM,41.05,-105.46,+2438.0,20030319,20040218
725646,99999,VEDAUWOO,US,WY,KVDW,41.15,-105.4,+2524.0,20030319,20080928
725647,99999,WHITAKER,US,WY,KWTR,41.68,-105.45,+1888.0,20020905,20031226
725648,99999,SIBLEY PEAK,US,WY,KSIB,42.433,-105.033,+1490.0,20020905,20041030
725649,99999,WHEATLAND,US,WY,KBRX,41.95,-104.95,+1509.0,20020905,20041027
725680,99999,DOUGLAS AIRPORT,US,WY,,42.8,-105.383,+1502.0,19730101,19760305
725681,24019,DOUGLAS,US,WY,4DG  ,42.75,-105.383,+1466.1,19760305,19770227
725685,24019,DOUGLAS,US,WY,K4DG ,42.75,-105.383,+1477.0,19770301,19950101
725706,99999,PRICE/CARBON(RAMOS)          ,US,UT,,39.617,-110.75,+1796.0,19730101,19770802
725707,99999,VERNAL,US,UT,,40.47,-109.53,+1612.0,19730620,19820730
725708,99999,ROOSEVELT         &          ,US,UT,U67  ,40.3,-109.983,+1556.0,19730101,19850401
725715,94025,HAYDEN/YAMPA (AWOS)          ,US,CO,KHDN,40.481,-107.218,+2012.3,20060101,20100331
725716,99999,RIFLE AVIATION WEATHER REPORT,US,CO,,39.53,-107.8,+1622.0,19730101,19960630
725723,99999,SALT LAKE CITY,US,UT,KZLC,40.783,-111.95,+1288.0,19760520,19760607
725740,24027,ROCK SPRINGS ARPT,US,WY,KRKS,41.594,-109.053,+2055.9,19730101,19850531
725741,24027,ROCK SPRINGS ARPT,US,WY,KRKS,41.594,-109.053,+2055.9,19850531,19900228
725743,99999,ROCK SPRINGS VORTAC,US,WY,,41.583,-109.017,+2070.0,19881208,19901206
725745,24057,RAWLINS MUNICIPAL,US,WY,KRWL,41.8,-107.2,+2055.3,19730101,20100731
725753,99999,EAGLE RANGE,US,UT,KU16 ,41.05,-113.07,+1292.0,19910711,20210918
725765,24061,RIVERTON REGIONAL,US,WY,KRIW,43.064,-108.459,+1684.0,19730101,20070401
725771,99999,726710                       ,US,WY,,42.533,-110.117,+2079.0,19760405,19780314
725787,24158,STREVELL,US,ID,K4SV ,42.017,-113.25,+1612.0,19730101,19840913
725788,94182,MC CALL,US,ID,KMYL,44.889,-116.102,+1530.1,20080101,20091231
725788,99999,MC CALL,US,ID,,44.883,-116.1,+1531.0,19831103,19951108
725814,99999,DUGWAY PRVG GROUND,US,UT,,40.2,-112.933,+1326.0,19770804,19891127
725816,99999,DUGWAY PG UTAH/MICHALES AAF,US,UT,DPG,40.183,-112.933,+1326.0,19430614,19760630
725820,99999,ELKO,US,NV,,40.85,-115.733,+1594.5,19730101,20000213
725824,03170,EUREKA (RAMOS)               ,US,NV,KP68 ,39.601,-116.006,+1809.3,20060101,20100731
725826,99999,AUSTIN,US,NV,,39.5,-117.08,+2014.0,19730101,20030501
725827,94190,WILD HORSE RESERVOIR,US,NV,KAWH,41.636,-115.802,+1901.7,20060102,20070701
725827,99999,WILDHORSE RES/ELKO,US,NV,KAWH,41.667,-115.783,+1902.0,19870629,20051227
725841,99999,SUSANVILLE MUNI,US,CA,SVE,40.383,-120.567,+1264.0,19760305,19770227
725847,99999,LAKE TAHOE,US,CA,KTVL,38.883,-120.0,+1909.0,19730101,19991231
725848,99999,SHELTER COVE,US,CA,,40.02,-124.07,+0021.0,19730101,20070628
725860,99999,GOODING MUNICIPAL,US,ID,,42.917,-114.767,+1137.0,19730101,20051215
725861,24142,GOODING MUNICIPAL ARPT,US,ID,GNG,42.917,-114.767,+1127.2,19760305,19820531
725868,94184,ALLEN H TIGERT AIRPORT,US,ID,KU78 ,42.65,-111.583,+1779.7,20060101,20120928
725869,94186,MALTA,US,ID,K77M ,42.302,-113.335,+1375.0,19850208,20100731
725875,99999,OWYHEE,US,NV,KOWY,41.953,-116.188,+1638.0,19770301,19850619
725891,99999,LAKEVIEW,US,OR,,42.183,-120.35,+1455.0,19760305,19770227
725896,99999,LAKEVIEW,US,OR,,42.22,-120.35,+1455.0,19770301,19971001
725900,99999,FORT BRAGG,US,CA,,39.4,-123.82,+0019.0,19430607,20031207
725915,24257,REDDING MUNICIPAL ARPT,US,CA,KRDD,40.518,-122.299,+0153.0,19440901,19910331
725949,99999,ST GEORGE REEF COAST GUARD LI,US,CA,,41.83,-124.4,+0045.0,19791223,19791223
725950,99999,ALTURAS,US,CA,,41.5,-120.533,+1341.0,19730101,19760305
725956,24212,BURNEY,US,CA,KBNY,40.883,-121.667,+0957.0,19730101,19860817
725956,99999,BURNEY,US,CA,,40.883,-121.667,+0957.0,20041109,20041109
725959,99999,MONTAGUE,US,CA,K1O5 ,41.733,-122.55,+0770.0,19480101,19960312
725985,99999,BROOKINGS,US,OR,,42.05,-124.28,+0024.0,20000101,20020417
725995,99999,CAPE BLANCO COAST GUARD STATI,US,OR,,42.83,-124.57,+0057.0,19750911,19811004
726391,99999,COTTONWOOD PASS,US,CO,K7BM ,38.78,-106.22,+2995.0,20080101,20080803
726396,99999,WILKERSON PASS,US,CO,K4BM ,39.05,-105.51,+3438.0,19760926,20081124
726630,99999,MOORCROFT,US,WY,4MC  ,44.267,-104.95,+1303.0,19730101,19760503
726655,99999,GILLETTE (AMOS)              ,US,WY,,44.35,-105.533,+1329.0,19761110,19770802
726665,99999,WORLAND MUNI,US,WY,KWRL,43.967,-107.95,+1288.0,19730101,19991231
726666,99999,CODY MUNI (AWOS)  &          ,US,WY,,44.517,-109.017,+1551.0,19730101,19770802
726671,99999,BROADUS           &          ,US,MT,,45.433,-105.4,+0922.0,19760305,19900219
726673,99999,BROADUS           &          ,US,MT,K4BQ ,45.433,-105.4,+0922.0,19900314,19951206
726675,24037,MILES CITY MUNICIPAL ARPT,US,MT,KMLS,46.427,-105.883,+0802.8,19730101,19830531
726676,24087,DAWSON COMMUNITY AIRPORT,US,MT,KGDV,47.133,-104.8,+0748.9,20060101,20210917
726690,99999,RAWLINS MUNICIPAL,US,WY,KRWL,41.8,-107.2,+2065.0,19730101,20100731
726704,99999,BUFFALO,US,WY,,44.383,-106.717,+1514.0,19990114,19990204
726710,99999,BIG PINEY (AMOS)             ,US,WY,KBPI,42.567,-110.1,+2124.0,19780310,19981231
726720,99999,RIVERTON,US,WY,KRIW,43.064,-108.46,+1684.0,20050101,20070331
726761,99999,WEST YELLOWSTONE  &          ,US,MT,,44.65,-111.1,+2031.0,19750814,19900219
726763,24198,WEATHER SERVICE OFFICE,US,MT,KWEY,44.65,-111.1,+2030.9,20060103,20071019
726763,99999,WEST YELLOWSTONE,US,MT,KWEY,44.65,-111.1,+2031.0,19900314,20051222
726764,99999,YELLOWSTONE,US,MT,KWYS,44.683,-111.117,+2025.0,19910801,20051007
726765,99999,WEST YELLOWSTONE  &          ,US,MT,,44.683,-111.117,+2025.0,19730601,19900930
726766,99999,MONIDA,US,MT,,44.567,-112.317,+2068.0,19430313,19920323
726774,99999,HAMILTON/RAVALLI CO,US,MT,,46.25,-114.15,+1110.0,19880905,20030428
726775,99999,HARLOWTON,US,MT,,46.43,-109.83,+1268.0,19730101,20051101
726785,24135,BERT MOONEY,US,MT,KBTM,45.965,-112.501,+1686.5,19770301,20100801
726791,24135,BUTTE SILVER BOW CO ARPT,US,MT,KBTM,45.965,-112.501,+1686.5,19760305,19770227
726795,24161,WHITEHALL,US,MT,HIA,45.867,-111.967,+1303.9,19730101,19780101
726796,24138,DILLON AIRPORT,US,MT,KDLN,45.258,-112.554,+1591.7,19730101,20100801
726799,99999,DILLON SAWRS,US,MT,,45.25,-112.55,+1537.0,19730701,19740507
726809,99999,BOISE NEXRAD,US,ID,,43.5,-116.233,+0958.0,19990416,20010710
726830,99999,BURNS MUNI (AMOS)            ,US,OR,KBNO,43.583,-118.95,+1271.0,19810101,19901231
726835,24230,ROBERTS FLD,US,OR,KRDM,44.256,-121.139,+0940.0,19420101,20100801
726838,94185,BURNS MUNICIPAL ARPT,US,OR,KBNO,43.595,-118.956,+1271.0,19801231,19901231
726839,94196,JOHN DAY STATE ARPT,US,OR,K5J0 ,44.404,-118.963,+1126.8,20060102,20061122
726839,99999,JOHN DAY STATE ARPT,US,OR,,44.4,-118.967,+1127.0,19900517,19950716
726861,99999,SALMON,US,ID,SMN,45.117,-113.883,+1232.0,19760305,19770225
726866,99999,SALMON,US,ID,,45.18,-113.9,+1210.0,19810906,19971231
726871,99999,GRANGEVILLE       &          ,US,ID,,45.95,-116.133,+1009.0,19760305,19900219
726873,99999,IDAHO COUNTY AIRPORT,US,ID,KGIC,45.943,-116.123,+1010.1,19900322,19991101
726901,24231,ROSEBURG,US,OR,KRBG,43.239,-123.355,+0155.1,19730101,19800430
726915,99999,COOS BAY COAST GUARD STATION,US,OR,,43.35,-124.33,+0023.0,19750911,19870805
726916,99999,UMPQUA RIVER COAST GUARD STAT,US,OR,,43.68,-124.17,+0041.0,19750813,19910105
726950,99999,NEWPORT MUNI,US,OR,KONP,44.58,-124.058,+0049.0,19730101,20110228
726951,99999,NEWPORT,US,OR,JNW,44.633,-124.05,+0048.0,19760305,19770227
726954,99999,NEWPORT,US,OR,,44.583,-124.067,+0048.0,19901022,20011231
726958,24285,NEWPORT MUNICIPAL,US,OR,KONP,44.583,-124.05,+0048.8,19770301,20110301
726987,94204,CASCADE LOCKS STATE AIRPORT,US,OR,KCZK,45.683,-121.883,+0046.0,20060101,20131001
727685,99999,GLASGOW INDUSTRIAL,US,MT,07MT ,48.421,-106.528,+0841.9,19730702,19760528
727725,99999,ELLISTON,US,MT,,46.567,-112.433,+1547.0,19730102,19770701
727795,99999,THOMPSON FALLS,US,MT,,47.6,-115.37,+0725.0,19730101,20021031
727796,24137,CUT BANK MUNI,US,MT,KCTB,48.603,-112.375,+1169.8,19421201,20100801
727813,99999,VAGABOND AAF / YAKIMA TRAININ,US,WA,KFCT,46.667,-120.454,+0417.6,20030617,20081110
727825,99999,PANGBORN MEM,US,WA,KEAT,47.399,-120.207,+0381.0,19730101,19991231
727826,24141,EPHRATA MUNICIPAL,US,WA,KEPH,47.308,-119.515,+0383.7,19420101,20100801
727833,04114,CHALLIS (AMOS)               ,US,ID,KLLJ,44.523,-114.215,+1536.2,19990102,20091231
727833,99999,CHALLIS  CHALLIS AIRPORT,US,ID,,44.52,-114.22,+1534.0,19810912,19981008
727840,94187,HANFORD AIRPORT,US,WA,KHMS,46.567,-119.6,+0223.1,20060101,20130326
727854,94119,DEER PARK ARPT,US,WA,KDEW,47.974,-117.428,+0672.4,20060101,20100801
727860,99999,SPOKANE,US,WA,,47.681,-117.627,+0729.1,20041004,20041004
727861,99999,SPOKANE NEXRAD,US,WA,OTX,47.683,117.633,+0745.0,20000827,20000827
727870,99999,DEER PARK,US,WA,KDEW,47.967,-117.427,+0674.0,19730101,20100731
727871,99999,COLVILLE MUNICIPAL,US,WA,,48.55,-117.883,+0572.0,19760305,19880404
727915,99999,CAPE DISAPPOINTMENT,US,WA,,46.28,-124.05,+0055.0,19750911,19901117
727917,99999,PACIFIC BEACH NF,US,WA,NIX,47.217,-124.2,+0018.0,19780124,19870521
727925,99999,SANDERSON FLD,US,WA,KSHN,47.233,-123.15,+0083.0,19730102,19981231
727926,24241,TOLEDO-WINLOCK ED CARLSON MEM,US,WA,KTDO,46.483,-122.817,+0115.5,20060101,20071001
727927,94225,HOQUIAM AP,US,WA,KHQM,46.973,-123.93,+0004.6,19730101,19901218
727933,99999,AUBURN,US,WA,KZSE,47.283,-122.183,+0099.0,19760607,19760607
727965,99999,ARLINGTON (AWOS)             ,US,WA,,48.167,-122.15,+0042.0,19810703,19941103
727974,99999,DESTRUCTION ISLAND,US,WA,,47.67,-124.48,+0024.0,19790507,19860320
727975,24255,WHIDBEY ISLAND NAS,US,WA,KNUW,48.35,-122.667,+0014.3,19730101,19891130
727978,24240,CAPE FLATTERY(CGLS)          ,US,WA,K93S ,48.383,-124.733,+0026.0,19750911,19860320
740030,99999,DUGWAY PROVING GROU,US,UT,KDPG,40.167,-112.933,+1325.0,19430614,20051230
742004,99999,BURROWS ISLAND,US,WA,,48.08,-122.1,+0018.0,19790507,19870609
742006,99999,BURLINGTON / MT VERN,US,WA,,48.47,-122.42,+0043.0,19850618,20000104
742016,99999,FRIDAY HARBOR,US,WA,S19  ,48.5,-123.0,+0037.0,19760130,19880812
742070,24201,GRAY AAF,US,WA,KGRF,47.083,-122.583,+0092.0,19390401,20101231
742070,99999,FORT LEWIS/GRAY AAF,US,WA,,47.133,-122.6,+0087.0,20000101,20040908
742071,99999,GRAY AAF,US,WA,,47.083,-122.583,+0092.0,20040713,20101231
744925,99999,CROWS LANDING CALIFORNIA NAAS,US,CA,NRC,37.4,-121.1,+0050.0,19450301,19460601
745039,99999,GOLDEN GATE BRIDGE,US,CA,KGGB,37.817,-122.467,+0081.0,19850522,19960701
745054,99999,POINT SUR,US,CA,,36.3,-121.883,+0034.0,19800227,20020802
745090,23244,MOFFETT FEDERAL AIRFIELD,US,CA,KNUQ,37.406,-122.048,+0011.9,19730101,20210822
745200,23176,MILFORD MUNICIPAL AP,US,UT,KMLF,38.417,-113.017,+1534.1,19830501,19850531
745201,23176,MILFORD MUNICIPAL AP,US,UT,KMLF,38.417,-113.017,+1534.1,19850601,19890501
745310,99999,AIR FORCE ACADEMY,US,CO,KAFF,38.967,-104.817,+1999.0,20000103,20041230
746060,99999,SOUTH VANDENBERG AFB,US,CA,,34.65,-120.567,+0112.0,19990822,19990822
746061,99999,VANDENBERG BOAT HOU,US,CA,,34.55,-120.617,+0026.0,19660808,19690305
746110,99999,BICYCLE LAKE AAF,US,CA,KBYS,35.281,-116.63,+0716.3,19840109,19980117
746140,99999,INDIAN SPRINGS GUNNERY RANGE,US,NV,,36.533,-115.9,+0951.9,20000613,20040908
746180,03147,CUDDLEBACK GUNNERY,US,CA,K4CB ,35.267,-117.433,+0864.0,19770118,19820910
746190,99999,SUPERIOR VALLEY GUNNERY RANGE,US,CA,,36.33,-117.1,+0962.0,19820806,19920617
746300,99999,STALLION AAF  NM,US,NM,,33.817,-106.667,+1506.0,19610301,19780728
746375,99999,CLINES CORNER,US,NM,,34.933,-105.583,+2109.0,19850207,19981013
746380,93064,MELROSE GUNNERY RAN,US,NM,K4MR ,34.3,-103.8,+1326.0,19630701,19730629
746380,99999,MELROSE GUNNERY RANGE,US,NM,K4MR ,34.295,-103.786,+1326.0,20101213,20210330
747041,99999,EL MONTE EMSU,US,CA,,34.083,-118.033,+0091.1,19850531,19900219
747186,03164,CAMPO,US,CA,KCZZ,32.626,-116.468,+0805.0,20060101,20201027
747240,03148,GILA BEND AF AUX AIRPORT,US,AZ,KGBN,32.883,-112.717,+0257.9,20050224,20191204
747240,23168,GILA BEND AF AUX,US,AZ,KGXF,32.883,-112.717,+0269.0,19481101,19991231
747240,99999,GILA BEND AF AUX,US,AZ,KGXF,32.883,-112.717,+0269.0,20000103,20041230
747255,99999,PAYSON,US,AZ,,34.267,-111.35,+1571.0,19950708,19960701
747320,99999,HOLLOMAN AFB,US,NM,KHMN,32.85,-106.1,+1248.0,19420901,20051229
747330,99999,NORTHRUP LANDING STRIP,US,NM,,33.9,-106.4,+1193.0,19820318,19940818
749158,99999,FORT SUMNER MUNI,US,NM,,34.483,-104.217,+1263.0,19430101,19451116
749163,99999,RODEO,US,NM,,31.933,-108.983,+1255.0,19460801,19540106
749164,99999,ELEPHANT BUTTE,US,NM,,33.233,-107.017,+1478.0,19460801,19500525
749165,99999,COLUMBUS MUNI,US,NM,,31.833,-107.65,+1223.0,19460801,19550101
749166,99999,DESERT CENTER AAF,US,CA,,33.75,-115.333,+0165.0,19430601,19440305
749168,99999,RICE AAF,US,CA,,34.067,-114.833,+0269.0,19430601,19440302
749169,99999,PASADENA,US,CA,,34.133,-118.133,+0231.0,19431115,19441011
749170,99999,GARDNER AAF,US,CA,,35.117,-119.3,+0133.0,19411201,19450221
749171,99999,TEHACHAPI MUNI,US,CA,KTSP,35.135,-118.439,+1219.5,19421113,19450101
749173,99999,COOLIDGE MUNI,US,AZ,KP08 ,32.936,-111.427,+0479.8,19440711,20210917
749174,99999,PORTERVILLE CALIFORNIA AAF,US,CA,PTV,36.033,-119.066,+0132.0,19450721,19451012
749175,99999,GOAT ROCK BEACH,US,CA,,38.433,-123.133,+0072.0,19430607,19450526
749177,99999,SANTA ROSA ISLAND,US,CA,,33.933,-120.117,+0455.0,19430611,19440301
749178,99999,MORRO BAY,US,CA,,35.367,-120.85,+0020.0,19461001,19470101
749179,99999,HOLLISTER MUNI,US,CA,KCVH,36.9,-121.417,+0070.1,19450301,19451016
749180,99999,VERNALIS NAVAL AUX,US,CA,,37.6,-121.3,+0059.0,19450401,19460116
749181,99999,WATSONVILLE CALIFORNIA NAAS,US,CA,WVI,36.933,-121.783,+0044.0,19450301,19451015
749182,99999,JUDITH GAP,US,MT,,46.7,-109.75,+1416.0,19440715,19451101
749183,99999,FORT BENTON,US,MT,,47.85,-110.65,+0880.0,19440226,19451101
749184,99999,CITY COUNTY AIRPORT,US,OR,,44.667,-121.167,+0744.0,19430501,19440517
749185,99999,ARLINGTON WASHINGTON NAS,US,WA,S88  ,48.199,-122.183,+0041.0,19450401,19451201
749473,99999,SUNSPOT SOLAR OBSV,US,NM,,32.8,-105.817,+2810.0,19480601,19480701
749475,99999,WHITE SANDS NORTH,US,NM,,32.883,-106.35,+1206.0,19630402,19741026
749476,99999,HOLTVILLE NAVAL AUX,US,CA,,32.833,-115.267,+0017.0,19450301,19460301
749479,99999,VANDENBERG CA/SUDDEN RANCH AF,US,CA,,34.583,-120.633,+0100.0,19690305,19690731
749495,99999,TWENTYNINE PALMS E,US,CA,,34.133,-116.033,+0600.0,19420701,19430403
997995,99999,SOUTH SLOUGH RESERVE,US,OR,,43.35,-124.317,+0013.0,20080115,20150504
998175,99999,CAL POLY PIER,US,CA,,35.167,-120.733,+0016.0,20080130,20210730
998408,99999,USS MIDWAY S NAVY PIER,US,CA,,32.714,-117.175,+0035.0,20100707,20170711
999999,00480,EAGLE RANGE WSO,US,UT,,41.05,-113.06,+1292.1,20140731,20210918
999999,03053,DONA ANA COUNTY AIRPORT AT SA,US,NM,K5T6 ,31.883,-106.717,+1253.3,20040102,20051219
999999,03075,DULCE 1 NW                   ,US,NM,,36.935,-107.0,+2074.5,20090712,20110304
999999,03076,GRAND JUNCTION 9 W           ,US,CO,,39.102,-108.735,+1769.7,20090616,20140601
999999,03077,HOLBROOK 17 ESE              ,US,AZ,,34.822,-109.893,+1710.8,20090711,20140601
999999,03078,EADS 16 ENE                  ,US,CO,,38.544,-102.503,+1209.1,20090619,20140601
999999,03079,SAGUACHE 2 WNW               ,US,CO,,38.099,-106.171,+2384.5,20090618,20140601
999999,03080,RESERVE 1 W                  ,US,NM,,33.715,-108.777,+1780.6,20090710,20140601
999999,03081,TROPIC 9 SE                  ,US,UT,,37.517,-111.978,+1796.8,20090714,20140601
999999,03082,CARRIZOZO 1 W                ,US,NM,,33.648,-105.895,+1635.6,20090709,20140601
999999,03083,STRATTON 24 N                ,US,CO,,39.655,-102.622,+1283.8,20090614,20140601
999999,03084,CENTER A 4 SSW               ,US,CO,,37.707,-106.144,+2340.3,20091102,20140601
999999,03085,BOWIE 23 SSE                 ,US,AZ,,32.01,-109.389,+1564.5,20100226,20140601
999999,03086,SPRINGFIELD 6 WSW            ,US,CO,,37.381,-102.719,+1389.0,20100517,20140601
999999,03087,SANTA FE 20 WNW              ,US,NM,,35.825,-106.318,+2212.2,20100509,20140601
999999,03088,WOODLAND PARK 14 WSW         ,US,CO,,38.911,-105.265,+2601.5,20100629,20140601
999999,03089,ROCKY FORD 1 ESE             ,US,CO,,38.039,-103.695,+1271.0,20091101,20140601
999999,03090,TAOS 27 NW                   ,US,NM,,36.652,-105.972,+2484.4,20091103,20140601
999999,03091,KIM 9 WSW                    ,US,CO,,37.217,-103.504,+1789.2,20100515,20140601
999999,03092,RATON 26 ESE                 ,US,NM,,36.778,-103.982,+2204.3,20100513,20140601
999999,03093,GENOA 35 N                   ,US,CO,,39.786,-103.517,+1452.1,20100701,20140601
999999,03094,CLAYTON 3 ENE                ,US,NM,,36.47,-103.124,+1489.0,20100511,20140601
999999,03095,MILLS 6 WSW                  ,US,NM,,36.061,-104.355,+1788.0,20100512,20140601
999999,03096,RIFLE 23 NW                  ,US,CO,,39.761,-108.127,+2301.2,20100720,20140601
999999,03097,MOUNTAINAIR 2 WSW            ,US,NM,,34.517,-106.27,+1977.9,20100627,20140601
999999,03098,EAGLE 13 SSE                 ,US,CO,,39.483,-106.734,+2622.8,20100718,20140601
999999,03099,CRAIG 30 N                   ,US,CO,,40.948,-107.608,+1986.7,20100721,20140601
999999,03103,FLAGSTAFF PULLIAM ARPT,US,AZ,KFLG,35.144,-111.666,+2139.1,19510101,19761231
999999,03104,PALM SPRINGS THERMAL AP,US,CA,KTRM,33.627,-116.159,-0036.0,19500509,19540130
999999,03109,CAMP MERCURY,US,NV,,36.95,-116.083,+1196.0,19510214,19540501
999999,03122,TORRANCE AIRPORT,US,CA,,33.802,-118.342,+0027.4,19530525,19540326
999999,03124,FORT HUACHUCA,US,AZ,KFHU,31.588,-110.344,+1432.0,19710101,19710801
999999,03125,YUMA PROVING GROUND,US,AZ,,32.833,-114.4,+0098.8,19550101,19630101
999999,03129,MOJAVE MCAS,US,CA,,35.05,-118.167,+0842.5,19551003,19581001
999999,03143,JACKASS FLATS,US,NV,,36.8,-116.267,+1100.9,19610425,19611217
999999,03147,CUDDEBACK GUNNERY RANGE,US,CA,4CB  ,35.267,-117.433,+0864.1,19630701,19701231
999999,03154,CAMP PENDLETON MCAS,US,CA,KNFG,33.3,-117.35,+0023.8,19660701,19721228
999999,03157,LONG BEACH NS,US,CA,NWF,33.75,-118.233,+0004.3,19720601,19721229
999999,04133,HEBER CITY MUNI ARPT-RUSS MCD,US,UT,,40.482,-111.429,+1718.2,20040702,20171012
999999,04143,PROVO 22 E                   ,US,UT,,40.282,-111.24,+2379.9,20100731,20140601
999999,23012,DENVER LOWRY AFB,US,CO,LRY,39.717,-104.9,+1645.0,19460801,19660701
999999,23036,AURORA BUCKLEY FIELD ANGB,US,CO,KBKF,39.717,-104.75,+1725.8,19710101,19710101
999999,23043,ROSWELL MUNI AP,US,NM,RNM,33.4,-104.533,+1106.1,19480701,19690115
999999,23048,TUCUMCARI FAA AP,US,NM,KTCC,35.182,-103.603,+1231.1,19640101,19711231
999999,23052,RATON MUNICIPAL CREWS FIELD A,US,NM,KRTN,36.741,-104.502,+1935.2,19480701,19681129
999999,23056,OTTO FAA AP,US,NM,,35.083,-106.017,+1900.1,19480701,19550101
999999,23057,ACOMITA FAA AP,US,NM,,35.05,-107.717,+2007.1,19480701,19530429
999999,23058,COLUMBUS,US,NM,,31.833,-107.633,+1239.0,19480701,19550101
999999,23060,EL MORRO CAA AP,US,NM,,35.017,-108.4,+2171.1,19480701,19490215
999999,23067,LA JUNTA MUNICIPAL AP,US,CO,KLHX,38.049,-103.512,+1284.7,19480101,19650101
999999,23068,PUEBLO WB AIRPORT,US,CO,,38.233,-104.633,+1464.9,19480101,19540701
999999,23070,TRINIDAD LAS ANIMAS COUNTY AP,US,CO,KTAD,37.262,-104.338,+1750.5,19480101,19611001
999999,23109,DAVIS MONTHAN AFB,US,AZ,KDMA,32.167,-110.883,+0824.2,19710101,19710101
999999,23118,STEAD AFB,US,NV,RAA,39.667,-119.867,+1531.9,19520801,19660331
999999,23131,GEORGE AFB,US,CA,KVCV,34.583,-117.383,+0879.3,19710101,19710101
999999,23141,INDIAN SPRINGS,US,NV,KINS,36.583,-115.683,+0951.9,19630903,19680829
999999,23152,HOLLYWOOD BURBANK ARPT,US,CA,KBUR,34.201,-118.358,+0223.1,19480101,19690101
999999,23153,TONOPAH AIRPORT,US,NV,KTPH,38.051,-117.09,+1656.3,19510402,19761231
999999,23156,BEAUMONT 1 E                 ,US,CA,BUO,33.933,-116.967,+0794.0,19480101,19530826
999999,23167,FRESNO CHANDLER FIELD,US,CA,FCH,36.733,-119.817,+0084.1,19480101,19490901
999999,23170,HANKSVILLE,US,UT,KHVE,38.371,-110.715,+1354.5,19481101,19550101
999999,23172,INDIO COACHELLA,US,CA,,33.683,-116.167,-0020.1,19481101,19500508
999999,23173,LAS VEGAS WB AP,US,NV,,36.233,-115.033,+0573.9,19480101,19481219
999999,23176,MILFORD MUNICIPAL AP,US,UT,KMLF,38.417,-113.017,+1534.1,19480723,19961231
999999,23177,MODENA,US,UT,,37.8,-113.917,+1663.9,19480101,19480801
999999,23178,MOUNT LAGUNA CAA AP,US,CA,,32.867,-116.417,+1893.1,19490101,19500224
999999,23179,NEEDLES AIRPORT,US,CA,KEED,34.768,-114.619,+0278.6,19481101,19650101
999999,23180,NEWHALL AP,US,CA,,34.4,-118.55,+0370.0,19480901,19490801
999999,23181,OCEANSIDE CAA AP,US,CA,OCN,33.233,-117.417,+0007.9,19481101,19520201
999999,23182,PALMDALE AIRPORT,US,CA,KPMD,34.629,-118.084,+0787.0,19481101,19650101
999999,23190,SANTA BARBARA MUNICIPAL AP,US,CA,KSBA,34.426,-119.843,+0006.1,19481101,19650101
999999,23191,SANTA CATALINA BUFFALO SPRING,US,CA,KAVX,33.405,-118.416,+0488.3,19480101,19680323
999999,23192,SILVER LAKE CAA AP,US,CA,,35.333,-116.083,+0281.0,19481101,19500731
999999,23193,TUCSON WBO,US,AZ,,32.183,-110.917,+0780.0,19480101,19481101
999999,23196,CHULA VISTA BROWN FIELD NAAS,US,CA,KSDM,32.583,-116.983,+0159.4,19450401,19610501
999999,23199,EL CENTRO NAF,US,CA,KNJK,32.817,-115.683,-0013.1,19450201,19601101
999999,23202,TRAVIS FIELD AAB,US,CA,KSUU,38.267,-121.933,+0018.9,19710101,19710101
999999,23226,DONNER SUMMIT,US,CA,,39.317,-120.333,+2194.0,19481101,19520131
999999,23233,SALINAS MUNICIPAL AP,US,CA,KSNS,36.664,-121.608,+0023.5,19481101,19650101
999999,23236,SANTA MARIA HANCOCK FIELD,US,CA,,34.933,-120.417,+0071.0,19480101,19541021
999999,23238,WILLIAMS CAA AIRPORT,US,CA,,39.1,-122.15,+0039.0,19481101,19521230
999999,23242,LIVERMORE NAS,US,CA,,37.683,-121.7,+0196.9,19450201,19460811
999999,23245,MONTEREY NAF,US,CA,KMRY,36.6,-121.867,+0050.0,19450301,19720301
999999,23246,SANTA ROSA NAAS,US,CA,,38.417,-122.75,+0042.1,19450301,19470416
999999,23250,FARALLON ISLAND NAS,US,CA,K50Q ,37.7,-123.0,+0009.1,19450701,19450801
999999,23254,CONCORD CONCORD-BUCHANAN FIEL,US,CA,KCCR,37.992,-122.055,+0018.3,19690101,19700101
999999,23275,UKIAH MUNICIPAL AP,US,CA,KUKI,39.126,-123.201,+0190.8,19490912,19650101
999999,24015,AKRON WASHINGTON CO AP,US,CO,KAKO,40.167,-103.217,+1408.5,19480101,19550101
999999,24016,CASPER,US,WY,,42.917,-106.333,+1613.0,19480101,19500308
999999,24019,DOUGLAS,US,WY,4DG  ,42.75,-105.383,+1466.1,19480601,19550101
999999,24022,LARAMIE GENERAL BREES FIELD,US,WY,KLAR,41.317,-105.683,+2216.5,19480101,19550101
999999,24031,SINCLAIR CAA AP,US,WY,,41.8,-107.05,+2000.1,19480101,19510226
999999,24034,GLASGOW # 2                  ,US,MT,,48.183,-106.633,+0637.0,19480101,19551025
999999,24035,HAVRE,US,MT,,48.567,-109.667,+0759.9,19480101,19610131
999999,24040,CUSTER,US,MT,,46.133,-107.533,+0836.1,19480101,19500515
999999,24057,RAWLINS MUNICIPAL AP,US,WY,KRWL,41.8,-107.2,+2055.3,19550101,19650101
999999,24088,MOORCROFT 3 S                ,US,WY,,44.217,-104.933,+1318.3,19500101,19520715
999999,24101,OGDEN HILL AAF,US,UT,KHIF,41.117,-111.967,+1459.7,19710101,19710101
999999,24118,FORT BRIDGER AP,US,WY,,41.4,-110.417,+2140.9,19480601,19550101
999999,24119,BATTLE MOUNTAIN LANDER COUNTY,US,NV,KBAM,40.612,-116.892,+1381.4,19481101,19550101
999999,24120,COALVILLE SAWRS,US,UT,CVL,40.917,-111.4,+1763.0,19480101,19480611
999999,24121,ELKO MUNICIPAL ARPT,US,NV,KEKO,40.829,-115.789,+1546.6,19480101,19761231
999999,24122,FAIRFIELD CAA AP,US,UT,,40.35,-112.05,+1513.9,19481101,19500731
999999,24125,LUCIN,US,UT,,41.35,-113.9,+1362.2,19481101,19500306
999999,24126,OGDEN AIRPORT,US,UT,KOGD,41.196,-112.011,+1353.0,19480101,19550101
999999,24129,WINNEMUCCA WB CITY,US,NV,,40.967,-117.717,+1309.1,19480101,19490207
999999,24130,BAKER MUNICIPAL AP,US,OR,KBKE,44.843,-117.809,+1028.1,19480101,19641231
999999,24132,BOZEMAN GALLATIN FIELD,US,MT,KBZN,45.788,-111.161,+1356.1,19480101,19550101
999999,24133,BURLEY MUNICIPAL ARPT,US,ID,KBYI,42.542,-113.766,+1267.1,19480101,19650101
999999,24134,BURNS FEDERAL BLDG,US,OR,4BW  ,43.583,-119.05,+1262.2,19480101,19800215
999999,24135,BUTTE SILVER BOW CO ARPT,US,MT,KBTM,45.965,-112.501,+1686.5,19480101,19610101
999999,24138,DILLON,US,MT,KDLN,45.258,-112.554,+1591.7,19480101,19970630
999999,24139,DRUMMOND AVIATION,US,MT,,46.638,-113.176,+1219.2,19480101,19550101
999999,24140,DUBOIS FAA AIRPORT,US,ID,DBS,44.167,-112.217,+1563.9,19480101,19550101
999999,24141,EPHRATA AP FCWOS,US,WA,KEPH,47.308,-119.515,+0383.7,19480101,19550101
999999,24142,,US,ID,,42.917,-114.717,+1088.1,19480101,19550101
999999,24145,IDAHO FALLS FANNING FIELD,US,ID,KIDA,43.516,-112.067,+1446.0,19480101,19650101
999999,24147,LA CROSSE,US,WA,,46.817,-117.883,+0452.0,19480101,19480919
999999,24148,LA GRANDE MUNI AP,US,OR,KLGD,45.283,-118.0,+0828.1,19490101,19531231
999999,24150,LIVINGSTON MISSION FIELD,US,MT,KLVM,45.698,-110.441,+1407.6,19480101,19550101
999999,24151,MALAD CITY AIRPORT,US,ID,KMLD,42.149,-112.287,+1372.5,19480101,19550101
999999,24154,MULLAN PASS VOR/DME,US,ID,KMLP,47.457,-115.645,+1851.4,19480101,19550101
999999,24157,SPOKANE,US,WA,KGEG,47.622,-117.528,+0720.9,19680101,19711231
999999,24158,STREVELL,US,ID,4SV  ,42.017,-113.25,+1609.3,19480101,19501216
999999,24159,SUPERIOR,US,MT,,47.2,-114.883,+0826.0,19480101,19531114
999999,24160,WALLA WALLA MUNICIPAL AP,US,WA,KALW,46.095,-118.287,+0367.3,19660101,19660101
999999,24161,WHITEHALL,US,MT,4HA  ,45.867,-111.967,+1303.9,19480101,19550101
999999,24162,ONTARIO AIRPORT,US,OR,KONO,44.021,-117.013,+0668.4,19480101,19550101
999999,24163,PASCO NAS,US,WA,KPSC,46.267,-119.117,+0122.5,19450401,19460601
999999,24172,LOVELOCK DERBY FIELD,US,NV,KLOL,40.068,-118.569,+1189.9,19481101,19761231
999999,24212,BURNEY,US,CA,KBNY,40.883,-121.667,+0962.6,19480101,19480927
999999,24215,MOUNT SHASTA,US,CA,KMHS,41.333,-122.333,+1077.5,19480401,19761231
999999,24219,THE DALLES MUNICIPAL ARPT,US,WA,KDLS,45.619,-121.166,+0064.0,19480101,19650101
999999,24220,ELLENSBURG BOWERS FI,US,WA,KELN,47.034,-120.53,+0538.0,19480601,19550101
999999,24223,KELSO WB AP,US,WA,KKLS,46.117,-122.894,+0006.1,19480101,19530831
999999,24224,KLAMATH FALLS KINGSLEY FIELD,US,OR,,42.167,-121.733,+1244.8,19480101,19590901
999999,24226,NORTH HEAD,US,WA,,46.3,-124.083,+0064.0,19480101,19490101
999999,24228,PORT ANGELES WB AP,US,WA,NOW,48.133,-123.4,+0006.1,19490101,19530201
999999,24231,ROSEBURG MUNICIPAL AP,US,OR,KRBG,43.239,-123.355,+0155.1,19480101,19650101
999999,24236,SISKIYOU SUMMIT,US,OR,,42.083,-122.567,+1367.0,19480101,19480919
999999,24238,STEVENSON,US,WA,,45.717,-121.833,+0096.9,19490101,19520416
999999,24240,TATOOSH ISLAND,US,WA,K93S ,48.383,-124.733,+0025.9,19480101,19660801
999999,24244,SEATTLE NAS,US,WA,NEJ,47.683,-122.267,+0014.9,19450301,19700601
999999,24248,CORVALLIS NAAS,US,OR,,44.5,-123.283,+0075.0,19450622,19450915
999999,24249,KLAMATH FALLS NAS,US,OR,,42.133,-121.75,+1247.9,19450401,19451001
999999,24250,LAKEVIEW NSA,US,OR,,42.15,-120.4,+1444.1,19450401,19451001
999999,24251,NORTH BEND NAAF,US,OR,,43.417,-124.233,+0015.8,19450501,19450915
999999,24252,QUILLAYUTE NAAS,US,WA,,47.95,-124.533,+0061.9,19450301,19450901
999999,24253,SHELTON NAAS,US,WA,,47.233,-123.133,+0091.1,19450401,19450916
999999,24254,TILLAMOOK NAS,US,OR,,45.417,-123.8,+0011.9,19460101,19480430
999999,24259,MONTAGUE SISKIYOU COUNTY AP,US,CA,KSIY,41.781,-122.472,+0805.0,19560101,19660101
999999,24278,HOQUIAM,US,WA,,46.967,-123.883,+0004.9,19530501,19530601
999999,24284,NORTH BEND MUNI AIRPORT,US,OR,KOTH,43.413,-124.244,+0005.2,19490501,19761231
999999,24285,NEWPORT MUNICIPAL AP,US,OR,KONP,44.583,-124.05,+0048.8,19490801,19501115
999999,24286,CRESCENT CITY FAA AI,US,CA,KCEC,41.78,-124.237,+0016.8,19491015,19550101
999999,53002,ARTESIA 2 WNW                ,US,NM,,32.855,-104.457,+1067.1,20100624,20140601
999999,53003,GRANTS 2 S                   ,US,NM,,35.119,-107.83,+1963.8,20100828,20140601
999999,53004,BLUFF 32 NW                  ,US,UT,,37.601,-109.989,+1959.3,20100813,20140601
999999,53005,BUENA VISTA 2 SSE            ,US,CO,,38.811,-106.122,+2418.0,20100717,20140601
999999,53006,AMADO 23 W                   ,US,AZ,,31.692,-111.448,+1005.8,20100926,20140601
999999,53007,COLORADO SPRINGS 23 NW       ,US,CO,,39.088,-105.088,+2399.4,20100630,20140601
999999,53008,CLOVIS 7 N                   ,US,NM,,34.512,-103.174,+1315.5,20091213,20140601
999999,53009,RAMAH 9 SE                   ,US,NM,,35.046,-108.364,+2183.6,20100902,20140601
999999,53010,MONTICELLO 24 NW             ,US,UT,,38.14,-109.617,+1531.6,20100814,20140601
999999,53011,TSAILE 1 SSW                 ,US,AZ,,36.292,-109.218,+2155.2,20100817,20130624
999999,53012,BLANDING 26 SSW              ,US,UT,,37.267,-109.607,+1338.1,20100815,20140601
999999,53013,CEDAR CITY 18 SSE            ,US,UT,,37.457,-113.225,+1553.3,20100804,20140601
999999,53014,MEXICAN HAT 10 NW            ,US,UT,,37.251,-109.988,+1939.8,20100818,20140601
999999,53015,HAGERMAN 10 ESE              ,US,NM,,33.088,-104.162,+1082.7,20100904,20140601
999999,53016,VAUGHN 36 SSE                ,US,NM,,34.137,-104.93,+1534.4,20100828,20140601
999999,53017,AZTEC 43 E                   ,US,NM,,36.75,-107.219,+2140.9,20100831,20140601
999999,53156,PHOENIX 7 S                  ,US,AZ,,33.347,-112.083,+0427.9,20100301,20140601
999999,53159,CAMERON 25 SSE               ,US,AZ,,35.504,-111.345,+1465.2,20091215,20140601
999999,53160,CAMP VERDE 3 N               ,US,AZ,,34.614,-111.843,+1046.7,20100302,20140601
999999,53162,COOLIDGE 5 W                 ,US,AZ,,32.992,-111.533,+0434.3,20100227,20140601
999999,53163,SOCORRO 17 WSW               ,US,NM,,33.98,-107.187,+3196.1,20100625,20140601
999999,53164,PAGE 9 WSW                   ,US,AZ,,36.864,-111.601,+0991.8,20100803,20140601
999999,53165,DELTA 4 NE                   ,US,UT,,39.387,-112.51,+1451.2,20100801,20140601
999999,53166,ST. GEORGE 15 NE             ,US,UT,,37.216,-113.379,+1041.5,20100805,20120927
999999,53167,MIDWAY 3 NE                  ,US,UT,,40.547,-111.414,+1752.0,20100723,20140601
999999,53168,AJO 29 S                     ,US,AZ,,31.95,-112.801,+0506.3,20100927,20140601
999999,53169,KAYENTA 16 WSW               ,US,AZ,,36.682,-110.542,+2217.1,20100819,20140601
999999,53170,HEBER 3 SE                   ,US,AZ,,34.398,-110.566,+2019.3,20091217,20140601
999999,53171,MILFORD 42 WNW               ,US,UT,,38.594,-113.751,+1601.7,20100802,20140601
999999,53172,LAKE HAVASU CITY 19 SE       ,US,AZ,,34.253,-114.134,+0126.8,20100922,20140601
999999,53173,NAGEEZI 18 SSW               ,US,NM,,36.035,-107.905,+1965.7,20100901,20140601
999999,53176,GILA BEND 3 ENE              ,US,AZ,,32.965,-112.67,+0237.7,20100924,20140601
999999,93026,DOUGLAS MUNICIPAL AP,US,AZ,KDUG,31.458,-109.606,+1250.0,19481101,19550101
999999,93032,DENVER NAS,US,CO,,39.7,-104.75,+1695.9,19471001,19590310
999999,93057,GRANTS MILAN MUNICIPAL AP,US,NM,KGNT,35.166,-107.899,+1987.3,19540101,19550101
999999,93063,SILVER CITY GRANT CO,US,NM,KSVC,32.633,-108.167,+1659.9,19600502,19680830
999999,93101,EL TORO MCAS,US,CA,KNZJ,33.667,-117.733,+0116.7,19450301,20001101
999999,93104,CHINA LAKE NAF,US,CA,KNID,35.688,-117.693,+0695.9,19450401,19721201
999999,93105,LITCHFIELD PARK NAF,US,AZ,,33.433,-112.367,+0292.0,19480401,19660929
999999,93107,SAN DIEGO MIRAMAR NAS,US,CA,KNKX,32.867,-117.133,+0145.7,19470701,19881231
999999,93108,MOJAVE MCAS,US,CA,,35.117,-118.15,+0841.9,19450401,19470101
999999,93113,SAN PEDRO NAS,US,CA,,33.75,-118.25,+0013.1,19450301,19470601
999999,93114,MARINE CORPS AIR STATION,US,CA,KNTK,33.7,-117.833,+0017.1,19450301,19751231
999999,93116,SAN NICHOLAS ISLAND,US,CA,KNSI,33.25,-119.45,+0153.6,19450401,19721201
999999,93118,SALTON SEA NAAF,US,CA,,33.2,-115.833,-0068.9,19450401,19451101
999999,93120,THERMAL NAF,US,CA,,33.617,-116.167,-0036.0,19450401,19450801
999999,93121,TWENTY NINE PALMS,US,CA,KNXP,34.3,-116.167,+0625.1,19450501,19451031
999999,93123,FALLON CAA AP,US,NV,,39.417,-118.717,+1200.0,19481101,19550101
999999,93132,GREEN RIVER,US,UT,,39.0,-110.15,+1241.2,20050609,20051221
999999,93134,LOS ANGELES DOWNTOWN USC CAMP,US,CA,KCQT,34.024,-118.291,+0056.4,19990701,19991231
999999,93136,MOUNT WILSON,US,CA,KMWS,34.233,-118.067,+1738.9,19490101,19491231
999999,93139,PAYSON,US,AZ,0E4  ,34.233,-111.333,+1498.1,19480701,19520526
999999,93193,FRESNO YOSEMITE INTL AP,US,CA,KFAT,36.78,-119.719,+0099.7,19650101,19711231
999999,93198,ST GEORGE INTERM FLD,US,UT,,37.05,-113.517,+0882.7,19481101,19550101
999999,93209,PASO ROBLES MUNICIPAL ARPT,US,CA,KPRB,35.67,-120.628,+0249.0,19530101,19650101
999999,93211,OAKLAND NAS,US,CA,NBJ,37.733,-122.2,+0002.1,19490601,19541031
999999,93215,POINT ARGUELLO AFWB,US,CA,,34.667,-120.583,+0111.9,19590701,19650401
999999,93216,BEALE AFB,US,CA,KBAB,39.133,-121.433,+0034.4,19710101,19710101
999999,93217,FRITZSCHE AAF,US,CA,KOAR,36.683,-121.767,+0043.9,19710101,19710101
999999,93226,PT POEDRAS BLANCA,US,CA,K87Q ,35.666,-121.285,+0018.0,19980202,19981231
999999,94010,ST MARIE,US,MT,,48.417,-106.533,+0838.2,19581001,19680628
999999,94092,AKRON A 4 E                  ,US,CO,,40.155,-103.142,+1384.4,20090615,20140601
999999,94094,MEEKER 15 W                  ,US,CO,,40.082,-108.2,+1756.0,20100719,20140601
999999,94107,ROME STATE AIRPORT,US,OR,KREO,42.591,-117.864,+1234.4,19491003,19501115
999999,94143,IDAHO FALLS 46 W             ,US,ID,,43.533,-112.95,+1505.1,19650101,19671011
999999,94144,IDAHO FALLS 42 NW WB         ,US,ID,,43.833,-112.683,+1460.9,19650101,19670111
999999,94225,HOQUIAM AP,US,WA,KHQM,46.973,-123.93,+0004.6,19490401,19590101
999999,94236,KLAMATH FALLS KINGSLEY FLD AF,US,OR,KLMT,42.147,-121.724,+1247.2,19710101,19710101
A00014,03053,DONA ANA COUNTY AIRPORT AT SA,US,NM,K5T6 ,31.883,-106.717,+1253.3,20060107,20061115
A00026,94297,COUPEVILLE/NOLF,US,WA,KNRA,48.217,-122.633,+0060.7,20060324,20150514
A07053,00346,TRINITY CENTER AIRPORT,US,CA,KO86 ,40.983,-122.694,+0728.2,20140731,20200925
691224,99999,AFWA ASSIGNED,US,CA,KQAM,,,,19781028,20040730
695424,99999,AFWA ASSIGNED,US,CA,KQNM,,,,20011101,20020820
724916,93217,FRITZSCHE AAF,US,CA,KOAR,36.683,-121.767,,19730102,19901229
742010,24228,PORT ANGELES WB AP,US,WA,KNOW,48.139,-123.403,,19730101,19901128
693654,99999,NTC MOBILE,US,CA,,0.0,0.0,+0000.0,19810221,20001019
726656,99999,BANGOR CGS,US,WA,,47.733,-122.717,+0000.0,19850118,19850130
727735,24139,DRUMMOND,US,MT,K3DU ,46.638,-113.176,+0000.0,19730101,20120930
727973,99999,BANGOR CGS,US,WA,NMI,47.733,-122.717,+0000.0,19850130,19880106
742075,99999,POINT ROBINSON COAST GUARD LI,US,WA,,47.38,-122.37,+0000.0,19750911,19950326
749477,99999,SALTON SEA,US,CA,,33.417,-115.833,+0000.0,19660101,19700101
724956,23211,HAMILTON AAF,US,CA,KSRF,38.067,-122.5,+0001.0,19390301,19760709
726956,99999,YAQUINA BAY COAST GUARD STATI,US,OR,,44.62,-124.05,+0001.0,19750916,19910105
742005,99999,PATOS ISLAND (CGS)           ,US,WA,,48.733,-122.967,+0001.0,19760209,19810711
742066,99999,MULKITEO (CGS)               ,US,WA,,47.95,-122.3,+0001.0,19781102,19781102
745095,99999,SANTA CRUZ HARBOR,US,CA,,36.97,-122.0,+0001.0,19760130,19960701
722884,99999,SANTA MONICA PIER,US,CA,,34.0,-118.5,+0002.0,19770827,19960630
722914,99999,MISSION BEACH,US,CA,,32.77,-117.23,+0002.0,19780823,19960701
723921,99999,POINT ARGUELLO(CGS)          ,US,CA,,34.567,-120.667,+0002.0,19760309,19861124
723929,99999,OXNARD / CHANNEL ISLAND,US,CA,,34.17,-119.22,+0002.0,19760130,19960701
725947,99999,SAMOA / HUMBOLDT BAY,US,CA,,40.77,-124.23,+0002.0,19750916,19960619
726957,99999,PACIFIC CITY STATE,US,OR,,45.2,-123.967,+0002.0,19901023,19921118
994014,99999,SEATTLE,US,WA,,47.605,-122.338,+0002.0,20080101,20190102
994019,99999,MONTEREY,US,CA,,36.605,-121.888,+0002.0,20080101,20151231
722917,99999,LONG BEACH,US,CA,,33.77,-118.17,+0003.0,19780823,19820427
722924,99999,SANTA CATALINA ISLAND,US,CA,,33.33,-118.33,+0003.0,19770827,19960630
722933,99999,SAN CLEMENTE,US,CA,,33.42,-117.62,+0003.0,19810506,19960630
722973,99999,NEWPORT BEACH,US,CA,,33.6,-117.88,+0003.0,19770827,19960701
722974,99999,LONG BEACH,US,CA,K5L8 ,33.767,-118.167,+0003.0,19770208,19891127
727984,99999,NEAH BAY,US,WA,8S7  ,48.367,-124.6,+0003.0,19790507,19950929
997734,99999,TIBURON PIER,US,CA,,37.92,-122.45,+0003.0,20080101,20210901
997984,99999,DATA BUOY 46094              ,US,OR,,44.633,-124.3,+0003.0,20080724,20080917
722959,99999,SCRIPPS PIER / LA JOL,US,CA,,32.87,-117.25,+0004.0,19780823,19900321
727929,99999,WILLAPA HARBOR,US,WA,,46.698,-123.823,+0004.0,19750916,19791001
745060,23239,ALAMEDA(USN)                 ,US,CA,KNGZ,37.733,-122.317,+0004.0,19730101,19970102
999999,24246,ASTORIA NAS,US,OR,,46.167,-123.883,+0004.0,19450401,19460520
999999,93124,SANTA BARBARA MCAS,US,CA,,34.433,-119.85,+0004.0,19450401,19460301
722919,99999,SOLANA BEACH,US,CA,,32.98,-117.27,+0005.0,19831106,19960630
722983,99999,POINT VINCENTE,US,CA,,33.73,-118.4,+0005.0,19880106,19880309
722985,99999,LONGBEACH RADIO,US,CA,,33.75,-118.333,+0005.0,19750916,19800207
724918,99999,CASTROVILLE / MOSS,US,CA,,36.8,-121.8,+0005.0,19760130,19800516
745097,99999,SAN FRANCISCO PBS,US,CA,,37.75,-122.7,+0005.0,19760130,19960701
722954,99999,ZUMA BEACH,US,CA,,34.02,-118.82,+0006.0,19770827,19960630
726834,99999,CHETCO RIVER COAST GUARD STAT,US,OR,,42.15,-124.27,+0006.0,19771108,19910105
727916,99999,GRAYS HARBOR COAST GUARD STAT,US,WA,,46.92,-124.1,+0006.0,19750916,19901117
723924,99999,VENTURA HARBOR,US,CA,,34.25,-119.25,+0007.0,19770827,19960701
722883,99999,HERMOSA BEACH PIER,US,CA,,33.87,-118.4,+0008.0,19770827,19960630
722913,99999,MARINA DEL REY,US,CA,,33.97,-118.43,+0008.0,19771005,19960630
722958,99999,CABRILLO BEACH,US,CA,,33.72,-118.28,+0008.0,19760130,19960630
723923,99999,SANTA BARBARA HARBOR,US,CA,,34.4,-119.7,+0008.0,19770827,19960701
724943,99999,TREASURE ISLAND,US,CA,,37.8,-122.37,+0008.0,19820711,19960627
722929,99999,OCEANSIDE HARBOR,US,CA,,33.22,-117.4,+0009.0,19770827,19960630
722986,99999,TERMINAL ISLAND,US,CA,,33.73,-118.27,+0010.0,19770827,19860529
723915,99999,SANTA CRUZ ISLAND,US,CA,KSZN,34.02,-119.75,+0010.0,19730103,19800617
723961,99999,PT.PIEDRAS BLANCA,US,CA,,35.667,-121.283,+0010.0,19760730,19770728
722975,93106,LOS ALAMITOS AAF,US,CA,KSLI,33.783,-118.05,+0011.0,19820907,19991231
724955,99999,NAPA CO,US,CA,KAPC,38.213,-122.281,+0011.0,19730101,19991231
726963,99999,TILLAMOOK,US,OR,S47  ,45.417,-123.817,+0011.0,19920828,19950607
999999,93106,LOS ALAMITOS,US,CA,KSLI,33.783,-118.05,+0011.0,19450401,19710731
724950,23250,CONCORD/BUCHANAN,US,CA,KCCR,37.983,-122.05,+0012.0,19760131,19960630
724958,99999,PORT CHICAGO,US,CA,,38.03,-122.03,+0012.0,19750916,19960607
745090,99999,MOUNTAIN VIEW /SUNN,US,CA,KNUQ,37.417,-122.05,+0012.0,20000323,20031226
722859,99999,DANA POINT,US,CA,,33.45,-117.68,+0015.0,19840607,19960630
724953,99999,RIO NIDO,US,CA,,38.517,-122.917,-0999.0,19891111,19900303
740114,99999,PACIFIC BUOY,US,CA,,39.2,-124.0,-0999.0,19820311,19850426
740124,99999,PACIFIC BUOY,US,CA,,38.2,-123.3,-0999.0,19820107,19850426
740144,99999,PACIFIC BUOY,US,CA,,34.9,-120.9,-0999.0,19820107,19850426
740154,99999,PACIFIC BUOY,US,CA,,40.8,-124.5,-0999.0,19820625,19850426
740164,99999,PACIFIC BUOY,US,CA,,37.8,-122.7,-0999.0,19821019,19850426
740174,99999,PACIFIC BUOY,US,CA,,35.8,-121.7,-0999.0,19850118,19850123
740184,99999,PACIFIC BUOY,US,CA,,40.4,-124.5,-0999.0,19850118,19850426
740194,99999,PACIFIC BUOY,US,CA,,41.8,-124.4,-0999.0,19850629,19870701
999999,03133,YUCCA FLATS TEST S T,US,NV,UCC,36.95,-116.05,+1196.9,19611217,19721231
999999,23050,ALBUQUERQUE MUNICIPAL ARPT,US,NM,KABQ,35.042,-106.616,+1619.7,19710101,19721231
999999,23051,CLAYTON MUNICIPAL AIRPARK,US,NM,KCAO,36.449,-103.154,+1515.5,19480701,19721231
999999,23061,ALAMOSA ARPT,US,CO,KALS,37.439,-105.861,+2298.5,19480101,19721231
999999,23062,DENVER STAPLETON AIRFIELD,US,CO,KDNR,39.767,-104.883,+1626.1,19670101,19721231
999999,23063,EAGLE COUNTY AP,US,CO,KEGE,39.65,-106.917,+1991.9,19480101,19721231
999999,23066,GRAND JUNCTION WALKER FIELD,US,CO,KGJT,39.134,-108.54,+1474.9,19480101,19721231
999999,23090,FARMINGTON MUNICIPAL AP,US,NM,KFMN,36.744,-108.229,+1677.0,19490101,19721231
999999,23110,LEMOORE REEVES NAS,US,CA,KNLC,36.333,-119.95,+0071.3,19710101,19721231
999999,23154,ELY YELLAND FIELD,US,NV,KELY,39.295,-114.847,+1908.7,19530120,19721231
999999,23155,BAKERSFIELD KERN COUNTY ARPT,US,CA,KBFL,35.434,-119.054,+0150.0,19480101,19721231
999999,23157,BISHOP AIRPORT,US,CA,KBIH,37.371,-118.358,+1263.4,19480104,19721231
999999,23158,BLYTHE RIVERSIDE CO,US,CA,KBLH,33.619,-114.714,+0119.5,19481101,19721231
999999,23159,BRYCE CNYN FAA AP,US,UT,KBCE,37.706,-112.146,+2313.1,19481101,19721231
999999,23160,TUCSON INTERNATIONAL AP,US,AZ,KTUS,32.131,-110.955,+0778.8,19460601,19721231
999999,23161,DAGGETT BARSTOW-DAGGETT AP,US,CA,KDAG,34.854,-116.786,+0588.0,19481101,19721231
999999,23169,LAS VEGAS MCCARRAN INTL AP,US,NV,KLAS,36.072,-115.163,+0664.5,19481219,19721231
999999,23174,LOS ANGELES MUNICIPAL ARPT,US,CA,KLAX,33.938,-118.389,+0099.4,19470101,19721231
999999,23183,PHOENIX SKY HARBOR INTL AP,US,AZ,KPHX,33.428,-112.004,+0337.4,19480101,19721231
999999,23184,PRESCOTT MUNICIPAL AP,US,AZ,KPRC,34.652,-112.421,+1539.8,19480101,19721231
999999,23185,RENO WBO,US,NV,KRNO,39.484,-119.771,+1341.1,19490101,19721231
999999,23187,SANDBERG,US,CA,KSDB,34.744,-118.724,+1378.6,19480101,19721231
999999,23188,SAN DIEGO LINDBERGH FIELD,US,CA,KSAN,32.734,-117.183,+0008.5,19480101,19721231
999999,23194,WINSLOW MUNICIPAL AP,US,AZ,KINW,35.028,-110.721,+1488.3,19480101,19721231
999999,23195,YUMA INTL ARPT,US,AZ,KYUM,32.667,-114.6,+0065.8,19480911,19721231
999999,23225,BLUE CANYON AP,US,CA,KBLU,39.277,-120.71,+1610.3,19480101,19721231
999999,23230,OAKLAND METROPOLITAN,US,CA,KOAK,37.721,-122.221,+0026.8,19480101,19721231
999999,23232,SACRAMENTO EXECUTIVE ARPT,US,CA,KSAC,38.507,-121.495,+0007.6,19470701,19721231
999999,23234,SAN FRANCISCO INTL AP,US,CA,KSFO,37.62,-122.365,+0005.5,19480101,19721231
999999,23237,STOCKTON METROPOLITAN ARPT,US,CA,KSCK,37.889,-121.226,+0008.2,19481101,19721231
999999,23244,MOUNTAIN VIEW MOFFETT FLD NAS,US,CA,KNUQ,37.406,-122.048,+0010.4,19450303,19721231
999999,23273,SANTA MARIA PUBLIC ARPT,US,CA,KSMX,34.899,-120.449,+0072.5,19541021,19721231
999999,23293,SAN JOSE MUNICIPAL AP,US,CA,KSJC,37.359,-121.924,+0015.2,19510101,19721231
999999,24018,CHEYENNE MUNICIPAL ARPT,US,WY,KCYS,41.15,-104.817,+1871.5,19710101,19721231
999999,24021,LANDER HUNT FIELD,US,WY,KLND,42.815,-108.726,+1694.1,19480101,19721231
999999,24027,ROCK SPRINGS ARPT,US,WY,KRKS,41.594,-109.053,+2055.9,19480101,19721231
999999,24029,SHERIDAN COUNTY ARPT,US,WY,KSHR,44.769,-106.969,+1209.4,19480101,19721231
999999,24033,BILLINGS MUNICIPAL ARPT,US,MT,KBIL,45.807,-108.542,+1088.1,19480101,19721231
999999,24036,LEWISTOWN MUNICIPAL ARPT,US,MT,KLWT,47.049,-109.458,+1263.7,19480101,19721231
999999,24037,MILES CITY MUNICIPAL ARPT,US,MT,KMLS,46.427,-105.883,+0802.8,19480101,19721231
999999,24089,CASPER NATRONA CO INTL AP,US,WY,KCPR,42.898,-106.474,+1612.4,19650101,19721231
999999,24128,WINNEMUCCA MUNICIPAL ARPT,US,NV,KWMC,40.902,-117.808,+1314.9,19490915,19721231
999999,24131,BOISE AIR TERMINAL,US,ID,KBOI,43.567,-116.241,+0874.2,19480101,19721231
999999,24137,CUT BANK MUNI AP,US,MT,KCTB,48.603,-112.375,+1169.8,19480101,19721231
999999,24143,GREAT FALLS INTL ARPT,US,MT,KGTF,47.473,-111.382,+1114.7,19480101,19721231
999999,24144,HELENA ARPT,US,MT,KHLN,46.606,-111.964,+1179.0,19480101,19721231
999999,24146,KALISPELL GLACIER PK INT'L AR,US,MT,KGPI,48.304,-114.264,+0906.2,19480101,19721231
999999,24149,LEWISTON NEZ PERCE COUNTY ARP,US,ID,KLWS,46.375,-117.016,+0437.7,19480101,19721231
999999,24152,MEACHUM EMERGENCY AP,US,OR,KMEH,45.511,-118.425,+1135.7,19480101,19721231
999999,24153,MISSOULA JOHNSON-BELL FLD,US,MT,KMSO,46.921,-114.093,+0972.0,19480101,19721231
999999,24155,PENDLETON MUNICIPAL ARPT,US,OR,KPDT,45.698,-118.855,+0461.5,19380101,19721231
999999,24156,POCATELLO MUNICIPAL ARPT,US,ID,KPIH,42.92,-112.571,+1364.9,19480101,19721231
999999,24193,WENDOVER USAF AUXILIARY FIELD,US,UT,KENV,40.721,-114.036,+1290.8,19500308,19721231
999999,24207,TACOMA MCCHORD AAF,US,WA,KTCM,47.15,-122.483,+0098.5,19710101,19721231
999999,24216,RED BLUFF MUNICIPAL ARPT,US,CA,KRBL,40.152,-122.254,+0107.6,19480101,19721231
999999,24221,EUGENE MAHLON SWEET ARPT,US,OR,KEUG,44.128,-123.221,+0113.7,19480101,19721231
999999,24225,MEDFORD JACKSON COUNTY ARPT,US,OR,KMFR,42.381,-122.872,+0405.1,19480101,19721231
999999,24227,OLYMPIA MUNICIPAL ARPT,US,WA,KOLM,46.973,-122.903,+0061.0,19480101,19721231
999999,24229,PORTLAND,US,OR,KPDX,45.596,-122.609,+0032.6,19650101,19721231
999999,24230,REDMOND ROBERTS FIELD,US,OR,KRDM,44.256,-121.139,+0940.0,19480101,19721231
999999,24232,SALEM MCNARY FIELD,US,OR,KSLE,44.905,-123.001,+0061.3,19480101,19721231
999999,24233,SEATTLE SEATTLE-TACOMA ARPT,US,WA,KSEA,47.444,-122.314,+0132.3,19700101,19721231
999999,24234,SEATTLE BOEING FIELD,US,WA,KBFI,47.53,-122.301,+0009.1,19650101,19721231
999999,24235,SEXTON SUMMIT,US,OR,KSXT,42.6,-123.364,+1170.7,19480101,19721231
999999,24237,STAMPEDE PASS,US,WA,KSMP,47.277,-121.337,+1209.1,19480101,19721231
999999,24243,YAKIMA AIR TERMINAL,US,WA,KYKM,46.568,-120.543,+0324.9,19480101,19721231
999999,24255,WHIDBEY ISLAND NAS,US,WA,KNUW,48.35,-122.667,+0014.3,19450401,19721231
999999,24283,ARCATA AIRPORT,US,CA,KACV,40.978,-124.109,+0064.0,19491201,19721231
999999,93037,COLORADO SPRINGS PETERSON FIE,US,CO,KCOS,38.81,-104.688,+1880.6,19650101,19721231
999999,93044,ZUNI,US,NM,ZUN,35.067,-108.833,+1923.3,19490217,19721231
999999,93045,TRUTH OR CONSEQUENCES MUNI AP,US,NM,KTCS,33.237,-107.268,+1480.7,19500526,19721231
999999,93102,FALLON NAAS,US,NV,KNFL,39.417,-118.717,+1199.1,19450301,19721231
999999,93111,POINT MUGU NF,US,CA,KNTD,34.117,-119.117,+0003.7,19460301,19721231
999999,93129,CEDAR CITY MUNICIPAL AP,US,UT,KCDC,37.709,-113.094,+1712.4,19481101,19721231
999999,93184,SANTA ANA,US,CA,KSNA,33.68,-117.866,+0016.8,19680101,19721231
999999,94008,GLASGOW INTL ARPT,US,MT,KGGW,48.214,-106.621,+0699.2,19551001,19721231
999999,94012,HAVRE CITY-COUNTY AP,US,MT,KHVR,48.543,-109.763,+0792.2,19610201,19721231
999999,94224,ASTORIA CLATSOP COUNTY ARPT,US,OR,KAST,46.157,-123.883,+0006.7,19490401,19721231
999999,94240,QUILLAYUTE AIRPORT,US,WA,KUIL,47.938,-124.555,+0062.5,19660801,19721231
999999,93115,IMPERIAL BEACH REAM FIELD NAS,US,CA,KNRS,32.567,-117.117,+0007.0,19450501,19721231
691334,99999,HILL/WENDOVER R GWC,US,UT,KQSL,41.05,-113.067,+1299.0,19910521,20030816
722678,99999,RATON MUNI CREWS FLD,US,NM,KRTN,36.733,-104.5,+1936.0,20001104,20031231
722710,99999,TRUTH OR CONSEQUENC,US,NM,KTCS,33.233,-107.267,+1481.0,20000101,20031231
722720,99999,BISBEE DOUGLAS INTL,US,AZ,KDUG,31.467,-109.6,+1251.0,20000101,20031231
722786,99999,WILLIAMS GATEWAY,US,AZ,KIWA,33.3,-111.65,+0421.0,20000101,20031231
722880,99999,BURBANK/GLENDALE,US,CA,KBUR,34.2,-118.35,+0236.0,20000101,20031231
722886,99999,VAN NUYS,US,CA,KVNY,34.21,-118.49,+0244.0,20000101,20031231
722920,99999,AVALON/CATALINA,US,CA,KAVX,33.4,-118.417,+0488.0,20000613,20031231
722925,99999,SAN CLEMENTE ISLAND,US,CA,KNUC,33.017,-118.583,+0056.0,20000103,20031231
722977,99999,JOHN WAYNE ARPT ORA,US,CA,KSNA,33.667,-117.867,+0017.0,20000101,20031231
723625,99999,GRANTS MILAN MUNI,US,NM,KGNT,35.167,-107.9,+1992.0,20000101,20031231
723656,99999,SANTA FE CO. MUNI,US,NM,KSAF,35.617,-106.083,+1935.0,20000101,20031231
723658,99999,FOUR CORNERS RGNL,US,NM,KFMN,36.733,-108.217,+1678.0,20000101,20031231
723676,99999,TUCUMCARI MUNI,US,NM,KTCC,35.183,-103.6,+1239.0,20000101,20031231
723820,99999,PALMDALE PRODUCTION,US,CA,KPMD,34.633,-118.083,+0774.0,20000101,20031231
723927,99999,OXNARD,US,CA,KOXR,34.201,-119.207,+0014.0,20000101,20031231
724665,99999,LIMON MUNI,US,CO,KLIC,39.267,-103.667,+1635.0,20000101,20031231
724675,99999,EAGLE CO RGNL,US,CO,KEGE,39.633,-106.917,+1993.0,20000101,20031231
724698,99999,COLORADO PLAINS RGNL,US,CO,KAKO,40.183,-103.217,+1437.0,20000101,20031231
724756,99999,BRYCE CANYON,US,UT,KBCE,37.7,-112.145,+2313.0,20000101,20031231
724833,99999,SACRAMENTO MATHER FL,US,CA,KMHR,38.555,-121.297,+0030.0,19880304,20031231
725750,99999,OGDEN-HINCKLEY MUNI,US,UT,KOGD,41.2,-112.017,+1362.0,20000101,20031231
725765,99999,RIVERTON REGIONAL,US,WY,,43.067,-108.467,+1699.0,20000101,20031231
725775,99999,EVANSTON UINTA CO BU,US,WY,KEVW,41.267,-111.033,+2175.0,20000101,20031231
725810,99999,WENDOVER/AF. AUX. F,US,UT,KENV,40.733,-114.033,+1292.0,20000101,20031231
725895,99999,KLAMATH FALLS,US,OR,KLMT,42.15,-121.733,+1248.0,20000101,20031231
725905,99999,UKIAH MUNI,US,CA,KUKI,39.117,-123.2,+0187.0,20000101,20031231
725946,99999,JACK MC NAMARA FLD,US,CA,KCEC,41.767,-124.233,+0017.0,20000101,20031231
725955,99999,SISKIYOU CO,US,CA,KSIY,41.783,-122.467,+0807.0,20000101,20031231
725957,99999,MOUNT SHASTA,US,CA,KMHS,41.317,-122.317,+1077.0,20000101,20031231
726817,99999,MULLAN PASS VOR,US,ID,KMLP,47.45,-115.667,+1829.0,20000101,20031231
726837,99999,ONTARIA MUNI,US,OR,KONO,44.017,-117.017,+0668.0,20000101,20031231
726875,99999,ROME STATE,US,OR,KREO,42.583,-117.883,+1235.0,20000101,20031231
726884,99999,LA GRANDE UNION CO,US,OR,KLGD,45.283,-118.0,+0828.0,20000101,20031231
726904,99999,ROSEBURG RGNL,US,OR,KRBG,43.233,-123.35,+0161.0,20000101,20031231
726958,99999,NEWPORT MUNICIPAL,US,OR,,44.583,-124.05,+0048.0,20000101,20031231
727827,99999,MOSES LAKE/GRANT CO,US,WA,KMWH,47.2,-119.317,+0361.0,20000101,20031231
727845,99999,TRI CITIES,US,WA,KPSC,46.267,-119.117,+0124.0,20000101,20031231
727883,99999,BOWERS FLD,US,WA,KELN,47.033,-120.531,+0537.0,20000101,20031231
999999,24281,WSMO (EMSU)                  ,US,WA,,47.65,-122.3,+0005.8,19960702,20031231
999999,94103,POST 0FFICE BLDG.2ND&SUMACH  ,US,WA,,46.033,-118.333,+0289.3,20020902,20031231
724930,99999,OAKLAND/METROP. OAK,US,CA,KOAK,37.75,-122.217,+0004.0,20000101,20031231
726917,99999,NORTH BEND MUNI,US,OR,KOTH,43.417,-124.233,+0005.0,20000101,20031231
727924,99999,KELSO LONGVIEW,US,WA,KKLS,46.118,-122.898,+0006.0,20000101,20031231
727935,99999,BOEING FLD KING CO,US,WA,KBFI,47.517,-122.3,+0006.0,20000101,20031231
724839,99999,SACRAMENTO INTL,US,CA,KSMF,38.683,-121.583,+0008.0,20000101,20031231
722686,99999,CANNON AFB,US,NM,KCVS,34.383,-103.317,+1309.0,20000101,20041231
722688,99999,LEA CO RGNL,US,NM,KHOB,32.683,-103.217,+1116.0,20000101,20041231
722730,99999,FORT HUACHUCA,US,AZ,KFHU,31.583,-110.333,+1428.0,20000103,20041231
722745,99999,DAVIS MONTHAN AFB,US,AZ,KDMA,32.167,-110.883,+0824.0,20000101,20041231
722800,99999,YUMA INTL AIRPORT,US,AZ,KYUM,32.65,-114.6,+0063.0,20000103,20041231
722801,99999,YUMA MCAS YUMA INTL,US,AZ,,32.65,-114.6,+0065.0,20040713,20041231
722860,99999,RIVERSIDE/MARCH AFB,US,CA,KRIV,33.9,-117.25,+0468.0,20000101,20041231
723750,99999,FLAGSTAFF AIRPORT,US,AZ,KFLG,35.133,-111.667,+2135.0,19730101,20041231
723755,03103,FLAGSTAFF PULLIAM ARPT,US,AZ,KFLG,35.144,-111.666,+2139.1,19480101,20041231
723810,99999,EDWARDS AFB,US,CA,KEDW,34.933,-117.9,+0705.0,20000101,20041231
723825,99999,S CALIF LOGISTICS,US,CA,KVCV,34.6,-117.383,+0879.0,20041230,20041231
723926,99999,CAMARILLO,US,CA,KCMA,34.217,-119.1,+0023.0,19730101,20041231
724677,99999,GUNNISON CO. (AWOS)          ,US,CO,KGUC,38.534,-106.933,+2339.0,19730101,20041231
724695,99999,BUCKLEY AFB,US,CO,KBKF,39.7,-104.75,+1726.0,20000101,20041231
724723,99999,BLANDING MUNI,US,UT,,37.583,-109.483,+1789.0,20000101,20041231
724735,99999,HANKSVILLE,US,UT,K4HV ,38.37,-110.72,+1314.0,20000101,20041231
724837,99999,BEALE AFB,US,CA,KBAB,39.133,-121.433,+0034.0,20000103,20041231
725715,99999,HAYDEN/YAMPA (AWOS)          ,US,CO,,40.483,-107.217,+2012.0,19730101,20041231
725755,99999,HILL AFB,US,UT,KHIF,41.117,-111.967,+1460.0,20000101,20041231
725786,99999,MALAD CITY,US,ID,KMLD,42.167,-112.297,+1373.0,20000101,20041231
725824,99999,EUREKA (RAMOS)               ,US,NV,,39.517,-115.967,+1993.0,19790510,20041231
725835,99999,BATTLE MOUNTAIN,US,NV,KBAM,40.6,-116.867,+1381.0,20000101,20041231
725869,99999,MALTA,US,ID,K77M ,42.32,-113.33,+1375.0,20000101,20041231
726815,99999,MOUNTAIN HOME AFB,US,ID,KMUO,43.05,-115.867,+0913.0,20000101,20041231
727735,99999,DRUMMOND,US,MT,K3DU ,46.67,-113.15,+1202.0,20000101,20041231
727755,99999,MALMSTROM AFHP,US,MT,KGFA,47.5,-111.183,+1058.0,20020110,20041231
727854,99999,DEER PARK ARPT,US,WA,,47.967,-117.417,+0672.0,20010811,20041231
727855,99999,FAIRCHILD AFB,US,WA,KSKA,47.617,-117.65,+0750.0,20000101,20041231
742060,99999,MC CHORD FIELD,US,WA,KTCM,47.133,-122.483,+0098.0,20000101,20041231
745160,99999,FAIRFIELD/TRAVIS AF,US,CA,KSUU,38.267,-121.95,+0022.0,20000101,20041231
746141,99999,INDIAN SPRINGS AF A,US,NV,,36.583,-115.667,+0955.0,20040713,20041231
747040,99999,ONTARIO INTL ARPT,US,CA,KONT,34.05,-117.567,+0287.0,19770705,20041231
999999,03102,ONTARIO INTERNATIONAL ARPT,US,CA,KONT,34.056,-117.6,+0275.8,19680101,20041231
999999,03148,GILA BEND AF AUX AIRPORT,US,AZ,KGBN,32.883,-112.717,+0261.5,19680903,20041231
999999,03163,CALIENTE AIRPORT,US,NV,KP38 ,37.612,-114.526,+1333.2,19970902,20041231
999999,23136,OXNARD AAF,US,CA,KCMA,34.217,-119.083,+0019.8,19521209,20041231
999999,23162,DELTA FAA AP,US,UT,KDTA,39.383,-112.517,+1449.3,19481101,20041231
999999,23239,NAVAL AIR STATION,US,CA,KNGZ,37.783,-122.317,+0004.3,19450301,20041231
999999,23240,NAVAL AUXILIARY LANDING FIELD,US,CA,KNRC,37.4,-121.133,+0050.3,20020902,20041231
999999,53129,COLORADO CITY MUNI AIRPORT,US,AZ,KAZC,36.96,-113.014,+1485.6,20020802,20041231
999999,94297,COUPEVILLE/NOLF,US,WA,KNRA,48.217,-122.633,+0060.7,19960702,20041231
999999,04221,ROCHE HARBOR SEAPLANE BASE,US,WA,KW39 ,48.608,-123.159,+0000.0,20040102,20041231
720262,99999,MC ELROY AFLD,US,CO,,40.054,-106.369,+2258.9,20040525,20051231
720267,99999,AUBURN MUNICIPAL,US,CA,KAUN,38.955,-121.082,+0468.0,20040525,20051231
720272,99999,SKAGIT RGNL,US,WA,KBVS,48.467,-122.417,+0044.0,20040525,20051231
720313,99999,PERRY LEFORS FLD,US,NM,KPPA,35.617,-100.983,+0989.0,20040525,20051231
720322,99999,SANDPOINT,US,ID,KSZT,48.3,-116.567,+0650.0,20040525,20051231
720345,99999,RALPH WENZ FLD,US,WY,KPNA,42.8,-109.8,+2160.0,20041109,20051231
722061,99999,COPPER MOUNTAIN RE,US,CO,KCCU,39.467,-106.15,+3680.0,20040713,20051231
722096,99999,HENDERSON EXECUTIVE,US,NV,KHND,35.967,-115.134,+0760.0,20040713,20051231
722101,99999,PAGOSA SPRINGS WOL,US,CO,KCPW,37.45,-106.8,+3584.0,19730101,20051231
722155,99999,ELBERT MTN MONUMENT,US,CO,KMNH,39.217,-104.633,+2125.0,20040525,20051231
722203,99999,SALIDA MTN MONARCH P,US,CO,KMYP,38.483,-106.317,+3667.0,20040525,20051231
722333,99999,SAGUACHE MUNCICIPAL,US,CO,K04V ,38.1,-106.167,+2385.0,20041005,20051231
722676,99999,ARTESIA MUNI,US,NM,KATS,32.85,-104.467,+1079.0,19730101,20051231
722677,99999,CLINES CORNERS,US,NM,KCQC,35.0,-105.667,+2160.0,19990114,20051231
722683,99999,SIERRA BLANCA RGNL,US,NM,KSRR,33.467,-105.533,+2077.0,19880421,20051231
722689,99999,CLOVIS MUNI,US,NM,KCVN,34.433,-103.083,+1285.0,19800908,20051231
722693,99999,ALAMOGORDO WHITE SA,US,NM,KALM,32.833,-105.983,+1280.0,19870117,20051231
722695,99999,LAS CRUCES INTL,US,NM,KLRU,32.283,-106.917,+1358.0,19470818,20051231
722725,99999,DEMING MUNI,US,NM,KDMN,32.25,-107.717,+1315.0,19421029,20051231
722728,99999,NOGALES INTL,US,AZ,KOLS,31.417,-110.85,+1205.0,20010705,20051231
722747,99999,SAFFORD RGNL,US,AZ,KSAD,32.85,-109.633,+0968.0,19780911,20051231
722748,99999,CASA GRANDE MUNI,US,AZ,KCGZ,32.95,-111.767,+0446.0,19920412,20051231
722749,99999,CHANDLER MUNI,US,AZ,KCHD,33.267,-111.817,+0379.0,19990114,20051231
722764,99999,WINDOW ROCK,US,AZ,KRQE,35.65,-109.067,+2055.0,19990323,20051231
722783,99999,MESA/FALCON FIELD,US,AZ,KFFZ,33.467,-111.733,+0424.0,19880105,20051231
722784,99999,PHOENIX DEER VALLEY,US,AZ,KDVT,33.688,-112.083,+0450.0,19870629,20051231
722787,99999,GLENDALE MUNI,US,AZ,KGEU,33.527,-112.295,+0325.0,19990114,20051231
722788,99999,PHOENIX GOODYEAR,US,AZ,KGYR,33.417,-112.383,+0295.0,19870603,20051231
722789,99999,SCOTTSDALE,US,AZ,KSDL,33.623,-111.911,+0460.0,19870629,20051231
722825,99999,TONOPAH RANGE #74 N          ,US,NV,KBJN,37.617,-116.267,+1756.0,20040921,20051231
722868,99999,PALM SPRINGS INTL,US,CA,KPSP,33.833,-116.5,+0145.0,19430510,20051231
722869,99999,RIVERSIDE MUNI,US,CA,KRAL,33.95,-117.433,+0249.0,19770116,20051231
722885,99999,SANTA MONICA MUNI,US,CA,KSMO,34.017,-118.45,+0053.0,19730101,20051231
722887,99999,BRACKETT FLD,US,CA,KPOC,34.083,-117.783,+0308.0,19780306,20051231
722895,99999,LOMPOC,US,CA,KLPC,34.667,-120.467,+0027.0,19920409,20051231
722897,99999,SAN LUIS CO RGNL,US,CA,KSBP,35.233,-120.633,+0065.0,19730227,20051231
722899,99999,CHINO,US,CA,KCNO,33.967,-117.633,+0199.0,19770705,20051231
722903,99999,MONTGOMERY FLD,US,CA,KMYF,32.816,-117.14,+0130.0,19900208,20051231
722904,99999,BROWN FLD MUNI,US,CA,KSDM,32.567,-116.967,+0160.0,20000101,20051231
722907,99999,GILLESPIE FLD,US,CA,KSEE,32.833,-116.967,+0118.0,19730101,20051231
722927,99999,MC CLELLAN PALOMAR,US,CA,KCRQ,33.128,-117.28,+0101.0,19730101,20051231
722953,99999,MOJAVE,US,CA,KMHV,35.059,-118.152,+0851.0,19860916,20051231
722955,99999,ZAMPERINI FLD,US,CA,KTOA,33.803,-118.34,+0031.4,20000101,20051231
722956,99999,JACK NORTHROP FLD H,US,CA,KHHR,33.917,-118.333,+0020.0,19730101,20051231
722976,99999,FULLERTON MUNICIPAL,US,CA,KFUL,33.867,-117.983,+0029.0,19730101,20051231
723171,99999,EDWARDS AF AUX NORTH BASE,US,CA,K9L2 ,34.991,-117.863,+0700.7,20050712,20051231
723647,99999,DOUBLE EAGLE II,US,NM,KAEG,35.15,-106.8,+1779.0,20010811,20051231
723654,99999,LOS ALAMOS,US,NM,KLAM,35.879,-106.269,+2186.0,19800228,20051231
723657,99999,TORREON,US,NM,K4SL ,35.8,-107.18,+2106.0,19730101,20051231
723663,99999,TAOS MUNI APT(AWOS)          ,US,NM,KSKX,36.45,-105.667,+2161.0,19880319,20051231
723675,99999,CHAMA AWRS,US,NM,KE33 ,36.883,-106.567,+2393.0,19840607,20051231
723710,99999,PAGE MUNI (AMOS)             ,US,AZ,KPGA,36.933,-111.45,+1304.0,19770827,20051231
723747,99999,SHOW LOW RGNL,US,AZ,KSOW,34.267,-110.0,+1955.0,19850117,20051231
723754,99999,ST JOHNS INDUSTRIAL,US,AZ,KSJN,34.517,-109.383,+1748.0,19901022,20051231
723783,99999,GRAND CANYON NATL P,US,AZ,KGCN,35.95,-112.133,+2014.0,19900208,20051231
723788,99999,LAUGHLIN BULLHEAD IN,US,AZ,KIFP,35.15,-114.567,+0212.0,19910419,20051231
723826,99999,INYOKERN,US,CA,KIYK,35.659,-117.83,+0748.0,19730621,20051231
723895,99999,PORTERVILLE MUNI,US,CA,KPTV,36.033,-119.067,+0135.0,19920129,20051231
723896,99999,VISALIA MUNI,US,CA,KVIS,36.317,-119.4,+0090.0,19730118,20051231
723898,99999,HANFORD MUNI,US,CA,KHJO,36.317,-119.633,+0074.0,19981005,20051231
723930,99999,VANDENBERG AFB,US,CA,KVBG,34.75,-120.567,+0121.0,19510703,20051231
724625,99999,DURANGO-LA PLATA CO,US,CO,KDRO,37.14,-107.76,+2038.0,19730101,20051231
724627,99999,TELLURIDE RGNL,US,CO,KTEX,37.95,-107.917,+2767.0,19870213,20051231
724636,99999,LAMAR MUNI,US,CO,KLAA,38.07,-102.688,+1130.0,19951128,20051231
724646,99999,SPRINGFIELD COMANCHE,US,CO,KSPD,37.283,-102.617,+1335.0,19990114,20051231
724666,99999,CENTENNIAL,US,CO,KAPA,39.57,-104.849,+1793.0,19801204,20051231
724673,99999,LAKE CO,US,CO,KLXV,39.22,-106.317,+3026.0,19900208,20051231
724674,99999,MEEKER,US,CO,KEEO,40.049,-107.886,+1957.0,19781031,20051231
724676,99999,ASPEN PITKIN CO SARD,US,CO,KASE,39.223,-106.869,+2384.0,19730101,20051231
724689,99999,KIT CARSON COUNTY,US,CO,KITR,39.25,-102.283,+1286.0,19990114,20051231
724699,99999,BROOMFIELD/JEFFCO,US,CO,KBJC,39.917,-105.117,+1728.0,19810801,20051231
724700,99999,PRICE/CARBON COUNTY,US,UT,KPUC,39.617,-110.75,+1799.0,19770827,20051231
724754,99999,ST GEORGE MUNI,US,UT,KSGU,37.091,-113.593,+0896.0,19800701,20051231
724765,99999,MONTROSE RGNL,US,CO,KMTJ,38.517,-107.894,+1755.0,19730101,20051231
724767,99999,CORTEZ MUNI,US,CO,KCEZ,37.3,-108.633,+1804.0,19730101,20051231
724768,99999,GREELEY WELD CO,US,CO,KGXY,40.437,-104.633,+1432.0,19880105,20051231
724769,99999,FORT COLLINS (AWOS)          ,US,CO,KFNL,40.45,-105.017,+1529.0,19860501,20051231
724776,99999,CANYONLANDS FLD,US,UT,KCNY,38.75,-109.75,+1388.0,19730301,20051231
724815,99999,MERCED MUNI MACREADY,US,CA,KMCE,37.285,-120.514,+0048.0,19831001,20051231
724828,99999,NUT TREE,US,CA,KVCB,38.383,-121.967,+0035.0,20010811,20051231
724838,99999,YUBA CO,US,CA,KMYV,39.1,-121.567,+0019.0,19430811,20051231
724846,99999,NORTH LAS VEGAS,US,NV,KVGT,36.211,-115.194,+0672.0,19990114,20051231
724915,99999,MONTEREY PENINSULA,US,CA,,36.583,-121.833,+0080.0,20000101,20051231
724946,99999,REID HILLVIEW OF SAN,US,CA,KRHV,37.333,-121.817,+0041.0,19800409,20051231
724973,99999,CHICO MUNI,US,CA,KCIC,39.8,-121.867,+0073.0,19900314,20051231
725686,99999,CONVERSE CO,US,WY,KDGW,42.797,-105.386,+1503.0,19990114,20051231
725700,99999,CRAIG-MOFFAT,US,CO,KCAG,40.5,-107.533,+1915.0,19770827,20051231
725705,99999,VERNAL,US,UT,KVEL,40.441,-109.51,+1609.0,19730101,20051231
725717,99999,GARFIELD CO RGNL,US,CO,KRIL,39.533,-107.733,+1690.0,19870609,20051231
725724,99999,PROVO MUNI,US,UT,KPVU,40.219,-111.723,+1371.0,19800529,20051231
725763,99999,TORRINGTON MUNI,US,WY,KTOR,42.067,-104.15,+1282.0,20010811,20051231
725776,99999,JACKSON HOLE,US,WY,KJAC,43.6,-110.733,+1966.0,19730101,20051231
725784,99999,LOWELL,US,ID,KP69 ,46.133,-115.6,+0480.0,19830802,20051231
725846,99999,TRUCKEE-TAHOE,US,CA,KTRK,39.32,-120.133,+1798.0,19730101,20051231
725865,99999,FRIEDMAN MEM,US,ID,KSUN,43.5,-114.3,+1622.0,19730101,20051231
725866,99999,JOSLIN FLD MAGIC VA,US,ID,KTWF,42.483,-114.483,+1265.0,19730101,20051231
725868,99999,ALLEN H TIGERT,US,ID,KU78 ,42.633,-111.583,+1780.0,19840111,20051231
725940,99999,EUREKA,US,CA,KEKA,40.8,-124.167,+0018.0,19480101,20051231
725958,99999,ALTURAS MUNI,US,CA,KAAT,41.483,-120.567,+1333.0,19831104,20051231
725976,99999,LAKE CO,US,OR,KLKV,42.167,-120.4,+1443.0,19910829,20051231
726650,99999,GILLETTE/GILLETTE-C,US,WY,KGCC,44.349,-105.539,+1230.0,19770828,20051231
726654,99999,JOHNSON CO,US,WY,KBYG,44.383,-106.717,+1514.0,19990426,20051231
726667,99999,SOUTH BIG HORN CO,US,WY,KGEY,44.517,-108.083,+1199.0,19800616,20051231
726676,99999,DAWSON COMMUNITY,US,MT,KGDV,47.133,-104.8,+0749.0,19730101,20051231
726700,99999,CODY MUNI (AWOS)             ,US,WY,KCOD,44.517,-109.017,+1553.0,19770827,20051231
726777,99999,BAKER MUNI,US,MT,KBHK,46.35,-104.267,+0906.0,19980514,20051231
726813,99999,CALDWELL (AWOS)              ,US,ID,KEUL,43.633,-116.633,+0740.0,19920409,20051231
726816,99999,JEROME CO,US,ID,KJER,42.727,-114.457,+1235.0,19990114,20051231
726836,99999,SCAPPOOSE INDUSTRIAL,US,OR,KSPB,45.773,-122.867,+0018.0,19780711,20051231
726865,99999,LEMHI CO,US,ID,KSMN,45.117,-113.883,+1232.0,19770301,20051231
726881,99999,MC MINNVILLE MUNI,US,OR,KMMV,45.183,-123.133,+0050.0,19970201,20051231
726883,99999,HERMISTON MUNI,US,OR,KHRI,45.828,-119.259,+0196.0,19980514,20051231
726945,99999,CORVALLIS MUNI,US,OR,KCVO,44.483,-123.283,+0075.0,19430421,20051231
726959,99999,AURORA STATE,US,OR,KUAO,45.25,-122.767,+0061.0,19801015,20051231
726986,99999,PORTLAND/HILLSBORO,US,OR,KHIO,45.533,-122.95,+0062.0,19730101,20051231
726987,99999,CASCADE LOCKS STATE,US,OR,KCZK,45.667,-121.883,+0046.0,19730101,20051231
727684,99999,JORDAN,US,MT,KJDN,47.329,-106.953,+0811.0,19790322,20051231
727686,99999,L M CLAYTON,US,MT,KOLF,48.1,-105.583,+0605.0,19730419,20051231
727687,99999,SIDNEY-RICHLAND MUNI,US,MT,KSDY,47.707,-104.193,+0605.0,19730104,20051231
727834,99999,COEUR D ALENE AIR TE,US,ID,KCOE,47.767,-116.817,+0707.0,19480101,20051231
727840,99999,HANFORD,US,WA,KHMS,46.567,-119.6,+0223.0,19730101,20051231
727856,99999,FELTS FLD,US,WA,KSFF,47.683,-117.317,+0595.0,19730101,20051231
727857,99999,PULLMAN MOSCOW RGNL,US,WA,KPUW,46.75,-117.117,+0778.0,19730101,20051231
727885,99999,WILLIAM R FAIRCHILD,US,WA,KCLM,48.117,-123.5,+0089.0,19810211,20051231
727890,99999,OMAK,US,WA,KOMK,48.417,-119.533,+0382.0,19730101,20051231
727926,99999,ED CARLSON MEM FLD,US,WA,KTDO,46.483,-122.8,+0114.0,19730101,20051231
727928,99999,BREMERTON NATIONAL,US,WA,KPWT,47.483,-122.75,+0135.0,19730101,20051231
727937,99999,SNOHOMISH CO,US,WA,KPAE,47.9,-122.283,+0185.0,19411001,20051231
727938,99999,TACOMA NARROWS,US,WA,KTIW,47.267,-122.567,+0091.0,19730101,20051231
727945,99999,ARLINGTON MUNI,US,WA,KAWO,48.161,-122.159,+0042.0,19960221,20051231
727985,99999,FRIDAY HARBOR,US,WA,KFHR,48.522,-123.024,+0034.0,19881014,20051231
740002,99999,LA VETA MOUNTAIN PAS,US,CO,KVTP,37.5,-105.167,+3114.0,20040510,20051231
745046,99999,MADERA MUNI,US,CA,KMAE,36.987,-120.113,+0077.0,19990114,20051231
745048,99999,OROVILLE MUNI,US,CA,KOVE,39.483,-121.617,+0059.0,19990114,20051231
745056,99999,RAMONA,US,CA,KRNM,33.039,-116.915,+0425.0,19990114,20051231
745057,99999,WHITEMAN,US,CA,KWHP,34.267,-118.417,+0306.0,19990114,20051231
745058,99999,WATSONVILLE MUNI,US,CA,KWVI,36.933,-121.783,+0050.0,19990114,20051231
747043,99999,EL MONTE,US,CA,KEMT,34.086,-118.035,+0090.0,19900314,20051231
747185,99999,IMPERIAL CO,US,CA,KIPL,32.834,-115.579,-0016.0,19730101,20051231
747186,99999,CAMPO,US,CA,KCZZ,32.633,-116.467,+0807.0,19730101,20051231
999999,03014,TORREON,US,NM,,35.799,-107.181,+2042.2,20050601,20051231
999999,03174,ZAMPERINE FIELD AIRPORT,US,CA,,33.8,-118.333,+0029.6,20040702,20051231
999999,23259,MONTEREY PENINSULA AIRPORT,US,CA,KMRY,36.588,-121.845,+0050.3,19980302,20051231
999999,24241,TOLEDO WINLOCK MUNI AP,US,WA,KTDO,46.483,-122.817,+0114.3,19480101,20051231
999999,93041,LAS CRUCES MUNICIPAL AP,US,NM,KLRU,32.283,-106.917,+1358.2,20020902,20051231
999999,93092,NWS AWRS,US,NM,,36.9,-106.583,+2393.0,20020902,20051231
999999,94176,SPOKANE FELTS FIELD,US,WA,KSFF,47.683,-117.321,+0599.8,19981002,20051231
999999,94196,GRNT CO RGNL/OGLVIE FD APT,US,OR,,44.404,-118.963,+1124.7,20020902,20051231
999999,94274,TACOMA NARROWS AP,US,WA,KTIW,47.268,-122.576,+0096.0,19990102,20051231
724937,99999,PALO ALTO ARPT OF SA,US,CA,KPAO,37.461,-122.115,+0001.0,19841101,20051231
724938,99999,SAN CARLOS,US,CA,KSQL,37.512,-122.25,+0002.0,19830701,20051231
727918,99999,PEARSON FLD,US,WA,KVUO,45.617,-122.65,+0008.0,19980201,20051231
722208,99999,EASTSOUND ORCAS ISLA,US,WA,KORS,48.717,-122.917,+0009.0,20040803,20051231
722934,99999,OCEANSIDE MUNI,US,CA,KOKB,33.217,-117.35,+0009.0,19831104,20051231
727934,99999,RENTON MUNI,US,WA,KRNT,47.493,-122.216,+0010.0,19800216,20051231
722975,99999,LOS ALAMITOS AAF,US,CA,KSLI,33.783,-118.05,+0011.0,20000101,20051231
726985,99999,PORTLAND TROUTDALE,US,OR,KTTD,45.55,-122.4,+0012.0,19480101,20051231
690170,99999,IND SPRNG RANGE 63           ,US,NV,KL63 ,36.533,-115.567,+0972.0,19800514,20081231
720254,99999,CHEHALIS CENTRALIA,US,WA,KCLS,46.677,-122.983,+0053.6,20080101,20081231
720333,99999,CORONA MUNI,US,CA,KAJO,33.9,-117.6,+0162.0,20080101,20081231
720339,99999,RYAN FLD,US,AZ,KRYN,32.142,-111.175,+0736.7,20080101,20081231
720365,99999,BROOKINGS AIRPORT,US,OR,KBOK,42.074,-124.29,+0140.0,20050729,20081231
720385,99999,BERTHOUD PASS,US,CO,K0CO ,39.8,-105.767,+4113.0,20080101,20081231
720388,99999,PUYALLUP THUN FIELD,US,WA,KPLU,47.1,-122.283,+0164.0,20080101,20081231
720411,99999,ANGEL FIRE,US,NM,KAXX,36.417,-105.29,+2554.2,20080107,20081231
722142,99999,CHALLIS,US,ID,KLLJ,44.517,-114.218,+1546.0,20040525,20081231
724293,99999,MOUNT WERNER,US,CO,K3MW ,40.46,-106.76,+3241.0,20080101,20081231
724694,99999,FRONT RANGE,US,CO,KFTG,39.785,-104.543,+1680.1,20080101,20081231
724750,99999,MILFORD MUNICIPAL,US,UT,KMLF,38.417,-113.017,+1536.0,19730101,20081231
726392,99999,SUNLIGHT MTN,US,CO,K5SM ,39.43,-107.38,+3232.0,20080129,20081231
726876,99999,GRANT RGNL OGILVIE FLD,US,OR,KGCD,44.4,-118.967,+1126.8,19990114,20081231
727964,99999,OAK HARBOR,US,WA,KOKH,48.25,-122.667,+0059.0,19810310,20081231
994120,99999,POINT ARENA  CA,US,CA,,38.96,-123.74,+0017.4,19850501,20081231
997394,99999,MOORED BUOY 46229            ,US,CA,,43.4,-124.65,+0000.0,20080101,20081231
997392,99999,MOORED BUOY 46091            ,US,CA,,36.83,-121.9,+0003.0,20080101,20081231
998159,99999,DATA BUOY 46231              ,US,CA,,32.75,-117.367,+0003.0,20080724,20081231
998160,99999,DATA BUOY 46234              ,US,CA,,34.1,-119.167,+0003.0,20080724,20081231
998161,99999,DATA BUOY 46235              ,US,CA,,32.567,-117.167,+0003.0,20080724,20081231
998162,99999,DATA BUOY 46236              ,US,CA,,36.767,-121.95,+0003.0,20080724,20081231
998163,99999,DATA BUOY 46237              ,US,CA,,37.783,-122.6,+0003.0,20080724,20081231
997375,99999,MOORED BUOY 46092            ,US,CA,,36.75,-122.02,+0004.0,20080101,20081231
997376,99999,MOORED BUOY 46093            ,US,CA,,36.68,-122.4,+0004.0,20080101,20081231
720202,99999,TILLAMOOK AWS,US,OR,KTMK,45.417,-123.817,+0011.0,20040429,20081231
999999,03048,SOCORRO 20 N                 ,US,NM,,34.356,-106.886,+1477.4,20030524,20210422
999999,03060,MONTROSE 11 ENE              ,US,CO,,38.544,-107.693,+2560.9,20040725,20210422
999999,03061,CORTEZ 8 SE                  ,US,CO,,37.255,-108.504,+2448.8,20051102,20210422
999999,03062,LOS ALAMOS 13 W              ,US,NM,,35.858,-106.521,+2656.6,20040801,20210422
999999,03063,LA JUNTA 17 WSW              ,US,CO,,37.864,-103.822,+1336.9,20040803,20210422
999999,03074,LAS CRUCES 20 N              ,US,NM,,32.614,-106.741,+1318.9,20070228,20210422
999999,04125,JOHN DAY 35 WNW              ,US,OR,,44.556,-119.646,+0684.3,20030330,20210422
999999,04126,ARCO 17 SW                   ,US,ID,,43.462,-113.556,+1804.4,20030710,20210422
999999,04127,MURPHY 10 W                  ,US,ID,,43.204,-116.751,+1204.0,20030629,20210422
999999,04128,RILEY 10 WSW                 ,US,OR,,43.471,-119.692,+1396.9,20030703,20210422
999999,04130,ST. MARY 1 SSW               ,US,MT,,48.741,-113.433,+1388.4,20030925,20210422
999999,04131,MOOSE 1 NNE                  ,US,WY,,43.662,-110.712,+1970.8,20040630,20210422
999999,04136,SPOKANE 17 SSW               ,US,WA,,47.417,-117.526,+0691.0,20070801,20210422
999999,04137,DILLON 18 WSW                ,US,MT,,45.158,-113.006,+1820.0,20070728,20210422
999999,04138,BRIGHAM CITY 28 WNW          ,US,UT,,41.616,-112.544,+1509.1,20070819,20210422
999999,04139,DENIO 52 WSW                 ,US,NV,,41.848,-119.636,+1981.2,20080616,20210422
999999,04140,LEWISTOWN 42 WSW             ,US,MT,,46.885,-110.29,+1545.3,20080727,20210422
999999,04141,COOS BAY 8 SW                ,US,OR,,43.272,-124.319,+0003.7,20080819,20210422
999999,04222,REDDING 12 WNW               ,US,CA,,40.651,-122.607,+0432.2,20030326,20210422
999999,04223,DARRINGTON 21 NNE            ,US,WA,,48.541,-121.446,+0124.1,20030403,20210422
999999,04236,CORVALLIS 10 SSW             ,US,OR,,44.419,-123.326,+0095.1,20060914,20210422
999999,04237,QUINAULT 4 NE                ,US,WA,,47.514,-123.812,+0087.2,20060909,20210422
999999,53131,TUCSON 11 W                  ,US,AZ,,32.24,-111.17,+0833.0,20020918,20210422
999999,53132,ELGIN 5 S                    ,US,AZ,,31.591,-110.509,+1466.4,20020915,20210422
999999,53136,MERCURY 3 SSW                ,US,NV,,36.624,-116.023,+1001.0,20010524,20210422
999999,53138,BAKER 5 W                    ,US,NV,,39.012,-114.209,+2016.9,20040509,20210422
999999,53139,STOVEPIPE WELLS 1 SW         ,US,CA,,36.602,-117.145,+0025.6,20040504,20210422
999999,53149,TORREY 7 E                   ,US,UT,,38.303,-111.294,+1891.0,20071002,20210422
999999,53150,YOSEMITE VILLAGE 12 W        ,US,CA,,37.759,-119.821,+2017.8,20070928,20210422
999999,53151,FALLBROOK 5 NE               ,US,CA,,33.439,-117.19,+0347.5,20080430,20210422
999999,53152,SANTA BARBARA 11 W           ,US,CA,,34.414,-119.88,+0005.5,20080814,20210422
999999,53154,YUMA 27 ENE                  ,US,AZ,,32.835,-114.188,+0189.0,20080319,20210422
999999,53155,WILLIAMS 35 NNW              ,US,AZ,,35.755,-112.337,+1825.8,20080626,20210422
999999,93243,MERCED 23 WSW                ,US,CA,,37.238,-120.883,+0023.8,20040325,20210422
999999,93245,BODEGA 6 WSW                 ,US,CA,,38.321,-123.075,+0019.2,20080614,20210422
999999,94059,WOLF POINT 34 NE             ,US,MT,,48.489,-105.21,+0805.6,20011220,20210422
999999,94060,WOLF POINT 29 ENE            ,US,MT,,48.308,-105.102,+0635.5,20011220,20210422
999999,94074,NUNN 7 NNE                   ,US,CO,,40.807,-104.755,+1642.9,20030706,20210422
999999,94075,BOULDER 14 W                 ,US,CO,,40.035,-105.541,+2995.6,20030927,20210422
999999,94078,LANDER 11 SSE                ,US,WY,,42.675,-108.669,+1759.6,20040703,20210422
999999,94082,DINOSAUR 2 E                 ,US,CO,,40.245,-108.968,+1847.7,20040721,20210422
999999,94088,SUNDANCE 8 NNW               ,US,WY,,44.517,-104.436,+1765.4,20070822,20210422
724720,99999,BLANDING,US,UT,,37.617,-109.467,+1840.0,19730101,20210919
725786,24151,MALAD CITY AIRPORT,US,ID,KMLD,42.189,-112.249,+1384.7,19730101,20210919
720129,99999,AUSTIN ARPT,US,NV,KTMT,39.468,-117.197,+1748.1,20170510,20210920
720329,99999,CABLE,US,CA,KCCB,34.112,-117.688,+0438.6,20171207,20210920
720365,24267,BROOKINGS AIRPORT,US,OR,KBOK,42.074,-124.29,+0139.9,20050802,20210920
720516,99999,AFTON MUNI,US,WY,KAFO,42.711,-110.942,+1896.2,20131113,20210920
720519,99999,POWELL MUNI,US,WY,KPOY,44.867,-108.793,+1552.0,20140707,20210920
720536,99999,GRANBY GRAND CO,US,CO,KGNB,40.09,-105.917,+2500.3,20170703,20210920
720551,99999,MINDEN TAHOE AIRPORT,US,NV,KMEV,39.0,-119.751,+1440.5,20140523,20210920
720565,99999,HEBER CITY MUNICIPAL AIRPORT,US,UT,K36U ,40.482,-111.429,+1718.2,20100412,20210920
720569,99999,KANAB MUNI,US,UT,KKNB,37.011,-112.531,+1483.8,20130813,20210920
720572,99999,BOLINDER FIELD TOOELE VALLEY,US,UT,KTVY,40.612,-112.351,+1316.1,20150506,20210920
720619,99999,FRANCIS E WARREN AFB HELIPORT,US,WY,KFEW,41.133,-104.867,+1877.6,20090423,20210920
720642,99999,CHEYENNE MTN AS,US,CO,KCWN,38.75,-104.85,+2114.0,20121120,20210920
720681,99999,CALAVERAS CO MAURY RASMUSSEN,US,CA,KCPU,38.146,-120.648,+0403.9,20160526,20210920
720684,99999,PHIFER AFLD,US,WY,KEAN,42.05,-104.933,+1455.1,20160331,20210920
720687,99999,HEMET RYAN,US,CA,KHMT,33.733,-117.017,+0460.9,20191121,20210920
720724,99999,BELEN RGNL ARPT,US,NM,KBRG,34.646,-106.836,+1584.8,20100503,20210920
720747,99999,ELK MOUNTAIN,US,WY,KEHY,41.733,-106.467,+2225.0,20100914,20210920
720759,99999,RAVALLI CO,US,MT,K6S5 ,46.251,-114.125,+1110.1,20190410,20210920
720837,99999,JOSEPH STATE,US,OR,KJSY,45.36,-117.254,+1256.1,20200805,20210920
720844,99999,SPANISH PEAKS,US,CO,K4V1 ,37.697,-104.785,+1844.0,20210302,20210920
720952,99999,GRAY BUTTE FLD,US,CA,KGXA,34.564,-117.675,+0920.5,20110825,20210920
720977,99999,ALPHA (BURNS)                ,US,WY,,41.333,-104.267,+1667.3,20130226,20210920
720989,99999,LIMA (GROVER)                ,US,CO,K1LW ,40.917,-103.7,+1518.8,20141215,20210920
720991,99999,MIKE (HAXTUN)                ,US,CO,K1MW ,40.7,-103.483,+1336.2,20120702,20210920
720992,99999,NOVEMBER (GROVER)            ,US,CO,K1NW ,40.633,-103.833,+1459.1,20141215,20210920
720993,99999,OSCAR (GROVER)               ,US,CO,K1OW ,40.883,-104.0,+1649.0,20130226,20210920
720994,99999,ALPHA (RAYNESFORD)           ,US,MT,K1AM ,47.283,-110.8,+1219.2,20131025,20210920
720996,99999,CHARLIE (STANFORD)           ,US,MT,K1CM ,47.1,-110.167,+1336.6,20120601,20210920
720998,99999,ECHO (WINIFRED)              ,US,MT,K1EM ,47.45,-109.417,+1116.5,20120717,20210920
720999,99999,FOXTROT (AUGUSTA)            ,US,MT,K1FM ,47.6,-112.317,+1343.3,20120614,20210920
721001,99999,GOLF (SIMMS)                 ,US,MT,K1GM ,47.333,-112.1,+1310.6,20131025,20210920
721005,99999,KILO (HARLOWTOWN)            ,US,MT,K1KM ,46.45,-109.8,+1329.8,20120921,20210920
721007,99999,MIKE (MOORE)                 ,US,MT,K1MM ,47.017,-109.633,+1256.1,20120614,20210920
721008,99999,NOVEMBER (GRASS RANGE)       ,US,MT,K1NM ,47.067,-109.033,+1161.3,20120619,20210920
721009,99999,OSCAR (ROY)                  ,US,MT,K1OM ,47.333,-108.933,+1086.0,20131025,20210920
722720,93026,BISBEE DOUGLAS INTL ARPT,US,AZ,KDUG,31.458,-109.606,+1251.2,20100801,20210920
722866,99999,SAN BERNARDINO INTL,US,CA,KSBD,34.095,-117.235,+0353.3,20090112,20210920
723640,99999,DONA ANA COUNTY INTL JETPORT,US,NM,KDNA,31.88,-106.703,+1253.6,19950911,20210920
723760,99999,FLAGSTAFF,US,AZ,,35.217,-111.817,+2181.6,19981002,20210920
724750,23176,MILFORD MUNICIPAL AIRPORT,US,UT,KMLF,38.417,-113.017,+1536.2,20050101,20210920
724856,99999,HAWTHORNE INDUSTRIAL,US,NV,KHTH,38.544,-118.634,+1284.7,19831103,20210920
724916,99999,MARINA MUNI,US,CA,KOAR,36.682,-121.762,+0040.8,20201104,20210920
725837,99999,SUSANVILLE MUNI,US,CA,KSVE,40.376,-120.573,+1264.6,19770301,20210920
726887,99999,SUNRIVER,US,OR,KS21 ,43.876,-121.453,+1269.2,19800514,20210920
727760,99999,GREAT FALLS,US,MT,,47.45,-111.383,+1130.5,19940921,20210920
727873,99999,COLVILLE MUNICIPAL ARPT,US,WA,K63S ,48.544,-117.884,+0575.0,19890908,20210920
727884,99999,RICHLAND AIRPORT,US,WA,KRLD,46.306,-119.304,+0120.1,19810203,20210920
740030,24103,MICHAEL AAF AIRPORT,US,UT,KDPG,40.183,-112.933,+1325.6,20060103,20210920
749167,99999,PINAL AIRPARK,US,AZ,KMZJ,32.511,-111.328,+0576.7,19420912,20210920
994012,99999,CRESCENT CITY,US,CA,,41.745,-124.183,+0004.8,20080101,20210920
994036,99999,RICHMOND,US,CA,,37.928,-122.4,+0005.6,20080101,20210920
994070,99999,DESTRUCTION IS.  WA,US,WA,,47.68,-124.49,+0021.3,19850501,20210920
997292,99999,LA JOLLA,US,CA,,32.87,-117.25,+0020.0,20080101,20210920
998173,99999,MOSS LANDING S HARBOR,US,CA,,36.8,-121.783,+0022.0,20080101,20210920
999999,00481,GRANITE PEAK FILLMORE ARPT,US,UT,,38.958,-112.363,+1519.4,20140730,20210920
999999,04134,GRANITE PEAK DUGWAY PROVING G,US,UT,KQCA,40.161,-113.351,+1310.6,20060802,20210920
999999,23271,DOWNTOWN,US,CA,,38.555,-121.418,+0011.6,19960702,20210920
999999,23272,DOWNTOWN,US,CA,,37.771,-122.427,+0045.7,19450101,20210920
999999,94290,WSFO SEATTLE SAND POINT,US,WA,KSEW,47.687,-122.255,+0018.3,19990802,20210920
994011,99999,ASTORIA,US,OR,,46.208,-123.767,+0002.0,20080101,20210920
994015,99999,FRIDAY HARBOR,US,WA,,48.547,-123.01,+0002.0,20080101,20210920
994016,99999,SAN FRANCISCO,US,CA,,37.807,-122.465,+0002.0,20080101,20210920
994017,99999,NORTH SPIT,US,CA,,40.767,-124.217,+0002.0,20080101,20210920
994018,99999,LA JOLLA,US,CA,,32.867,-117.258,+0002.0,20080101,20210920
994022,99999,POINT REYES,US,CA,,37.99,-122.975,+0002.0,20080101,20210920
994023,99999,PORT SAN LUIS,US,CA,,35.177,-120.76,+0002.0,20080101,20210920
994026,99999,SOUTH BEACH,US,OR,,44.625,-124.043,+0002.0,20080101,20210920
994027,99999,SAN DIEGO,US,CA,,32.713,-117.173,+0002.0,20080101,20210920
994028,99999,SANTA MONICA PIER,US,CA,,34.008,-118.5,+0002.0,20080101,20210920
994032,99999,CHARLESTON,US,OR,,43.345,-124.322,+0002.0,20080101,20210920
994033,99999,ALAMEDA,US,CA,,37.772,-122.298,+0002.0,20080101,20210920
994034,99999,PORT CHICAGO,US,CA,,38.057,-122.038,+0002.0,20080101,20210920
994035,99999,LOS ANGELES,US,CA,,33.72,-118.272,+0002.0,20080101,20210920
994044,99999,ARENA COVE,US,CA,,38.92,-123.7,+0002.0,20080101,20210920
997696,99999,LA PUSH,US,WA,,47.92,-124.63,+0003.0,20080101,20210920
997706,99999,GARIBALDI TILLAMOOK,US,OR,,45.55,-123.9,+0003.0,20080101,20210920
997801,99999,LONGVIEW,US,WA,,46.1,-122.95,+0003.0,20080101,20210920
997997,99999,ELKHORN SLOUGH RESERVE,US,CA,,36.817,-121.733,+0003.0,20080101,20210920
998007,99999,PADILLA BAY RESERVE,US,WA,,48.467,-122.467,+0003.0,20080101,20210920
998011,99999,SAN FRANCISCO BAY RESERVE,US,CA,,38.217,-122.017,+0003.0,20080101,20210920
742010,99999,PORT ANGELES CGAS,US,WA,KNOW,48.141,-123.414,+0004.0,20060619,20210920
998013,99999,TIJUANA RIVER RESERVE,US,CA,,32.575,-117.127,+0004.0,20080101,20210920
998496,99999,OAKLAND,US,CA,,37.795,-122.288,+0004.0,20130101,20210920
994013,99999,CHEERY POINT,US,WA,,48.863,-122.758,+0005.0,20080101,20210920
994021,99999,NEAH BAY,US,WA,,48.368,-124.617,+0005.0,20080101,20210920
994024,99999,PORT ANGELES,US,WA,,48.125,-123.44,+0005.0,20080101,20210920
994025,99999,PORT TOWNSEND,US,WA,,48.112,-122.758,+0005.0,20080101,20210920
994029,99999,TOKE POINT,US,WA,,46.708,-123.965,+0005.0,20080101,20210920
994048,99999,TACOMA,US,WA,,47.267,-122.413,+0005.0,20080101,20210920
994041,99999,REDWOOD CITY,US,CA,,37.507,-122.2,+0006.0,20080101,20210920
998340,99999,SANTA BARBARA,US,CA,,34.408,-119.658,+0006.0,20100101,20210920
998197,99999,OAKLAND MIDDLE HARBOR MET,US,CA,,37.8,-122.317,+0007.0,20080721,20210920
994031,99999,PORT ORFORD,US,OR,,42.74,-124.497,+0008.0,20080101,20210920
998204,99999,WESTPORT,US,WA,,46.917,-124.117,+0008.0,20080721,20210920
998474,99999,DAVIS POINT  SAN PABLO BAY,US,CA,,38.057,-122.259,+0010.0,20110909,20210920
998475,99999,MARTINEZ-AMORCO,US,CA,,38.033,-122.125,+0010.0,20110909,20210920
998476,99999,OAKLAND (BERTH 34)           ,US,CA,,37.811,-122.333,+0010.0,20110909,20210920
998477,99999,RICHMOND (POINT POTRERO)     ,US,CA,,37.906,-122.365,+0010.0,20110909,20210920
998478,99999,PITTSBURG (SUISUN BAY)       ,US,CA,,38.042,-121.887,+0010.0,20110909,20210920
998479,99999,SAN FRANCISCO (PIER 1)       ,US,CA,,37.798,-122.393,+0010.0,20110909,20210920
998256,99999,TACOMA MET,US,WA,,47.276,-122.418,+0011.0,20100101,20210920
690150,93121,TWENTY NINE PALMS,US,CA,KNXP,34.3,-116.167,+0625.1,19900102,20210921
720202,00118,TILLAMOOK AIRPORT,US,OR,KTMK,45.417,-123.817,+0011.3,20050103,20210921
720254,00119,CHEHALIS CENTRALIA AIRPORT,US,WA,KCLS,46.683,-122.983,+0054.3,20070216,20210921
720267,23224,AUBURN MUNICIPAL AIRPORT,US,CA,KAUN,38.955,-121.082,+0466.7,20060101,20210921
720272,94282,SKAGIT REGIONAL AIRPORT,US,WA,KBVS,48.467,-122.417,+0042.7,20060101,20210921
720322,04129,SANDPOINT AIRPORT,US,ID,KSZT,48.299,-116.56,+0648.3,20060101,20210921
720333,53175,CORONA MUNICIPAL AIRPORT,US,CA,KAJO,33.898,-117.602,+0162.5,20060907,20210921
720339,00121,RYAN FIELD AIRPORT,US,AZ,KRYN,32.15,-111.167,+0737.0,20071115,20210921
720345,94086,RALPH WENZ FIELD AIRPORT,US,WY,KPNA,42.796,-109.807,+2159.8,20060101,20210921
720369,04135,DRIGGS-REED MEMORIAL AIRPORT,US,ID,KDIJ,43.743,-111.098,+1898.6,20061024,20210921
720388,00469,PIERCE COUNTY AIRPORT THUN FI,US,WA,KPLU,47.104,-122.287,+0164.3,20070401,20210921
720406,00135,GNOSS FIELD AIRPORT,US,CA,KDVO,38.15,-122.55,+0001.2,20140731,20210921
720411,00137,ANGEL FIRE AIRPORT,US,NM,KAXX,36.422,-105.29,+2554.2,20090101,20210921
720517,24165,KEMMERER MUNICIPAL AIRPORT,US,WY,KEMM,41.824,-110.557,+2220.5,20130627,20210921
720518,00449,FORT BRIDGER AIRPORT,US,WY,KFBR,41.393,-110.406,+2145.5,20130801,20210921
720521,00475,SHIVELY FIELD AIRPORT,US,WY,KSAA,41.444,-106.828,+2138.5,20130502,20210921
720522,00443,DUBOIS MUNICIPAL AIRPORT,US,WY,KDUB,43.548,-109.69,+2224.1,20130514,20210921
720528,03064,CENTRAL COLORADO REGIONAL AP,US,CO,KAEJ,38.698,-106.07,+2421.9,20100401,20210921
720531,00158,BLAKE FIELD AIRPORT,US,CO,KAJZ,38.783,-108.067,+1583.1,20120209,20210921
720532,00159,HARRIET ALEXANDER FIELD AIRPO,US,CO,KANK,38.533,-106.05,+2294.2,20091121,20210921
720534,00161,ERIE MUNICIPAL AIRPORT,US,CO,KEIK,40.017,-105.05,+1564.2,20140701,20210921
720537,00163,HOLYOKE AIRPORT,US,CO,KHEQ,40.567,-102.267,+1137.2,20101129,20210921
720539,00165,STEVENS FIELD AIRPORT,US,CO,KPSO,37.283,-107.05,+2335.1,20091001,20210921
720544,00168,STERLING MUNICIPAL AIRPORT,US,CO,KSTK,40.617,-103.267,+1231.1,20101129,20210921
720549,00171,CARSON AIRPORT,US,NV,KCXP,39.183,-119.733,+1432.3,20100714,20210921
720567,24180,BRIGHAM CITY AIRPORT,US,UT,KBMC,41.552,-112.062,+1288.1,20140724,20210921
720614,00205,LINCOLN REGIONAL AIRPORT KARL,US,CA,KLHM,38.909,-121.351,+0037.2,20090510,20210921
720615,00206,COLUMBIA AIRPORT,US,CA,KO22 ,38.033,-120.417,+0646.2,20090120,20210921
720635,00221,H A CLARK MEMORIAL FIELD AIRP,US,AZ,KCMR,35.3,-112.2,+2035.2,20090508,20210921
720638,00224,BEND MUNICIPAL AIRPORT,US,OR,KBDN,44.095,-121.2,+1055.2,20090524,20210921
720644,00226,BUCKEYE MUNICIPAL AIRPORT,US,AZ,KBXK,33.417,-112.683,+0311.2,20130101,20210921
720645,00227,PLACERVILLE AIRPORT,US,CA,KPVF,38.717,-120.75,+0787.3,20090711,20210921
720646,00228,HALF MOON BAY AIRPORT,US,CA,KHAF,37.513,-122.501,+0020.1,20090717,20210921
720652,00433,BRIDGEPORT SONORA JUNCTION,US,CA,KBAN,38.356,-119.519,+2057.1,20090827,20210921
720734,00264,NAMPA MUNICIPAL AIRPORT,US,ID,KMAN,43.581,-116.523,+0773.3,20100514,20210921
720741,00269,BOULDER MUNICIPAL AIRPORT,US,NV,KBVU,35.947,-114.861,+0671.2,20100624,20210921
720749,24255,WHIDBEY ISLAND NAS,US,WA,KNUW,48.35,-122.667,+0014.3,20050101,20210921
720839,00279,RENO STEAD AIRPORT,US,NV,KRTS,39.667,-119.876,+1540.2,20110921,20210921
720852,00280,MEADOW LAKE AIRPORT,US,CO,KFLY,38.946,-104.57,+2095.2,20101201,20210921
720923,00310,BOUNDARY COUNTY AIRPORT,US,ID,K65S ,48.726,-116.295,+0711.1,20110118,20210921
722061,03038,COPPER MOUNTAIN,US,CO,KCCU,39.467,-106.15,+3680.2,20060101,20210921
722096,53127,HENDERSON EXECUTIVE ARPT,US,NV,KHND,35.976,-115.133,+0749.2,20060101,20210921
722101,03039,WOLF CREEK PASS AWOS-3 AIRPOR,US,CO,KCPW,37.45,-106.8,+3593.9,20060101,20210921
722142,04114,CHALLIS AIRPORT,US,ID,KLLJ,44.523,-114.215,+1546.0,20050101,20210921
722203,03041,MONARCH PASS AWOS-3 ARPT     ,US,CO,KMYP,38.483,-106.317,+3667.1,20060101,20210921
722208,04224,ORCAS ISLAND AIRPORT,US,WA,KORS,48.708,-122.911,+0009.5,20060101,20210921
722221,00444,DIXON AIRPORT,US,WY,KDWX,41.037,-107.493,+1996.1,20130731,20210921
722676,03035,ARTESIA MUNICIPAL AIRPORT,US,NM,KATS,32.853,-104.468,+1079.3,20060101,20210921
722677,03027,CLINES CORNERS,US,NM,KCQC,35.003,-105.663,+2159.8,20060101,20210921
722678,23052,RATON MUNI/CREWS FIELD APT,US,NM,KRTN,36.741,-104.502,+1935.2,19980902,20210921
722680,23009,ROSWELL INTERNATIONAL AIR CEN,US,NM,KROW,33.308,-104.508,+1112.2,19420713,20210921
722683,93083,SIERRA BLANCA RGNL AIRPORT,US,NM,KSRR,33.45,-105.517,+2075.7,20060101,20210921
722686,23008,CANNON AFB AIRPORT,US,NM,KCVS,34.383,-103.317,+1309.1,19430125,20210921
722687,93033,CAVERN CITY AIR TRML ARPT,US,NM,KCNM,32.334,-104.258,+0985.1,19420910,20210921
722688,93034,LEA COUNTY REGIONAL AIRPORT,US,NM,KHOB,32.693,-103.213,+1114.0,19421101,20210921
722689,23077,CLOVIS MUNICIPAL AIRPORT,US,NM,KCVN,34.433,-103.083,+1285.0,20060101,20210921
722693,93097,ALAMOGORDO-WHITE SANDS RGL AI,US,NM,KALM,32.84,-105.991,+1280.2,20060101,20210921
722695,93041,LAS CRUCES INTL AIRPORT,US,NM,KLRU,32.283,-106.917,+1357.6,20060101,20210921
722710,93045,TRH OR CONSEQCES MUNI ARPT,US,NM,KTCS,33.237,-107.268,+1478.3,19780301,20210921
722721,93063,GRANT COUNTY AIRPORT,US,NM,KSVC,32.633,-108.167,+1637.7,20050101,20210921
722725,23078,DEMING MUNICIPAL AIRPORT,US,NM,KDMN,32.262,-107.721,+1310.9,20060101,20210921
722728,03196,NOGALES INTERNATIONAL ARPT,US,AZ,KOLS,31.421,-110.846,+1198.5,20060101,20210921
722730,03124,SIERRA VISTA MUNICIPAL-LIBBY,US,AZ,KFHU,31.588,-110.344,+1438.4,19541011,20210921
722740,23160,TUCSON INTERNATIONAL AIRPORT,US,AZ,KTUS,32.131,-110.955,+0776.9,19730101,20210921
722745,23109,DAVIS-MONTHAN AFB AIRPORT,US,AZ,KDMA,32.167,-110.883,+0824.2,19410717,20210921
722747,93084,SAFFORD REGIONAL AIRPORT,US,AZ,KSAD,32.855,-109.635,+0968.0,20060101,20210921
722748,03914,CASA GRANDE MUNICIPAL ARPT,US,AZ,KCGZ,32.95,-111.767,+0445.6,20060101,20210921
722749,53128,CHANDLER MUNICIPAL AIRPORT,US,AZ,KCHD,33.269,-111.813,+0378.9,20060101,20210921
722764,03029,WINDOW ROCK AIRPORT,US,AZ,KRQE,35.658,-109.061,+2054.1,20060101,20210921
722780,23183,PHOENIX SKY HARBOR INTL AIRPO,US,AZ,KPHX,33.428,-112.004,+0337.4,19730101,20210921
722783,03185,FALCON FIELD AIRPORT,US,AZ,KFFZ,33.467,-111.733,+0420.6,20060101,20210921
722784,03184,PHOENIX DEER VALLEY ARPT,US,AZ,KDVT,33.688,-112.082,+0443.5,20060101,20210921
722785,23111,LUKE AFB AIRPORT,US,AZ,KLUF,33.55,-112.367,+0330.7,19411201,20210921
722786,23104,WILLIAMS GATEWAY AIRPORT,US,AZ,KIWA,33.3,-111.667,+0421.2,19420301,20210921
722787,53126,GLENDALE MUNICIPAL AIRPORT,US,AZ,KGEU,33.527,-112.295,+0324.9,20060101,20210921
722788,03186,PHOENIX GOODYEAR AIRPORT,US,AZ,KGYR,33.417,-112.383,+0295.1,20060101,20210921
722789,03192,SCOTTSDALE AIRPORT,US,AZ,KSDL,33.623,-111.911,+0449.0,20060101,20210921
722810,23199,NAF,US,CA,KNJK,32.817,-115.683,-0012.8,19840413,20210921
722813,53146,PIONEER AIRFIELD,US,AZ,KALK,31.607,-110.428,+1453.3,20080807,20210921
722817,03068,ELLICOTT-B AFA,US,CO,KABH,38.767,-104.3,+1837.9,20060501,20210921
722860,23119,MARCH AIR RESERVE BASE,US,CA,KRIV,33.9,-117.25,+0468.2,19330101,20210921
722868,93138,PALM SPRINGS INTL AIRPORT,US,CA,KPSP,33.822,-116.504,+0124.7,20060101,20210921
722869,03171,RIVERSIDE MUNICIPAL ARPT,US,CA,KRAL,33.952,-117.439,+0245.2,20060101,20210921
722874,93134,DOWNTOWN L.A./USC CAMPUS,US,CA,KCQT,34.024,-118.291,+0054.6,20000101,20210921
722880,23152,BURBANK-GLENDALE-PASA ARPT,US,CA,KBUR,34.201,-118.358,+0236.2,19430601,20210921
722885,93197,SANTA MONICA MUNI AIRPORT,US,CA,KSMO,34.016,-118.451,+0053.0,20060101,20210921
722886,23130,VAN NUYS AIRPORT,US,CA,KVNY,34.21,-118.489,+0234.7,19421211,20210921
722887,03180,BRACKETT FIELD AIRPORT,US,CA,KPOC,34.1,-117.783,+0308.2,20060101,20210921
722895,23243,LOMPOC AIRPORT,US,CA,KLPC,34.667,-120.467,+0026.8,20060101,20210921
722897,93206,SAN LUIS CO REGIONAL ARPT,US,CA,KSBP,35.237,-120.641,+0061.0,20060101,20210921
722899,03179,CHINO AIRPORT,US,CA,KCNO,33.975,-117.636,+0198.1,20060101,20210921
722900,23188,SAN DIEGO INTERNATIONAL AIRPO,US,CA,KSAN,32.734,-117.183,+0004.6,19420101,20210921
722903,03131,MONTGOMERY FIELD AIRPORT,US,CA,KMYF,32.816,-117.139,+0127.1,20060101,20210921
722904,03178,BROWN FIELD MUNICIPAL ARPT,US,CA,KSDM,32.572,-116.979,+0157.0,20060101,20210921
722906,93112,NORTH ISLAND NAS,US,CA,KNZY,32.7,-117.2,+0007.9,19450401,20210921
722907,53143,GILLESPIE FIELD AIRPORT,US,CA,KSEE,32.826,-116.973,+0118.0,20060101,20210921
722909,93115,NAVAL AUXILIARY LANDING FD,US,CA,KNRS,32.567,-117.117,+0007.3,19730101,20210921
722910,93116,SAN NICOLAS ISLAND NAVAL OUTL,US,CA,KNSI,33.24,-119.458,+0153.0,19430616,20210921
722920,23191,CATALINA AIRPORT,US,CA,KAVX,33.405,-118.416,+0488.3,19430612,20210921
722925,93117,NALF/F. SHERMAN FLD ARPT,US,CA,KNUC,33.023,-118.588,+0055.5,19430610,20210921
722926,03154,MARINE CORPS AIR STATION,US,CA,KNFG,33.3,-117.35,+0022.9,19730102,20210921
722927,03177,MCCLELLAN-PALOMAR AIRPORT,US,CA,KCRQ,33.128,-117.279,+0100.0,20060101,20210921
722931,93107,MARINE CORPS AIR STATION,US,CA,KNKX,32.867,-117.133,+0145.4,20050401,20210921
722934,53121,OCEANSIDE MUNICIPAL ARPT,US,CA,KOKB,33.219,-117.349,+0008.5,20060101,20210921
722950,23174,LOS ANGELES INTERNATIONAL AIR,US,CA,KLAX,33.938,-118.389,+0029.6,19440101,20210921
722953,03183,MOJAVE AIRPORT,US,CA,KMHV,35.067,-118.15,+0849.5,20060102,20210921
722955,03174,ZAMPERINI FIELD AIRPORT,US,CA,KTOA,33.803,-118.34,+0029.6,20060101,20210921
722956,03167,NRTHORP FLD/HATHRN MUNI AP,US,CA,KHHR,33.923,-118.334,+0019.2,20060101,20210921
722970,23129,LONG BEACH / DAUGHERTY FIELD,US,CA,KLGB,33.812,-118.146,+0009.5,19430101,20210921
722975,53141,LOS ALAMITOS AAF AIRPORT,US,CA,KSLI,33.79,-118.052,+0010.7,20060101,20210921
722976,03166,FULLERTON MUNICIPAL ARPT,US,CA,KFUL,33.872,-117.979,+0029.3,20060101,20210921
722977,93184,J. WAYNE APT-ORANGE CO APT,US,CA,KSNA,33.68,-117.866,+0016.5,19400617,20210921
723171,53144,NORTH AUXILIARY AIRFIELD EDWA,US,CA,K9L2 ,34.988,-117.865,+0695.9,20060101,20210921
723600,23051,CLAYTON MUNICIPAL AIRPARK AIR,US,NM,KCAO,36.449,-103.154,+1511.8,19770827,20210921
723620,93040,SOCORRO MUNICIPAL AP,US,NM,KONM,34.067,-106.9,+1485.9,20070608,20210921
723625,93057,GRANTS-MILAN MUNI AIRPORT,US,NM,KGNT,35.165,-107.902,+1987.3,19480101,20210921
723627,23081,GALLUP MUNICIPAL AIRPORT,US,NM,KGUP,35.514,-108.794,+1972.4,19730101,20210921
723647,03034,DOUBLE EAGLE II AIRPORT,US,NM,KAEG,35.145,-106.795,+1779.1,20060101,20210921
723650,23050,ALBUQUERQUE INTL SUNPORT AIRP,US,NM,KABQ,35.042,-106.616,+1618.5,19410701,20210921
723654,93091,LOS ALAMOS AIRPORT,US,NM,KLAM,35.883,-106.283,+2185.7,20060101,20210921
723656,23049,SANTA FE MUNICIPAL AIRPORT,US,NM,KSAF,35.617,-106.089,+1933.7,19460801,20210921
723658,23090,FOUR CORNERS REGIONAL ARPT,US,NM,KFMN,36.744,-108.229,+1674.9,19730101,20210921
723663,03012,TAOS REGIONAL AIRPORT,US,NM,KSKX,36.45,-105.667,+2161.3,20060101,20210921
723676,23048,TUCUMCARI MUNICIPAL ARPT,US,NM,KTCC,35.182,-103.603,+1239.0,19460801,20210921
723677,23054,LAS VEGAS MUNICIPAL ARPT,US,NM,KLVS,35.654,-105.142,+2095.2,19460801,20210921
723700,93167,KINGMAN AIRPORT,US,AZ,KIGM,35.258,-113.933,+1042.4,19990101,20210921
723710,03162,PAGE MUNICIPAL AIRPORT,US,AZ,KPGA,36.926,-111.448,+1313.7,20060101,20210921
723723,23184,ERNEST A. LOVE FIELD ARPT,US,AZ,KPRC,34.652,-112.421,+1536.8,19900228,20210921
723740,23194,WINSLOW-LINDBERGH REGIONAL AI,US,AZ,KINW,35.028,-110.721,+1489.3,19730101,20210921
723745,00374,PAYSON AIRPORT,US,AZ,KPAN,34.257,-111.339,+1572.2,20100115,20210921
723747,03101,SHOW LOW MUNICIPAL AIRPORT,US,AZ,KSOW,34.264,-110.008,+1954.1,20060101,20210921
723750,03103,FLAGSTAFF PULLIAM AIRPORT,US,AZ,KFLG,35.144,-111.666,+2134.5,20050101,20210921
723754,93027,ST JOHNS INDUS AIRPK ARPT,US,AZ,KSJN,34.518,-109.379,+1747.4,20060101,20210921
723756,00375,SEDONA AIRPORT,US,AZ,KSEZ,34.85,-111.783,+1471.3,20090302,20210921
723762,93244,SANTA YNEZ AIRPORT,US,CA,KIZA,34.607,-120.076,+0204.5,20060105,20210921
723783,03195,GRAND CANYON NATL PARK APT,US,AZ,KGCN,35.946,-112.155,+2013.5,20060101,20210921
723788,53135,LAUGHLIN/BULLHEAD INTERNATION,US,AZ,KIFP,35.157,-114.559,+0211.8,20060101,20210921
723805,23179,NEEDLES AIRPORT,US,CA,KEED,34.768,-114.619,+0271.3,19770217,20210921
723810,23114,EDWARDS AIR FORCE BASE,US,CA,KEDW,34.9,-117.867,+0704.4,19411201,20210921
723815,23161,BARSTOW-DAGGETT AIRPORT,US,CA,KDAG,34.854,-116.786,+0584.3,19490101,20210921
723816,03159,GENERAL WILLIAM J. FOX AIRFIE,US,CA,KWJF,34.741,-118.212,+0712.6,19740601,20210921
723820,23182,PDLE PRODN FLT/TST AF PLT,US,CA,KPMD,34.629,-118.084,+0769.2,19730101,20210921
723825,23131,SOUTHERN CALIFORNIA LOGISTICS,US,CA,KVCV,34.583,-117.383,+0879.4,19420101,20210921
723830,23187,SANDBERG,US,CA,KSDB,34.744,-118.724,+1374.7,19730101,20210921
723840,23155,MEADOWS FIELD AIRPORT,US,CA,KBFL,35.434,-119.054,+0149.1,19411001,20210921
723860,23169,MCCARRAN INTERNATIONAL AIRPOR,US,NV,KLAS,36.072,-115.163,+0664.5,19730101,20210921
723870,03160,DESERT ROCK AIRPORT,US,NV,KDRA,36.621,-116.028,+0984.5,19780515,20210921
723890,93193,FRESNO YOSEMITE INTERNATIONAL,US,CA,KFAT,36.78,-119.719,+0101.5,19411204,20210921
723894,03181,MAMMOTH YOSEMITE AIRPORT,US,CA,KMMH,37.633,-118.85,+2172.6,20060103,20210921
723895,23149,PORTERVILLE MUNICIPAL ARPT,US,CA,KPTV,36.029,-119.063,+0134.7,20060101,20210921
723896,93144,VISALIA MUNICIPAL AIRPORT,US,CA,KVIS,36.317,-119.4,+0089.9,20060101,20210921
723898,53119,HANFORD MUNICIPAL AIRPORT,US,CA,KHJO,36.319,-119.629,+0075.9,20060101,20210921
723925,23190,SANTA BARBARA MUNICIPAL AIRPO,US,CA,KSBA,34.426,-119.843,+0002.7,19730101,20210921
723926,23136,CAMARILLO AIRPORT,US,CA,KCMA,34.217,-119.083,+0023.5,20050101,20210921
723930,93214,VANDENBERG AFB,US,CA,KVBG,34.717,-120.567,+0112.5,20060101,20210921
723940,23273,SANTA MARIA PUB/CAPT G A HANC,US,CA,KSMX,34.899,-120.449,+0073.8,19730101,20210921
723965,93209,PASO ROBLES MUNICIPAL ARPT,US,CA,KPRB,35.67,-120.628,+0246.9,19411201,20210921
724620,23061,SAN LUIS VALLEY REGIONAL AIRP,US,CO,KALS,37.439,-105.861,+2296.1,19730101,20210921
724625,93005,DURA-LA PLATA CO AIRPORT,US,CO,KDRO,37.143,-107.76,+2033.0,20060101,20210921
724627,03011,TELLURIDE REGIONAL AIRPORT,US,CO,KTEX,37.95,-107.9,+2770.9,20060101,20210921
724635,23067,LA JUNTA MUNICIPAL AIRPORT,US,CO,KLHX,38.049,-103.513,+1278.3,19421101,20210921
724636,03013,LAMAR MUNICIPAL AIRPORT,US,CO,KLAA,38.072,-102.687,+1124.1,20060101,20210921
724640,93058,PUEBLO MEMORIAL AIRPORT,US,CO,KPUB,38.289,-104.506,+1441.4,19421001,20210921
724645,23070,PERRY STOKES AIRPORT,US,CO,KTAD,37.262,-104.338,+1749.9,19730101,20210921
724646,03028,COMANCHE NATIONAL GRASSLAND,US,CO,KSPD,37.283,-102.614,+1335.9,20060101,20210921
724660,93037,CITY OF COLORADO SPRINGS MUNI,US,CO,KCOS,38.81,-104.688,+1884.0,19420901,20210921
724666,93067,CENTENNIAL AIRPORT,US,CO,KAPA,39.57,-104.849,+1793.1,20060101,20210921
724673,93009,LEADVILLE/LAKE COUNTY APT,US,CO,KLXV,39.229,-106.317,+3027.3,20060101,20210921
724674,94050,MEEKER AIRPORT,US,CO,KEEO,40.044,-107.889,+1940.4,20060101,20210921
724675,23063,EAGLE CO REGIONAL AIRPORT,US,CO,KEGE,39.65,-106.917,+1980.3,19730101,20210921
724676,93073,ASPEN-PITKIN COUNTY ARPT,US,CO,KASE,39.23,-106.871,+2353.1,20060101,20210921
724677,93007,GUNSN-CRSTED BUTTE RGL APT,US,CO,KGUC,38.533,-106.933,+2336.6,20020902,20210921
724678,94033,STEAMBOAT SPRINGS/BOB ADAMS F,US,CO,KSBS,40.517,-106.867,+2096.7,20110214,20210921
724680,94015,BUTTS AAF AIRPORT,US,CO,KFCS,38.678,-104.757,+1779.4,19660915,20210921
724689,03026,KIT CARSON COUNTY AIRPORT,US,CO,KITR,39.245,-102.284,+1277.7,20060101,20210921
724695,23036,BUCKLEY AIR FORCE BASE,US,CO,KBKF,39.717,-104.75,+1726.1,19440301,20210921
724698,24015,COLORADO PLAINS RGNL ARPT,US,CO,KAKO,40.167,-103.217,+1421.3,19730101,20210921
724700,93141,CARBON COUNTY AIRPORT,US,UT,KPUC,39.609,-110.755,+1804.7,20060101,20210921
724733,23170,HANKSVILLE,US,UT,KHVE,38.417,-110.7,+1355.1,20140724,20210921
724754,23186,ST GEORGE MUNICIPAL ARPT,US,UT,KSGU,37.1,-113.6,+0894.9,20060101,20210921
724755,93129,CEDAR CITY REGIONAL ARPT,US,UT,KCDC,37.709,-113.094,+1702.6,19730101,20210921
724756,23159,BRYCE CANYON AIRPORT,US,UT,KBCE,37.706,-112.146,+2312.2,19730101,20210921
724760,23066,GRAND JUNCTION REGIONAL AIRPO,US,CO,KGJT,39.134,-108.54,+1480.7,19730101,20210921
724765,93013,MONTROSE REGIONAL AIRPORT,US,CO,KMTJ,38.506,-107.899,+1743.5,20060101,20210921
724767,93069,CORTEZ MUNICIPAL AIRPORT,US,CO,KCEZ,37.307,-108.626,+1801.4,20060101,20210921
724768,24051,GREELEY-WELD COUNTY ARPT,US,CO,KGXY,40.436,-104.632,+1431.7,20060101,20210921
724769,94035,FORT COLLINS LOVELAND AP,US,CO,KFNL,40.45,-105.017,+1528.6,20060101,20210921
724770,03170,EUREKA,US,NV,KP68 ,39.601,-116.006,+1809.3,20100801,20210921
724776,93075,CANYONLANDS FIELD AIRPORT,US,UT,KCNY,38.75,-109.763,+1389.9,20060101,20210921
724796,94128,LOGAN-CACHE AIRPORT,US,UT,KLGU,41.787,-111.853,+1357.6,19990101,20210921
724797,23176,MILFORD MUNI BRISCOE,US,UT,KMLF,38.417,-113.017,+1534.1,19970101,20210921
724800,23157,BISHOP AIRPORT,US,CA,KBIH,37.371,-118.358,+1250.3,19430116,20210921
724810,23203,CASTLE AFB,US,CA,KMER,37.383,-120.567,+0058.2,19420101,20210921
724815,23257,MRCD MUNI/MACREADY FLD APT,US,CA,KMCE,37.285,-120.513,+0046.3,20060101,20210921
724828,93241,NUT TREE AIRPORT,US,CA,KVCB,38.378,-121.958,+0033.2,20060101,20210921
724830,23232,SACRAMENTO EXECUTIVE AIRPORT,US,CA,KSAC,38.507,-121.495,+0004.6,19730101,20210921
724833,23206,SACRAMENTO MATHER AIRPORT,US,CA,KMHR,38.567,-121.3,+0030.2,20020902,20210921
724836,23208,SACRAMENTO MCCLELLAN AFB,US,CA,KMCC,38.667,-121.4,+0023.5,19391109,20210921
724837,93216,BEALE AIR FORCE BASE,US,CA,KBAB,39.133,-121.433,+0034.4,19590701,20210921
724838,93205,YUBA COUNTRY AIRPORT,US,CA,KMYV,39.102,-121.568,+0018.9,20060101,20210921
724846,53123,NORTH LAS VEGAS AIRPORT,US,NV,KVGT,36.212,-115.196,+0671.5,20060101,20210921
724855,23153,TONOPAH AIRPORT,US,NV,KTPH,38.051,-117.09,+1644.4,19421001,20210921
724860,23154,ELY AIRPORT/YELLAND FIELD/AIR,US,NV,KELY,39.295,-114.847,+1908.7,19730101,20210921
724880,23185,RENO/TAHOE INTERNATIONAL AIRP,US,NV,KRNO,39.484,-119.771,+1344.2,19430105,20210921
724885,93102,FALLON NAS,US,NV,KNFL,39.417,-118.717,+1199.1,19730101,20210921
724915,23259,MONTEREY PENINSULA AIRPORT,US,CA,KMRY,36.588,-121.845,+0050.3,20060101,20210921
724920,23237,STOCKTON METROPOLITAN AIRPORT,US,CA,KSCK,37.889,-121.226,+0007.9,19410103,20210921
724926,23258,MDSTO CTY-CO H SHAM FD APT,US,CA,KMOD,37.624,-120.951,+0022.3,19730101,20210921
724927,23285,LIVERMORE MUNICIPAL ARPT,US,CA,KLVK,37.693,-121.814,+0119.8,20000101,20210921
724930,23230,METRO OAKLAND INTL AIRPORT,US,CA,KOAK,37.721,-122.221,+0001.8,19430101,20210921
724937,23289,PALO ALTO AIRPORT OF SANTA CL,US,CA,KPAO,37.467,-122.117,+0002.1,20060101,20210921
724938,93231,SAN CARLOS AIRPORT,US,CA,KSQL,37.517,-122.25,+0001.5,20060101,20210921
724940,23234,SAN FRANCISCO INTERNATIONAL A,US,CA,KSFO,37.62,-122.365,+0002.4,19730101,20210921
724945,23293,N Y. MINETA SN JO INTL APT,US,CA,KSJC,37.359,-121.924,+0015.5,19730101,20210921
724946,93232,REID-HILLVIEW AIRPORT OF SANT,US,CA,KRHV,37.333,-121.817,+0040.5,20060101,20210921
724950,23254,BUCHANAN FIELD AIRPORT,US,CA,KCCR,37.992,-122.055,+0005.5,20100801,20210921
724955,93227,NAPA COUNTY AIRPORT,US,CA,KAPC,38.21,-122.285,+0004.3,20000101,20210921
724957,23213,SONOMA COUNTY AIRPORT,US,CA,KSTS,38.504,-122.81,+0034.8,20000101,20210921
724973,93203,CHICO MUNICIPAL AIRPORT,US,CA,KCIC,39.8,-121.85,+0082.9,20060101,20210921
725640,24018,CHEYENNE AIRPORT,US,WY,KCYS,41.158,-104.807,+1863.2,19480101,20210921
725645,24022,LARAMIE REGIONAL AIRPORT,US,WY,KLAR,41.317,-105.683,+2214.7,19730101,20210921
725650,03017,DENVER INTERNATIONAL AIRPORT,US,CO,KDEN,39.833,-104.658,+1650.2,19940718,20210921
725686,94057,CONVERSE COUNTY AIRPORT,US,WY,KDGW,42.796,-105.38,+1504.5,20060101,20210921
725690,24089,NATRONA COUNTY INTERNATIONAL,US,WY,KCPR,42.898,-106.474,+1620.9,19400101,20210921
725700,24046,CRAIG-MOFFAT AIRPORT,US,CO,KCAG,40.493,-107.524,+1886.7,20060101,20210921
725705,94030,VERNAL AIRPORT,US,UT,KVEL,40.443,-109.513,+1606.3,20060101,20210921
725710,94025,YAMPA VALLEY AIRPORT,US,CO,KHDN,40.481,-107.218,+2011.7,20050101,20210921
725717,03016,GARFIELD CO REGIONAL ARPT,US,CO,KRIL,39.528,-107.72,+1683.1,20060101,20210921
725720,24127,SALT LAKE CITY INTERNATIONAL,US,UT,KSLC,40.778,-111.969,+1287.8,19411101,20210921
725724,24174,PROVO MUNICIPAL AIRPORT,US,UT,KPVU,40.219,-111.723,+1370.7,20060101,20210921
725744,24027,RCK SRINGS-SWETWTER CO APT,US,WY,KRKS,41.595,-109.053,+2055.0,19900301,20210921
725750,24126,OGDEN-HINCKLEY AIRPORT,US,UT,KOGD,41.196,-112.011,+1362.5,19730101,20210921
725755,24101,HILL AFB AIRPORT,US,UT,KHIF,41.117,-111.967,+1459.7,19411001,20210921
725760,24021,HUNT FIELD AIRPORT,US,WY,KLND,42.815,-108.726,+1704.4,19730101,20210921
725763,94053,TORRINGTON MUNICIPAL ARPT,US,WY,KTOR,42.061,-104.158,+1279.9,20060101,20210921
725775,04111,EVAN-UINTA CO BURNS FLD AP,US,WY,KEVW,41.273,-111.031,+2183.3,19730101,20210921
725776,24166,JACKSON HOLE AIRPORT,US,WY,KJAC,43.6,-110.733,+1956.5,20060101,20210921
725780,24156,POCATELLO REGIONAL AIRPORT,US,ID,KPIH,42.92,-112.571,+1357.0,19430101,20210921
725784,04109,ELK CITY,US,ID,KP69 ,46.144,-115.596,+0451.1,20060101,20210921
725785,24145,IDAHO FALLS REGIONAL ARPT,US,ID,KIDA,43.519,-112.064,+1442.6,19730101,20210921
725805,24172,DERBY FIELD AIRPORT,US,NV,KLOL,40.068,-118.569,+1189.3,19770101,20210921
725810,24193,WENDOVER AIRPORT,US,UT,KENV,40.721,-114.036,+1291.4,19420801,20210921
725825,24121,ELKO REGIONAL AIRPORT,US,NV,KEKO,40.829,-115.789,+1533.1,19770101,20210921
725830,24128,WINNEMUCCA MUNICIPAL AIRPORT,US,NV,KWMC,40.902,-117.808,+1309.4,19730101,20210921
725835,24119,BATTLE MOUNTAIN AIRPORT,US,NV,KBAM,40.612,-116.892,+1373.1,19730101,20210921
725845,23225,BLUE CANYON - NYACK ARPT,US,CA,KBLU,39.277,-120.71,+1608.1,19730101,20210921
725846,93201,TRUCKEE-TAHOE AIRPORT,US,CA,KTRK,39.32,-120.139,+1798.3,20060101,20210921
725847,93230,LAKE TAHOE AIRPORT,US,CA,KTVL,38.898,-119.995,+1924.5,20000101,20210921
725850,93228,HAYWARD EXECUTIVE AIRPORT,US,CA,KHWD,37.654,-122.115,+0013.1,20100801,20210921
725864,94182,MCCALL MUNICIPAL AIRPORT,US,ID,KMYL,44.889,-116.102,+1528.0,20050101,20210921
725865,94161,FRIEDMAN MEMORIAL AIRPORT,US,ID,KSUN,43.5,-114.3,+1617.3,20060101,20210921
725866,94178,JSIN FLD-MAGIC VLY RGN APT,US,ID,KTWF,42.482,-114.487,+1265.2,20060101,20210921
725867,24133,BURLEY MUNICIPAL AIRPORT,US,ID,KBYI,42.542,-113.766,+1266.1,19730101,20210921
725895,94236,KLAMATH FALLS AIRPORT,US,OR,KLMT,42.147,-121.724,+1244.8,19590901,20210921
725905,23275,UKIAH MUNICIPAL AIRPORT,US,CA,KUKI,39.126,-123.201,+0183.2,19730101,20210921
725910,24216,RED BLUFF MUNICIPAL ARPT,US,CA,KRBL,40.152,-122.254,+0107.6,19730101,20210921
725920,24257,REDDING MUNICIPAL AIRPORT,US,CA,KRDD,40.518,-122.299,+0151.5,19910331,20210921
725930,23233,SALINAS MUNICIPAL AIRPORT,US,CA,KSNS,36.664,-121.608,+0022.6,20050101,20210921
725940,24213,WOODLEY ISLAND (NEW 10/94)   ,US,CA,KEKA,40.81,-124.16,+0006.1,20060101,20210921
725945,24283,ARCATA AIRPORT,US,CA,KACV,40.978,-124.109,+0061.0,19730101,20210921
725946,24286,JACK MCNAMARA FIELD ARPT,US,CA,KCEC,41.78,-124.237,+0017.4,19730101,20210921
725955,24259,SISKIYOU COUNTY AIRPORT,US,CA,KSIY,41.781,-122.468,+0808.0,19500101,20210921
725957,24215,MOUNT SHASTA,US,CA,KMHS,41.333,-122.333,+1077.5,19770101,20210921
725958,94299,ALTURAS MUNICIPAL AIRPORT,US,CA,KAAT,41.491,-120.564,+1333.5,20060101,20210921
725970,24225,ROGUE VALLEY INTL-MEDFORD AIR,US,OR,KMFR,42.375,-122.877,+0400.2,19730101,20210921
725975,24235,SEXTON SUMMIT,US,OR,KSXT,42.6,-123.364,+1168.0,19730101,20210921
725976,94285,LAKE COUNTY AIRPORT,US,OR,KLKV,42.167,-120.4,+1441.1,20060101,20210921
725985,24267,BROOKINGS,US,OR,KBOK,42.074,-124.29,+0139.9,19770225,20210921
726391,00385,BALD MOUNTAIN COTTONWOOD PASS,US,CO,K7BM ,38.783,-106.217,+2995.3,20050611,20210921
726392,00424,SUNLIGHT,US,CO,K5SM ,39.433,-107.383,+3232.1,20050611,20210921
726396,00422,WILKERSON PASS,US,CO,K4BM ,39.05,-105.516,+3438.1,20050611,20210921
726650,94023,GILLETTE-CAMPBELL CO. ARPT,US,WY,KGCC,44.339,-105.542,+1327.1,20060101,20210921
726654,94054,JOHNSON COUNTY AIRPORT,US,WY,KBYG,44.381,-106.721,+1513.9,20060101,20210921
726660,24029,SHERIDAN COUNTY AIRPORT,US,WY,KSHR,44.769,-106.969,+1202.4,19730101,20210921
726664,94173,YELLOWSTONE,US,WY,KP60 ,44.544,-110.421,+2388.1,19790322,20210921
726665,24062,WORLAND MUNICIPAL AIRPORT,US,WY,KWRL,43.966,-107.951,+1271.6,20000101,20210921
726667,24048,SOUTH BIG HORN COUNTY ARPT,US,WY,KGEY,44.517,-108.082,+1198.8,20060101,20210921
726690,24057,RAWLINS MUNI/HARVEY FIELD ARP,US,WY,KRWL,41.8,-107.2,+2053.1,20100801,20210921
726700,24045,YELLOWSTONE REGIONAL ARPT,US,WY,KCOD,44.517,-109.017,+1552.0,20060101,20210921
726710,24164,BIG PINEY-MARBLETON ARPT,US,WY,KBPI,42.584,-110.108,+2124.5,19990101,20210921
726720,24061,RIVERTON REGIONAL AIRPORT,US,WY,KRIW,43.064,-108.459,+1659.6,20070401,20210921
726764,94163,YELLOWSTONE AIRPORT,US,MT,KWYS,44.683,-111.117,+2026.6,20060608,20210921
726770,24033,BILLINGS LOGAN INTERNATIONAL,US,MT,KBIL,45.807,-108.542,+1091.5,19350501,20210921
726776,24036,LEWISTOWN MUNICIPAL ARPT,US,MT,KLWT,47.049,-109.458,+1263.4,19420401,20210921
726777,94055,BAKER MUNICIPAL AIRPORT,US,MT,KBHK,46.358,-104.25,+0905.6,20060101,20210921
726797,24132,GALLATIN FIELD AIRPORT,US,MT,KBZN,45.788,-111.161,+1349.4,19730101,20210921
726798,24150,MISSION FIELD AIRPORT,US,MT,KLVM,45.698,-110.441,+1415.2,19730101,20210921
726810,24131,BOISE AIR TERMINAL/GOWEN FD A,US,ID,KBOI,43.567,-116.241,+0875.4,19310101,20210921
726813,94195,CALDWELL INDUSTRIAL ARPT,US,ID,KEUL,43.65,-116.633,+0740.4,20060101,20210921
726815,24106,MOUNTAIN HOME AFB AIRPORT,US,ID,KMUO,43.05,-115.867,+0913.2,19320101,20210921
726816,04110,JEROME COUNTY AIRPORT,US,ID,KJER,42.727,-114.456,+1233.8,20060101,20210921
726817,24154,MULLAN PASS,US,ID,KMLP,47.457,-115.645,+1837.3,19960702,20210921
726818,94194,REXBURG-MADISON COUNTY APT,US,ID,KRXE,43.832,-111.808,+1481.9,19990102,20210921
726824,04112,STANLEY RANGER STATION,US,ID,KSNT,44.171,-114.927,+1979.7,19990102,20210921
726830,94185,BURNS MUNICIPAL AIRPORT,US,OR,KBNO,43.595,-118.956,+1261.9,19730101,20210921
726836,04201,SCAPPOOSE INDUS AIRPK ARPT,US,OR,KSPB,45.773,-122.861,+0016.8,20060101,20210921
726837,24162,ONTARIO MUNICIPAL AIRPORT,US,OR,KONO,44.021,-117.013,+0668.4,19730101,20210921
726865,24196,LEMHI COUNTY AIRPORT,US,ID,KSMN,45.117,-113.883,+1232.6,20060101,20210921
726873,00452,IDAHO COUNTY AIRPORT,US,ID,KGIC,45.943,-116.123,+1010.1,20110325,20210921
726875,94107,ROME STATE AIRPORT,US,OR,KREO,42.591,-117.864,+1234.4,19980302,20210921
726876,00387,GRANT COUNTY REGIONAL AIRPORT,US,OR,KGCD,44.4,-118.967,+1127.2,20050103,20210921
726880,24155,EASTERN OR REGIONAL AT PENDLE,US,OR,KPDT,45.698,-118.855,+0452.9,19420101,20210921
726881,94273,MC MINNVILLE MUNICIPAL APT,US,OR,KMMV,45.195,-123.134,+0048.5,20060101,20210921
726883,04113,HERMISTON MUNICIPAL ARPT,US,OR,KHRI,45.826,-119.261,+0195.4,20060101,20210921
726884,24148,LA GRANDE/UNION COUNTY APT,US,OR,KLGD,45.283,-118.0,+0826.9,19880506,20210921
726885,24152,MEACHAM,US,OR,KMEH,45.511,-118.425,+1134.8,19730101,20210921
726886,24130,BAKER CITY MUNICIPAL ARPT,US,OR,KBKE,44.843,-117.809,+1024.4,19730101,20210921
726904,24231,ROSEBURG REGIONAL AIRPORT,US,OR,KRBG,43.239,-123.355,+0160.0,19800514,20210921
726917,24284,NORTH BEND MUNICIPAL ARPT,US,OR,KOTH,43.413,-124.244,+0005.2,19770101,20210921
726920,24230,ROBERTS FIELD AIRPORT,US,OR,KRDM,44.256,-121.139,+0927.5,20050101,20210921
726930,24221,MAHLON SWEET FIELD AIRPORT,US,OR,KEUG,44.128,-123.221,+0107.6,19730101,20210921
726940,24232,MCNARY FIELD AIRPORT,US,OR,KSLE,44.905,-123.001,+0062.5,19730101,20210921
726945,24202,CORVALLIS MUNICIPAL APRT,US,OR,KCVO,44.5,-123.283,+0076.2,20060101,20210921
726950,24285,NEWPORT MUNICIPAL AIRPORT,US,OR,KONP,44.583,-124.05,+0037.2,20110301,20210921
726959,94281,AURORA STATE AIRPORT,US,OR,KUAO,45.249,-122.769,+0059.7,20060101,20210921
726980,24229,PORTLAND INTERNATIONAL AIRPOR,US,OR,KPDX,45.596,-122.609,+0005.8,19360501,20210921
726985,24242,PORTLAND-TROUTDALE AIRPORT,US,OR,KTTD,45.551,-122.409,+0008.8,20060101,20210921
726986,94261,PORTLAND-HILLSBORO AIRPORT,US,OR,KHIO,45.541,-122.949,+0062.2,20060101,20210921
726988,24219,MUNICIPAL AIRPORT,US,WA,KDLS,45.619,-121.166,+0071.6,19730101,20210921
727680,94008,WOKAL FIELD/GLASGOW INTL AIRP,US,MT,KGGW,48.214,-106.621,+0696.5,19421210,20210921
727684,94051,JORDAN AIRPORT,US,MT,KJDN,47.326,-106.948,+0811.4,20060101,20210921
727686,94017,L M CLAYTON AIRPORT,US,MT,KOLF,48.094,-105.574,+0605.3,20060101,20210921
727687,94028,SIDNEY-RICHLAND MUNI ARPT,US,MT,KSDY,47.717,-104.183,+0603.5,20060101,20210921
727690,24137,CUT BANK MUNICIPAL AIRPORT,US,MT,KCTB,48.603,-112.375,+1169.8,20050101,20210921
727700,24138,DILLON AIRPORT,US,MT,KDLN,45.258,-112.554,+1585.0,20050101,20210921
727720,24144,HELENA REGIONAL AIRPORT,US,MT,KHLN,46.606,-111.964,+1166.8,19730101,20210921
727730,24153,MISSOULA INTERNATIONAL AIRPOR,US,MT,KMSO,46.921,-114.093,+0972.9,19730101,20210921
727740,24135,BERT MOONEY AIRPORT,US,MT,KBTM,45.965,-112.501,+1678.2,20050101,20210921
727750,24143,GREAT FALLS INTERNATIONAL AIR,US,MT,KGTF,47.473,-111.382,+1116.8,19730101,20210921
727755,24112,MALMSTROM AFHP HELIPORT,US,MT,KGFA,47.517,-111.183,+1058.3,19421201,20210921
727770,94012,HAVRE CITY-COUNTY AIRPORT,US,MT,KHVR,48.543,-109.763,+0787.9,19730101,20210921
727790,24146,GLACIER PARK INTERNATIONAL AI,US,MT,KGPI,48.304,-114.264,+0901.3,19730101,20210921
727810,24243,YAKIMA AIR TERMINAL/MCALSR FI,US,WA,KYKM,46.568,-120.543,+0324.3,19730101,20210921
727815,24237,STAMPASS PASS FLTWO,US,WA,KSMP,47.277,-121.337,+1206.7,19730101,20210921
727825,94239,PANGBORN MEMORIAL AIRPORT,US,WA,KEAT,47.398,-120.201,+0374.6,20000101,20210921
727827,24110,GRANT COUNTY INTL AIRPORT,US,WA,KMWH,47.208,-119.319,+0364.5,19430610,20210921
727830,24149,LEWISTON-NEZ PERCE COUNTY AIR,US,ID,KLWS,46.375,-117.016,+0439.5,19730101,20210921
727834,24136,COEUR D'ALENE AIR TERM APT,US,ID,KCOE,47.767,-116.817,+0703.2,20060101,20210921
727845,24163,TRI-CITIES AIRPORT,US,WA,KPSC,46.267,-119.117,+0124.1,19730101,20210921
727846,24160,WALLA WALLA REGIONAL ARPT,US,WA,KALW,46.095,-118.287,+0355.4,19410901,20210921
727850,24157,SPOKANE INTERNATIONAL AIRPORT,US,WA,KGEG,47.622,-117.528,+0717.2,19410811,20210921
727855,24114,FAIRCHILD AIR FORCE BASE,US,WA,KSKA,47.633,-117.65,+0750.1,19400401,20210921
727856,94176,FELTS FIELD AIRPORT,US,WA,KSFF,47.683,-117.321,+0595.3,20060101,20210921
727857,94129,PULLMAN/MOSCOW RGNL ARPT,US,WA,KPUW,46.744,-117.109,+0777.5,20060101,20210921
727870,94119,DEER PARK AIRPORT,US,WA,KDEW,47.974,-117.429,+0667.8,20100801,20210921
727883,24220,BOWERS FIELD AIRPORT,US,WA,KELN,47.034,-120.53,+0538.3,19880106,20210921
727885,94266,WILLIAM R FAIRCHILD INT AP,US,WA,KCLM,48.12,-123.498,+0087.8,20060101,20210921
727890,94197,OMAK AIRPORT,US,WA,KOMK,48.464,-119.517,+0396.2,20060101,20210921
727900,24141,EPHRATA MUNICIPAL AIRPORT,US,WA,KEPH,47.308,-119.515,+0381.6,20050101,20210921
727910,94224,ASTORIA REGIONAL AIRPORT,US,OR,KAST,46.157,-123.883,+0002.7,19730101,20210921
727918,94298,PEARSON FIELD AIRPORT,US,WA,KVUO,45.621,-122.657,+0009.1,20060101,20210921
727920,24227,OLYMPIA AIRPORT,US,WA,KOLM,46.973,-122.903,+0057.3,19730101,20210921
727923,94225,BOWERMAN AIRPORT,US,WA,KHQM,46.973,-123.93,+0003.7,19910108,20210921
727924,24223,KELSO-LONGVIEW AIRPORT,US,WA,KKLS,46.117,-122.894,+0006.1,19900208,20210921
727925,94227,SANDERSON FIELD AIRPORT,US,WA,KSHN,47.238,-123.141,+0082.6,19990101,20210921
727928,94263,BREMERTON NATIONAL AIRPORT,US,WA,KPWT,47.483,-122.767,+0135.3,20060101,20210921
727930,24233,SEATTLE-TACOMA INTERNATIONAL,US,WA,KSEA,47.444,-122.314,+0112.8,19480101,20210921
727934,94248,RENTON MUNICIPAL AIRPORT,US,WA,KRNT,47.493,-122.214,+0008.8,20060101,20210921
727935,24234,BOEING FLD/KING CO INTL AP,US,WA,KBFI,47.53,-122.301,+0005.5,19431001,20210921
727937,24222,SNOHOMISH CO (PAINE FD) AP,US,WA,KPAE,47.908,-122.28,+0184.7,20060101,20210921
727938,94274,TACOMA NARROWS AIRPORT,US,WA,KTIW,47.268,-122.576,+0089.0,20060101,20210921
727945,04205,ARLINGTON MUNICIPAL ARPT,US,WA,KAWO,48.161,-122.159,+0041.8,20060101,20210921
727970,94240,QUILLAYUTE AIRPORT,US,WA,KUIL,47.938,-124.555,+0056.4,19730101,20210921
727976,24217,BELLINGHAM INTL AIRPORT,US,WA,KBLI,48.794,-122.537,+0045.4,19480101,20210921
727985,94276,FRIDAY HARBOR AIRPORT,US,WA,KFHR,48.522,-123.023,+0033.2,20060101,20210921
740002,03042,LA VETA PASS AWOS-3 ARPT     ,US,CO,KVTP,37.5,-105.167,+3114.1,20060101,20210921
740035,03145,YUMA MCAS,US,AZ,KNYL,32.65,-114.617,+0064.9,20050101,20210921
742060,24207,MCCHORD AFB AIRPORT,US,WA,KTCM,47.15,-122.483,+0098.2,19400722,20210921
742071,24201,GRAY AFF AIRPORT,US,WA,KGRF,47.083,-122.583,+0091.4,20110101,20210921
742300,24037,FRANK WILEY FIELD AIRPORT,US,MT,KMLS,46.427,-105.883,+0799.8,19830531,20210921
745046,93242,MADERA MUNICIPAL AIRPORT,US,CA,KMAE,36.988,-120.111,+0077.1,20060101,20210921
745048,93210,OROVILLE MUNICIPAL AIRPORT,US,CA,KOVE,39.49,-121.618,+0057.9,20060101,20210921
745056,53120,RAMONA AIRPORT,US,CA,KRNM,33.038,-116.916,+0424.6,20060101,20210921
745057,53130,WHITMAN AIRPORT,US,CA,KWHP,34.259,-118.413,+0305.7,20060101,20210921
745058,23277,WATSONVILLE MUNICIPAL ARPT,US,CA,KWVI,36.936,-121.789,+0048.8,20060101,20210921
745160,23202,TRAVIS AIR FORCE BASE,US,CA,KSUU,38.267,-121.933,+0018.9,19430811,20210921
745310,93065,USAF ACADEMY AIRSTRIP AIRPORT,US,CO,KAFF,38.967,-104.817,+2003.2,19671127,20210921
746110,03182,BICYCLE LAKE FORT IRWIN AAF,US,CA,KBYS,35.283,-116.633,+0075.6,20050814,20210921
746120,93104,CHINA LAKE,US,CA,KNID,35.688,-117.693,+0679.7,19730101,20210921
746140,23112,NELLIS AFB AIRPORT,US,NV,KLSV,36.25,-115.033,+0570.0,20050101,20210921
746141,23141,INDIAN SPRING AUX AIRFIELD,US,NV,KINS,36.583,-115.683,+0954.9,20050103,20210921
747020,23110,NAVAL AIR STATION,US,CA,KNLC,36.333,-119.95,+0070.7,19610701,20210921
747040,03102,ONTARIO INTERNATIONAL ARPT,US,CA,KONT,34.056,-117.6,+0289.3,20050101,20210921
747043,03165,EL MONTE AIRPORT,US,CA,KEMT,34.083,-118.033,+0090.2,20060101,20210921
747185,03144,IMPERIAL COUNTY AIRPORT,US,CA,KIPL,32.834,-115.579,-0017.7,20060101,20210921
747187,03104,DESERT RESORTS RGNL ARPT,US,CA,KTRM,33.627,-116.159,-0036.0,19430712,20210921
747188,23158,BLYTHE AIRPORT,US,CA,KBLH,33.619,-114.714,+0120.4,19420613,20210921
747320,23002,HOLLOMAN AFB AIRPORT,US,NM,KHMN,32.85,-106.1,+1267.4,20060103,20210921
749171,00479,TEHACHAPI MUNICIPAL AIRPORT,US,CA,KTSP,35.135,-118.439,+1219.5,20091209,20210921
749179,00392,HOLLISTER MUNICIPAL AIRPORT,US,CA,KCVH,36.9,-121.417,+0072.2,20090201,20210921
749484,00395,SOUTH COUNTY AIRPORT OF SANTA,US,CA,KE16 ,37.082,-121.597,+0086.3,20111001,20210921
749485,00396,ROHNERVILLE AIRPORT,US,CA,KFOT,40.554,-124.133,+0119.2,20110921,20210921
749486,00397,NEVADA COUNTY AIR PARK,US,CA,KGOO,39.224,-121.003,+0961.0,20110921,20210921
999999,00484,HULETT MUNICIPAL AIRPORT,US,WY,,44.663,-104.568,+1300.0,20140731,20210921
999999,03033,MORIARTY AIRPORT,US,NM,,34.985,-106.0,+1889.5,20020302,20210921
999999,23122,NORTON AAF,US,CA,KSBD,34.1,-117.25,+0335.0,19710101,20210921
A00005,94076,MC ELORY AIRFIELD AIRPORT,US,CO,K20V ,40.054,-106.369,+2258.9,20060101,20210921
A00015,53129,COLORADO CITY MUNI AIRPORT,US,AZ,KAZC,36.96,-113.014,+1485.6,20140227,20210921
A00016,03036,BLANDING MUNICIPAL AIRPORT,US,UT,KBDG,37.583,-109.483,+1787.7,20140724,20210921
A00018,23162,DELTA MUNICIPAL AIRPORT,US,UT,KDTA,39.383,-112.517,+1450.5,20140820,20210921
A00028,04116,SALT LAKE CITY MUNI 2 ARPT   ,US,UT,KU42 ,40.619,-111.993,+1403.0,20160815,20210921
A06854,00115,BIG BEAR CITY AIRPORT,US,CA,KL35 ,34.264,-116.854,+2057.1,20140731,20210921
A07049,00320,PETALUMA MUNICIPAL AIRPORT,US,CA,KO69 ,38.25,-122.6,+0027.1,20140731,20210921
723910,93111,POINT MUGU,US,CA,KNTD,34.117,-119.117,+0004.0,19730101,20210921
724839,93225,SACRAMENTO INTL AIRPORT,US,CA,KSMF,38.696,-121.59,+0007.0,19730101,20210921
723927,93110,OXNARD AIRPORT,US,CA,KOXR,34.201,-119.207,+0011.0,19440401,20210921
720385,00419,BERTHOUD PASS,US,CO,K0CO ,39.8,-105.766,+4113.3,20070401,20210922
720533,00160,BOULDER MUNICIPAL AIRPORT,US,CO,KBDU,40.033,-105.217,+1612.1,20100201,20210922
720535,00162,FORT MORGAN MUNICIPAL AIRPORT,US,CO,KFMM,40.333,-103.8,+1393.2,20120726,20210922
720538,00164,VANCE BRAND AIRPORT,US,CO,KLMO,40.167,-105.167,+1541.1,20101202,20210922
722155,03040,MONUMENT HILL AWOS-3 ARPT    ,US,CO,KMNH,39.217,-104.633,+2151.9,20060101,20210922
724665,93010,LIMON MUNICIPAL AIRPORT,US,CO,KLIC,39.275,-103.666,+1638.0,19730101,20210922
724699,03065,ATCT ROCKY MOUNTAIN METRO,US,CO,KBJC,39.9,-105.117,+1705.4,20060101,20210922
694070,99999,ATLIN,CA,,,59.583,-133.667,+0716.0,19781026,19801202
694080,99999,CASSIAR,CA,,,59.267,-129.8,+1097.0,19781017,19800422
710011,99999,CALLAGHAN VALLEY (SKI JUMP TO,CA,,CVOW,50.133,-123.117,+0936.0,20070228,20100413
710021,99999,CALLAGHAN VALLEY(SKI JUMP BOT,CA,,,50.133,-123.117,+0860.0,20090101,20100623
710031,99999,CALLAGHAN VALLEY(BIATHALON)  ,CA,,CVOY,50.15,-123.117,+0870.0,20070306,20100708
710040,99999,CYPRESS BOWL FREESTYLE,CA,,CVOZ,49.4,-123.2,+0969.0,20070301,20100623
710325,99999,NOOTKA LIGHTSTATION,CA,,CWCV,49.6,-126.62,+0016.0,19990114,20111209
710326,99999,ADDENBROKE ISLAND,CA,,CWCZ,51.6,-127.87,+0021.0,19990114,20011213
710327,99999,EGG ISLAND,CA,,CWEM,51.25,-127.83,+0014.0,19990114,20011214
710328,99999,CAPE SCOTT,CA,,CWES,50.78,-128.43,+0072.0,19990114,20011214
710334,99999,SIKANNI CHIEF  B. C.         ,CA,,CWKS,57.25,-122.72,+0937.0,19990114,20030515
710336,99999,TETSA RIVER,CA,,CWTH,58.65,-124.23,+0804.0,19990114,20030515
710337,99999,TRIPLE IL LH,CA,,,54.3,-130.883,+0021.0,19990115,20011213
710338,99999,BONILLA ISLAND,CA,,CWVB,53.5,-130.63,+0016.0,19990115,20011213
710339,99999,MUNCHO LAKE,CA,,CWWQ,58.92,-125.77,+0835.0,19990114,20030515
710340,99999,TRIAL ISLAND,CA,,,48.4,-123.3,+0023.0,20040709,20040722
710344,99999,HOLBERG  B. C.               ,CA,,CWXH,50.63,-128.12,+0568.0,19990122,20011120
710347,99999,CALGARY SPRINGBANK,CA,,CYBW,51.1,-114.367,+1200.0,19990114,20031021
710501,99999,KLEENA KLEENE,CA,,,51.983,-124.983,+0899.0,19570106,19590331
710565,99999,PRIMROSE LAKE DND,CA,,CWIQ,54.75,-110.05,+0702.0,20070628,20131017
710691,99999,WAGNER,CA,,,55.35,-114.983,+0584.0,19430521,19460116
710751,99999,EMBARRAS,CA,,,58.2,-111.383,+0236.0,19550702,19620921
711000,99999,TRIPLE ISLAND LIGHT,CA,,CWTI,54.3,-130.883,+0021.0,19770701,20041212
711033,99999,QUESNEL AUT,CA,,CWQZ,53.03,-122.52,+0545.0,19890616,19940920
711034,99999,BOWRON LAKE LODGE,CA,,,53.25,-121.417,+0914.0,19910108,19910207
711046,99999,HORSEFLY RIVER (AUT)         ,CA,,CWFR,52.0,-121.0,+0846.0,19930701,20011002
711064,99999,QUATSINO LIGHTSTATION,CA,,CWIF,50.43,-128.03,+0021.0,19990104,20011214
711070,25342,CAPE ST JAMES CS,CA,BC,CWZV,51.933,-131.0,+0092.0,19770701,19930114
711070,99999,CAPE ST JAMES CS  BC,CA,,CWZV,51.933,-131.0,+0092.0,20010705,20200718
711111,99999,DOG CREEK,CA,,,51.633,-122.25,+1027.0,19550702,19601130
711120,99999,RICHMOND OPERATION CENTRE,CA,,,49.167,-123.067,+0016.0,19801001,20180705
711121,99999,ASHCROFT,CA,,,50.7,-121.317,+0488.0,19550702,19630731
711122,99999,AMPHITRITE POINT,CA,,CWAN,48.917,-125.55,+0027.0,20050404,20050404
711131,99999,PACHENA POINT,CA,,,48.717,-125.1,+0046.0,19550702,19581114
711133,99999,WHISTLER ALTA LAKE&          ,CA,,CWAE,50.133,-122.95,+0658.0,19880318,19970328
711143,99999,HOPE (READAC)                ,CA,,ZHE,49.367,-121.5,+0041.0,19910611,19921210
711145,99999,HOPE,CA,,WHE,49.367,-121.483,+0038.0,19770701,19910522
711146,99999,OSOYOOS (AUTO8)              ,CA,,,49.033,-119.433,+0283.0,19900724,19950414
711147,99999,SUMMERLAND CDA(AUT)          ,CA,,,49.567,-119.65,+0454.0,19930724,19950414
711153,99999,VERNON (AUTO8)               ,CA,,CWJV,50.233,-119.283,+0555.0,19910801,19950605
711190,99999,EDMONTON STONY PLAIN ALTA,CA,,CWSE,53.55,-114.11,+0766.0,19940314,20050412
711224,99999,BANFF,CA,,,51.183,-115.567,+1384.0,19790131,19790131
711225,99999,YOHO PARK,CA,,,51.45,-116.333,+1615.0,19921216,19950414
711228,99999,BOW VALLEY (AUTOB)           ,CA,,,51.083,-115.067,+1298.0,19910801,19930330
711234,99999,NAKISKA RIDGETOP,CA,,,50.95,-115.183,+1914.0,19910827,19941122
711240,99999,EDMONTON STONY PLAIN CS  ALTA,CA,,,53.55,-114.1,+0766.0,19820901,20130430
711260,99999,STONY PLAIN,CA,,,53.55,-114.1,+0766.0,19770701,20031007
711279,99999,PRIMROSE LAKE 2              ,CA,,CWOU,54.78,-110.07,+0606.0,20050129,20050304
711280,99999,SUFFIELD,CA,,,50.267,-111.183,+0770.0,19910321,20031128
711284,99999,VAUXHALL LDA,CA,,,50.05,-112.133,+0779.0,19920807,19930330
711362,99999,WHISTLER MTN TIMING FLATS,CA,,,50.1,-122.983,+0805.0,20090227,20100322
711870,99999,HOPE,CA,,,49.367,-121.5,+0039.0,19770701,20170605
712003,99999,VICTORIA (AUTO8)             ,CA,,,48.417,-123.317,+0067.0,19811126,19910124
712023,99999,VICTORIA MARINE,CA,,,48.367,-123.75,+0032.0,19880105,20060611
712025,99999,WEST VAN CYPRESS,CA,,,49.35,-123.183,+0161.0,19930112,19950414
712027,99999,VICTORIA HARTLAND CS,CA,,,48.53,-123.47,+0154.0,19950423,20120611
712035,99999,KELOWNA APT,CA,,,49.95,-119.383,+0429.0,19831222,19930208
712050,99999,CAMPBELL RIVER,CA,,,49.95,-125.267,+0106.0,19800301,20051005
712063,99999,BELLA COOLA ARPT  &          ,CA,,,52.383,-126.583,+0035.0,19880105,19930309
712073,99999,SQUAMISH (AUTO8)             ,CA,,,49.783,-123.167,+0052.0,19880105,19930309
712079,99999,SQUAMISH,CA,,CYSE,49.783,-123.167,+0052.0,20100104,20100403
712085,99999,POWELL RIVER ARPT &          ,CA,,,49.817,-124.5,+0120.0,19831222,19930309
712220,99999,DEASE LAKE (AUT)             ,CA,,CWKX,58.433,-130.033,+0802.0,19930829,20210916
712410,99999,HIGHVALE  ALTA,CA,,CWHA,53.45,-114.467,+0747.0,19930701,20060822
712470,99999,MEDICINE HAT,CA,,,50.017,-110.717,+0717.0,19930701,20020501
712530,99999,GARDEN RIVER  ALTA,CA,,CWGF,58.7,-113.867,+0241.0,19950423,20201122
712560,99999,WHITECOURT  ALTA,CA,,CXZU,54.15,-115.783,+0785.0,20010916,20160421
712900,99999,MACKENZIE,CA,,,55.283,-123.133,+0690.0,19941001,20170628
713050,99999,FORT CHIPEWYAN,CA,,,58.767,-111.117,+0238.0,20040921,20131031
714740,99999,CLINTON,CA,,CWCL,51.15,-121.5,+1057.0,19810601,20170320
714764,99999,BONILLA ISLAND,CA,,WWL,55.5,-130.633,+0017.0,19850701,19860320
714765,99999,GREY ISLET (MAPS) &          ,CA,,,54.583,-130.7,+0013.0,19841025,19880326
714795,99999,WOSS,CA,,,50.217,-126.617,+0122.0,19910108,19910206
714813,99999,HELMCKEN ISL(MAPS)&          ,CA,,,50.4,-125.867,+0019.0,19880105,19880225
714823,99999,CATHEDRAL PT(MAPS)&          ,CA,,,52.183,-127.467,+0025.0,19880105,19880326
714833,99999,MALAHAT (AUTO8)              ,CA,,,48.583,-123.583,+0275.0,19910321,19950414
714835,99999,BIG CREEK(AUTO)              ,CA,,CWBG,51.25,-123.083,+1670.0,19920106,19950523
714844,99999,CUMSHEWA ISL (MAPS)          ,CA,,,53.033,-131.6,+0017.0,19880105,20080928
715620,99999,CYPRESS BOWL SNOWBOARD,CA,,,49.383,-123.2,+1180.0,20100129,20100805
715710,99999,SPIRIT RIVER AUTO STATION  AL,CA,,CXSR,55.683,-119.233,+1015.0,20010916,20180321
715930,99999,PRAIRIE RIVER  ALTA,CA,,CXPV,58.617,-111.667,+0212.0,20040405,20091007
716841,99999,WHISTLER MOUNTAIN HIGH LEVEL,CA,,CVOA,50.083,-122.95,+1640.0,20050724,20100623
716850,99999,REVELSTOKE,CA,,CVRA,50.967,-118.183,+0445.0,20080101,20130905
716851,99999,WHISTLER MOUNTAIN HIGH LEVEL,CA,,CVOH,50.067,-122.95,+1690.0,20060403,20100810
716861,99999,WHISTLER MT LOW LVL,CA,,CVOB,50.083,-122.983,+0933.0,20050724,20100811
716891,99999,CYPRESS BOWL NORTH,CA,,CVOE,49.4,-123.2,+0953.0,20070228,20100617
716930,99999,CYPRESS BOWL SOUTH,CA,,CVOG,49.383,-123.2,+0886.0,20070401,20100331
717560,99999,BLACKCOMB BASE SLIDING CENTER,CA,,,50.1,-122.933,+0937.0,20080322,20180514
717600,99999,BIG CREEK (AUT)              ,CA,,CWBG,51.27,-123.1,+1670.0,19961101,20110928
717630,99999,NECHAKO RIVER,CA,,,53.683,-124.833,+0715.0,19961101,20020115
717775,99999,PEMBERTON AIRPORT (WIND)PEMBE,CA,,CWPN,50.3,-122.733,+0203.0,20101115,20140922
717850,99999,WHITE ROCK CAMPBELL SCIENTIFI,CA,,CWWK,49.017,-122.767,+0013.0,19950423,20210918
717994,99999,VICTORIA UNIV,CA,,,48.45,-123.3,+0060.0,19930520,19950414
717995,99999,VICTORIA MARINE RAD,CA,,,48.367,-123.75,+0031.0,19770701,19800227
718438,99999,SUFFIELD,CA,,CYSD,50.267,-111.183,+0770.0,20040512,20201001
718711,99999,VERMILION,CA,,YVG,53.35,-110.833,+0619.0,19550702,19831205
718724,99999,ESTHER 1                     ,CA,,,51.667,-110.2,+0707.0,19921008,19930330
718730,99999,CORONATION,CA,,CYCT,52.075,-111.445,+0791.0,19550702,20050830
718737,99999,BOW ISLAND,CA,,,49.617,-111.45,+0838.0,19940103,19940314
718743,99999,MILK RIVER,CA,,,49.133,-112.05,+1050.0,19910801,19930330
718753,99999,PINCHER CREEK (AUT)          ,CA,,,49.5,-113.95,+1154.0,19910711,19910908
718754,99999,PINCHER CREEK (AUT)          ,CA,,,49.5,-113.95,+1154.0,19791115,19820403
718756,99999,CLARESHOLM (AUTO8)           ,CA,,,50.0,-113.633,+1012.0,19920219,19940314
718775,99999,GOLDEN ARPT,CA,,CYGE,51.3,-116.967,+0787.0,19770701,19970224
718776,99999,CALGARY/SPRINGBANK,CA,,CYBW,51.1,-114.383,+1200.0,19771013,19970310
718777,99999,SUNDRE ARPT (AUTOB)          ,CA,,WAV,51.767,-114.683,+1114.0,19910801,19940621
718778,99999,COP UPPER,CA,,,51.083,-114.217,+1235.0,19920807,19930330
718783,99999,THREE HILLS,CA,,,51.7,-113.217,+0907.0,19921216,19930330
718784,99999,LACOMBE CDA,CA,,,52.45,-113.75,+0874.0,19921216,19930330
718790,99999,EDMONTON CITY CENTRE,CA,,CYXD,53.573,-113.521,+0670.6,19500101,20150401
718793,99999,SPARWOOD (AUTO8)  &          ,CA,,,49.75,-114.9,+1137.0,19921216,19950414
718795,99999,CROWSNEST,CA,,,49.633,-114.483,+1303.0,19920807,19930330
718801,99999,WASA,CA,,,49.733,-115.783,+0920.0,19550702,19630731
718813,99999,EDSON (READAC)               ,CA,,ZET,53.583,-116.483,+0925.0,19910822,19921210
718814,99999,COAL VALLEY,CA,,,53.083,-116.817,+1426.0,19800611,19830613
718823,99999,REVELSTOKE (AUTOB)           ,CA,,,50.967,-118.2,+0443.0,19890616,19921210
718831,99999,ROSSLAND,CA,,,49.15,-117.917,+2348.0,19550703,19630731
718835,99999,NELSON (AUTO8)    &          ,CA,,,49.5,-117.3,+0535.0,19921216,19950414
718841,99999,CRESCENT VALLEY,CA,,,49.45,-117.567,+0610.0,19550702,19630731
718843,99999,NAKUSP (AUTO8)    &          ,CA,,,50.267,-117.817,+0512.0,19910204,19950414
718844,99999,CRESTON (AUTO8)   &          ,CA,,,49.083,-116.5,+0569.0,19930520,19950414
718851,99999,CARMI,CA,,,49.5,-119.083,+1245.0,19550702,19630131
718863,99999,SALMON ARM AUTO8  &          ,CA,,,50.7,-119.283,+0351.0,19901104,19950414
718881,99999,JASPER  ALTA.                ,CA,,CWJA,52.88,-118.07,+1061.0,20050422,20051013
718895,99999,KELOWNA UA,CA,,,49.93,-119.4,+0456.0,19770701,19831205
718910,99999,LYTTON,CA,,CWLY,50.23,-121.58,+0229.0,19550702,20210812
718913,99999,LYTTON,CA,,,50.233,-121.583,+0258.0,19890616,19910529
718914,99999,LYTTON (READAC)              ,CA,,YLY,50.233,-121.583,+0255.0,19790131,19910916
718915,99999,HOPE SLIDE,CA,,CWKV,49.28,-121.23,+0674.0,19770701,20030515
718917,99999,108 MILE HOUSE               ,CA,,WOF,51.733,-121.333,+0953.0,19920807,19950414
718918,99999,PEMBERTON,CA,,CYPS,50.303,-122.738,+0204.2,20100104,20100403
718935,99999,POWELL RIVER,CA,,,49.817,-124.5,+0120.0,19770701,19831205
718937,99999,CHATHAM POINT,CA,,CWFM,50.33,-125.43,+0023.0,19770701,20011213
718955,25237,HOLBERG,CA,,WHJ,50.65,-128.05,+0579.0,19770701,19900317
718956,99999,EGG ISLAND,CA,,,51.25,-127.833,+0014.0,19770701,19781122
718970,99999,MCINNES ISLAND  BC,CA,,CWMS,52.25,-128.717,+0026.0,19770701,20210807
718985,99999,BONILLA ISLAND    &          ,CA,,WVB,53.5,-130.633,+0018.0,19770702,19781126
718994,99999,FORT ST. JAMES ARPT,CA,,YJM,54.417,-124.25,+0716.0,19880318,19890505
719080,99999,PRINCE GEORGE UA  BC,CA,,,53.9,-122.783,+0601.0,20010707,20060105
719284,99999,ROCKY MOUNTAIN HOUSE,CA,,CYRM,52.43,-114.904,+0988.8,19790604,20130430
719323,99999,RED EARTH,CA,,,56.533,-115.267,+0546.0,19920219,19930615
719331,99999,KEG RIVER,CA,,,57.783,-117.833,+0427.0,19550702,19630731
719333,99999,SOUSA CRK(AVT)               ,CA,,,58.583,-118.5,+0373.0,19910108,19930615
719334,99999,FORT CHIPEWYAN AUTOMATED REPO,CA,,,58.77,-111.13,+0232.0,19910801,19931014
719391,99999,BEATTON RIVER,CA,,,57.383,-121.383,+0840.0,19550702,19630731
719403,99999,CHETWYND AIRPORT,CA,,CYCQ,55.7,-121.633,+0629.0,19821111,19970310
719421,99999,FAIRVIEW          &          ,CA,,,56.083,-118.433,+0655.0,19550702,19630731
719445,99999,INGENIKA POINT,CA,,,56.8,-124.9,+0680.0,19990104,20050208
719446,99999,PINK MOUNTAIN 2              ,CA,,CWCG,57.033,-122.533,+1067.0,19861016,19950501
719456,99999,MUNCHO LAKE,CA,,,58.917,-125.767,+0835.0,19430916,19450818
719471,99999,SMITH RIVER,CA,,,59.9,-126.433,+0673.0,19550702,19630731
719472,99999,MOUNT WASHINGTON,CA,,,50.25,-125.47,+1474.0,20090101,20100929
719523,99999,LUCY ISL (LGT-H)             ,CA,,WLC,54.3,-130.6,+0027.0,19900724,19960523
719524,99999,BURNS LAKE        &          ,CA,,,54.233,-125.767,+0704.0,19790131,19910611
719525,99999,BURNS LAKE,CA,,,54.233,-125.767,+0704.0,19921008,19950605
719580,99999,DEASE LAKE,CA,,CWDL,58.433,-130.017,+0807.0,19440916,20121115
719584,99999,DEASE LAKE,CA,,YDL,58.417,-130.0,+0815.0,19790131,19790604
728820,99999,REVELSTOKE AIRPORT,CA,,,50.967,-118.183,+0443.0,19730101,19770817
728885,99999,JASPER-HINTON ARPT,CA,,,53.317,-117.75,+1227.0,19730111,19730630
728985,99999,BONILLA ISLAND    &          ,CA,,,53.5,-130.633,+0018.0,19730101,19770419
728990,25343,LANGARA,CA,,,54.25,-133.05,+0034.0,19730101,19770723
729410,99999,GERMANSEN LANDING,CA,,,55.783,-124.7,+0746.0,19730101,19770818
729456,99999,MUNCHO LAKE,CA,,,58.917,-125.767,+0840.0,19730616,19740329
741000,99999,TRIPLE ISLAND,CA,,,54.3,-130.883,+0014.0,19730101,19770729
741260,99999,BROOKS,CA,,,50.55,-111.9,+0755.0,19730101,19770816
749187,99999,EMBARRAS ALBERTA DOT APT,CA,,,58.199,-111.383,+0236.0,19430108,19441124
749188,99999,JARVIE WEST,CA,,,54.467,-114.1,+0624.0,19430517,19450818
749189,99999,VALLEY VIEW ALBERTA,CA,,,55.083,-117.25,+0738.0,19440222,19450818
749190,99999,TRIANGLE SOUTHWEST,CA,,,55.317,-116.983,+0610.0,19431021,19440101
749191,99999,WONOWON SOUTHEAST,CA,,,56.7,-121.75,+0905.0,19430708,19450818
749192,99999,SKOOKS LANDING,CA,,,59.65,-127.067,+0507.0,19430801,19450818
749193,99999,SUMMIT LAKE,CA,,,58.65,-124.65,+1281.0,19430921,19450818
749194,99999,TROUT LIARD BRITISH COLUMBIA,CA,,,59.383,-126.116,+0422.0,19430607,19450818
749195,99999,TRUTCH NORTHEAST,CA,,,57.75,-122.9,+0857.0,19430720,19450818
749196,99999,TAKLA LANDING,CA,,,55.467,-125.95,+0692.0,19441005,19450818
749197,99999,NELSON FORKS,CA,,,59.5,-124.0,+0243.0,19450309,19450617
749198,99999,FRASER NORTHEAST,CA,,,59.767,-134.983,+0884.0,19431201,19460131
749199,99999,GALBRAITH EAST,CA,,,59.5,-131.767,+1021.0,19450304,19450818
999999,25237,HOLBERG,CA,,CYHJ,50.65,-128.0,+0569.1,19560611,19691230
710323,99999,NANAKWA SHOALS,CA,,,53.817,-128.833,+0000.0,19860916,19880702
710369,99999,KELP REEFS,CA,,CWZO,48.55,-123.233,+0000.0,20070801,20180919
710685,99999,HIGH PRAIRIE ARPT,CA,,ZHP,55.417,-116.5,+0000.0,19830723,19890721
711014,99999,ROSE SPIT (AUT)              ,CA,,WRO,54.2,-131.65,+0000.0,19840914,19840921
712004,99999,SHERINGHAM PT (AUT)          ,CA,,,48.383,-123.917,+0000.0,19920621,19950414
718903,99999,PAM ROCKS,CA,,WAS,49.483,-123.283,+0000.0,19870612,19950605
718904,99999,SISTERS IL AUTO8  &          ,CA,,,49.483,-124.433,+0000.0,19921008,19950414
718905,99999,BALLENAS IL AUTO8 &          ,CA,,,49.35,-124.167,+0000.0,19770701,19950414
718951,99999,BULL HARBOUR,CA,,,50.917,-127.95,+0000.0,19550702,19630731
719155,99999,CARVEL RADAR,CA,,,53.57,-114.15,+0000.0,19810220,19840608
990210,99999,DISCONTINUED 810622          ,CA,,C7P  ,50.0,-145.0,+0000.0,19730101,19810624
712045,99999,SAND HEADS (LS)              ,CA,,CWVF,49.1,-123.3,+0001.0,19920106,19950605
714755,99999,PORT ALBERNI ARPT,CA,,,49.267,-124.833,+0002.0,19831222,19950331
712013,99999,VANCOUVER INTL,CA,,WHC,49.183,-123.167,+0003.0,19880105,19881208
996210,99999,NORTH NOMAD,CA,,,53.91,-138.85,+0003.0,19900917,20081029
996410,99999,CENTRAL DIXON ENTRANCE BUOY,CA,,,54.38,-132.45,+0003.0,19920416,20081224
997555,99999,DATA BUOY 46698              ,CA,,,52.1,-154.0,+0003.0,20080320,20081214
711055,99999,PINE ISLAND (MAPS)           ,CA,,WPI,50.333,-127.967,+0004.0,19800905,19830322
718965,99999,DRYAD POINT,CA,,CWAU,52.18,-128.12,+0004.0,19990103,20011213
711073,99999,SCUDDER POINT,CA,,CWZD,52.45,-131.23,+0005.0,19910411,19960604
711134,99999,ENTRANCE ISL.(CS)            ,CA,,,49.217,-123.8,+0005.0,19920408,19950414
712024,99999,RACE ROCKS,CA,,,48.3,-123.533,+0005.0,19930527,19950414
714725,99999,MASSET A,CA,,,54.017,-132.117,+0005.0,19920122,19921201
718916,99999,CAPE MUDGE,CA,,CWAD,50.0,-125.2,+0005.0,19770701,20011214
718925,99999,VANCOUVER HARBOUR,CA,,,49.3,-123.117,+0005.0,19770701,19800227
718926,99999,VANCOUVER HARBOUR &          ,CA,,YHC,49.3,-123.117,+0005.0,19790131,19790604
711015,99999,SANDSPIT 'A' (AUTO)          ,CA,,CZZP,53.25,-131.833,+0006.0,19941007,19950602
711024,99999,ETHELDA BAY,CA,,YTC,53.05,-129.683,+0006.0,19790131,19790615
711110,99999,SANDSPIT,CA,,,53.25,-131.8,+0006.0,19770701,20170607
712043,99999,MERRY ISLAND LIGHTSTATION,CA,,CWMR,49.47,-123.92,+0006.0,19990104,20011214
714773,99999,ROSE SPIT (MAPS)  &          ,CA,,,54.167,-131.667,+0007.0,19880105,19880502
714775,99999,ROSE SPIT (MAPS)  &          ,CA,,,54.167,-131.667,+0007.0,19841025,19860413
718944,99999,ESTEVAN POINT (MAN)          ,CA,,YEP,49.383,-126.55,+0007.0,19790131,19831205
711074,99999,HOSKINS INLET(MAPS)          ,CA,,WZK,52.533,-131.55,+0008.0,19790131,19950501
719974,99999,HOSKINS ISLET,CA,,,52.53,-131.55,+0008.0,19831103,19860329
711054,99999,SPRING ISLAND,CA,,,50.0,-127.417,+0009.0,19770701,19860809
710329,99999,IVORY ISLAND,CA,,CWJG,52.27,-128.4,+0010.0,19990114,20011213
713325,99999,GRIEF POINT,CA,,CWKA,49.8,-124.53,+0010.0,20050517,20140922
710331,99999,CHROME ISLAND,CA,,,49.467,-124.683,+0011.0,20110622,20110706
710345,99999,BOAT BLUFF,CA,,CWZM,52.65,-128.52,+0011.0,19990114,20011213
710335,99999,GREEN ISLAND LIGHT STATION - ,CA,,CWNJ,54.57,-130.7,+0012.0,19990114,20011213
712026,99999,ESQUIMALT METOC,CA,,CWPF,48.433,-123.433,+0012.0,19940103,19950605
717620,99999,ISKUT RIVER (AUT)            ,CA,,CWIO,56.73,-131.67,+0015.0,19961101,20050307
710505,99999,PUNTZI MTN AUT,CA,,,52.117,-124.083,-0999.0,19770701,19830322
999999,25343,LANGARA,CA,,CYLA,54.25,-133.05,+0041.1,19540101,19721231
999999,94234,TOFINO,CA,,CYAZ,49.083,-125.767,+0024.1,19640101,19721231
999999,25342,CAPE SAINT JAMES  &          ,CA,,WFV,51.933,-131.017,,19530101,19721231
727990,99999,VICTORIA INTL ARPT,CA,,,48.65,-123.433,+0019.0,19730101,19770630
727995,99999,VICTORIA MARINE RAD,CA,,,48.367,-123.75,+0031.0,19730101,19770630
728710,99999,LLOYDMINSTER ARPT,CA,,,53.35,-110.833,+0034.0,19730101,19770630
728720,99999,MEDICINE HAT ARPT,CA,,,50.017,-110.717,+0717.0,19730101,19770630
728730,99999,CORONATION (MARS) &          ,CA,,,52.1,-111.45,+0797.0,19730101,19770630
728735,99999,CORONATION(AUT)              ,CA,,,52.1,-111.45,+0797.0,19770608,19770630
728740,99999,LETHBRIDGE AIRPORT,CA,,,49.633,-112.8,+0929.0,19730101,19770630
728750,99999,PINCHER CREEK (AUT)          ,CA,,,49.5,-113.95,+1154.0,19730101,19770630
728770,99999,CALGARY INTNL ARPT,CA,,,51.1,-114.017,+1084.0,19730101,19770630
728775,99999,GOLDEN ARPT,CA,,,51.3,-116.967,+0787.0,19730102,19770630
728780,99999,RED DEER AIRPORT,CA,,,52.183,-113.9,+0905.0,19730101,19770630
728790,99999,EDMONTON MUNICIPAL,CA,,,53.567,-113.517,+0671.0,19730101,19770630
728800,99999,CRANBROOK AIRPORT,CA,,,49.6,-115.783,+0939.0,19730101,19770630
728810,99999,EDSON AIRPORT,CA,,,53.583,-116.45,+0921.0,19730101,19770630
728830,99999,BLUE RIVER (MAN)             ,CA,,,52.117,-119.3,+0683.0,19730101,19770630
728840,99999,CASTLEGAR AIRPORT,CA,,,49.3,-117.633,+0495.0,19730101,19770630
728860,99999,PRINCETON ARPT    &          ,CA,,,49.467,-120.517,+0700.0,19730101,19770630
728870,99999,KAMLOOPS AIRPORT,CA,,,50.7,-120.45,+0346.0,19730101,19770630
728880,99999,JASPER,CA,,,52.883,-118.067,+1064.0,19730101,19770630
728890,99999,PENTICTON AIRPORT,CA,,,49.467,-119.6,+0344.0,19730101,19770630
728895,99999,KELOWNA APT,CA,,,49.95,-119.383,+0429.0,19730101,19770630
728900,99999,NANAIMO AIRPORT,CA,,,49.05,-123.867,+0030.0,19730101,19770630
728910,99999,LYTTON (READAC)              ,CA,,,50.233,-121.583,+0255.0,19730101,19770630
728915,99999,HOPE SLIDE,CA,,,49.267,-121.217,+0678.0,19730101,19770630
728916,99999,CAPE MUDGE (LGT-H)           ,CA,,,51.15,-121.5,+1055.0,19730101,19770630
728930,99999,COMOX (CAN-MIL)              ,CA,,,49.717,-124.9,+0024.0,19730101,19770630
728935,99999,POWELL RIVER ARPT &          ,CA,,,49.817,-124.5,+0120.0,19730101,19770630
728936,99999,CAMPBELL RIVER ARPT,CA,,,49.95,-125.267,+0105.0,19730101,19770630
728937,99999,CHATHAM POINT (LH)           ,CA,,,50.333,-125.433,+0020.0,19730101,19770630
728955,25237,HOLBERG,CA,,,50.65,-128.0,+0617.0,19730101,19770630
728960,99999,PRINCE GEORGE ARPT,CA,,,53.883,-122.667,+0691.0,19730101,19770630
728970,99999,MCINNES ISLAND,CA,,,52.267,-128.717,+0025.0,19730101,19770630
728980,99999,PRINCE RUPERT ARPT,CA,,,54.3,-130.433,+0034.0,19730101,19770630
729280,99999,ROCKY MTN HOUSE,CA,,,52.383,-114.917,+1001.0,19730101,19770630
729300,99999,WHITECOURT AIRPORT,CA,,,54.133,-115.667,+0740.0,19730101,19770630
729310,99999,LAC LA BICHE (MARS)          ,CA,,,54.767,-112.017,+0568.0,19730101,19770630
729320,99999,FORT MCMURRAY ARPT,CA,,,56.65,-111.217,+0369.0,19730101,19770630
729330,99999,FORT CHIPEWYAN ARPT,CA,,,58.767,-111.117,+0232.0,19730101,19770630
729400,99999,GRANDE PRAIRE ARPT,CA,,,55.183,-118.883,+0669.0,19730101,19770630
729430,99999,FORT ST. JOHN ARPT,CA,,,56.233,-120.733,+0695.0,19730101,19770630
729440,99999,MACKENZIE AIRPORT,CA,,,55.3,-123.133,+0700.0,19730101,19770630
729450,99999,FORT NELSON AIRPORT,CA,,,58.833,-122.583,+0382.0,19730101,19770630
729455,99999,LIARD RIVER,CA,,,59.45,-126.15,+0427.0,19730109,19770630
729500,99999,SMITHERS AIRPORT,CA,,,54.817,-127.183,+0523.0,19730101,19770630
729510,99999,TERRACE AIRPORT,CA,,,54.467,-128.583,+0217.0,19730101,19770630
729520,99999,BURNS LAKE        &          ,CA,,,54.233,-125.767,+0704.0,19730101,19770630
729580,99999,DEASE LAKE,CA,,,58.417,-130.0,+0815.0,19730101,19770630
740500,99999,PUNTZI MTN (MARS)            ,CA,,,52.117,-124.083,+0911.0,19730101,19770630
740561,99999,DAWSON CREEK      &          ,CA,,,55.75,-120.183,+0655.0,19730101,19770630
740660,99999,HIGH LEVEL AIRPORT,CA,,,58.617,-117.167,+0338.0,19730101,19770630
740680,99999,PEACE RIVER AIRPORT,CA,,,56.233,-117.433,+0571.0,19431222,19770630
740690,99999,SLAVE LAKE AIRPORT,CA,,,55.3,-114.783,+0581.0,19730101,19770630
741030,99999,QUESNEL AIRPORT,CA,,,53.033,-122.517,+0545.0,19730101,19770630
741040,99999,WILLIAMS LAKE ARPT,CA,,,52.183,-122.067,+0940.0,19610101,19770630
741060,94234,TOFINO,CA,,,49.083,-125.767,+0020.0,19730101,19770630
741070,25342,CAPE ST JAMES,CA,,,51.933,-131.017,+0089.0,19730101,19770630
741080,99999,ABBOTSFORD AIRPORT,CA,,,49.017,-122.367,+0058.0,19570101,19770630
741090,99999,PORT HARDY AIRPORT,CA,,,50.683,-127.367,+0023.0,19730101,19770630
741100,99999,ALERT BAY,CA,,,50.583,-126.933,+0050.0,19730101,19770630
741110,99999,CAPE SCOTT,CA,,,50.783,-128.433,+0072.0,19730101,19770630
741130,99999,AGASSIZ (AUTO)               ,CA,,,50.15,-122.95,+0668.0,19730101,19770630
741140,99999,HOPE AIRPORT (MAN)           ,CA,,,49.367,-121.5,+0039.0,19730101,19770630
741145,99999,HOPE (AUTOB)                 ,CA,,,49.367,-121.483,+0038.0,19751204,19770630
741150,99999,VERNON (AUTO8)               ,CA,,,50.233,-119.283,+0555.0,19730101,19770630
741200,99999,COLD LAKE (CAN-MIL)          ,CA,,,54.417,-110.283,+0541.0,19570101,19770630
741210,99999,EDMONTON/NAMAO(MIL)          ,CA,,,53.667,-113.467,+0688.0,19730101,19770630
741220,99999,BANFF,CA,,,51.183,-115.567,+1384.0,19730101,19770630
741230,99999,EDMONTON INTL ARPT,CA,,,53.317,-113.583,+0723.0,19730101,19770630
742000,99999,VICTORIA (AUTO8)             ,CA,,,48.417,-123.317,+0067.0,19730101,19770630
740505,99999,PUNTZI MTN (MAN)             ,CA,,,52.117,-124.083,+0000.0,19770608,19770630
728905,99999,BALLENAS IL AUTO8 &          ,CA,,,49.25,-124.833,+0001.0,19730101,19770630
728920,99999,VANCOUVER INTL,CA,,,49.183,-123.167,+0003.0,19730101,19770630
728950,99999,BULL HARBOUR (DEAD)          ,CA,,,50.917,-127.95,+0004.0,19730101,19770630
728925,99999,VANCOUVER HARBOUR &          ,CA,,,49.3,-123.117,+0005.0,19760212,19770630
728940,99999,ESTEVAN PT. (MARS)           ,CA,,,49.383,-126.533,+0005.0,19730101,19770630
741010,99999,SANDSPIT AIRPORT,CA,,,53.25,-131.817,+0006.0,19730101,19770630
741020,99999,ETHELDA BAY,CA,,,53.05,-129.683,+0006.0,19730101,19770630
729550,99999,STEWART AIRPORT,CA,,,55.933,-129.983,+0008.0,19750109,19770630
741050,99999,PINE ISLAND (MAPS)           ,CA,,,50.0,-127.417,+0009.0,19730101,19770630
728956,99999,EGG ISLAND,CA,,,51.25,-127.833,+0012.0,19760401,19770630
710324,99999,WHISTLER,CA,,CWAE,50.117,-122.95,+0658.0,19990114,20041231
711060,99999,TOFINO,CA,,CYAZ,49.082,-125.773,+0024.4,20000101,20041231
718990,99999,LANGARA,CA,,CWJU,54.25,-133.05,+0041.0,20000101,20041231
719520,99999,BURNS LAKE CAMPBELL SCIENTIFI,CA,,CWPZ,54.383,-125.95,+0713.0,19770701,20041231
710564,99999,DEASE LAKE,CA,,,58.417,-130.033,+0813.0,20040901,20081231
711226,99999,BANFF (MARS)                 ,CA,,,51.2,-115.55,+1396.0,19811112,20081231
714710,99999,DAWSON CREEK LWIS,CA,,,55.733,-120.167,+0655.0,20080101,20081231
717570,99999,BELLA BELLA,CA,,,52.15,-128.15,+0043.0,20080101,20081231
718735,99999,CORONATION (AUT)             ,CA,,,52.067,-111.467,+0791.0,19770701,20081231
718736,99999,DRUMHELLER EAST,CA,,,51.433,-112.667,+0678.0,19910801,20081231
718750,99999,PINCHER CREEK,CA,,,49.517,-114.0,+1190.0,19421201,20081231
718755,99999,PINCHER CREEK,CA,,,49.517,-114.0,+1220.0,19811124,20081231
718884,99999,WAINWRIGHT (AUTO8)           ,CA,,,52.817,-111.083,+0684.0,19790131,20081231
719320,99999,FORT MCMURRAY AWOS ARPT,CA,,,56.65,-111.217,+0369.0,19430201,20081231
719491,99999,WHITCOURT,CA,,,54.133,-115.783,+0802.0,19400101,20081231
992190,99999,MIDDLE NOMAD,CA,,,50.93,-136.1,+0003.0,19771112,20081231
992930,99999,SOUTH NOMAD,CA,,,48.35,-133.94,+0003.0,19861001,20081231
996460,99999,NORTH HECATE STRAIT,CA,,,53.62,-131.1,+0003.0,19930727,20081231
996490,99999,WEST DIXON ENTRANCE,CA,,,54.16,-134.28,+0003.0,19960226,20081231
996500,99999,LA PEROUSE BANK,CA,,,48.84,-126.0,+0003.0,19960311,20081231
996510,99999,WEST MORESBY,CA,,,52.52,-132.68,+0003.0,19980624,20081231
996520,99999,NANAKWA SHOAL,CA,,,53.83,-128.83,+0003.0,20011129,20081231
996530,99999,SOUTH HECATE STRAIT,CA,,,52.42,-129.81,+0003.0,19940113,20081231
996540,99999,WEST SEA OTTER,CA,,,51.37,-128.75,+0003.0,19930526,20081231
996620,99999,EAST DELLWOOD,CA,,,50.87,-129.92,+0003.0,20011129,20081231
996870,99999,HALIBUT BANK,CA,,,49.34,-123.73,+0003.0,19951105,20081231
996930,99999,SENTRY SHOAL,CA,,,49.91,-124.99,+0003.0,19940214,20081231
996960,99999,SOUTH BROOKS,CA,,,49.74,-127.93,+0003.0,19930626,20081231
996980,99999,SOUTH MORESBY,CA,,,51.83,-131.22,+0003.0,19940617,20081231
718930,99999,COMOX,CA,,CYQQ,49.711,-124.887,+0025.6,19540101,20210919
710050,99999,ALBERT HALL AGCM,CA,,,53.1,-111.167,+0658.0,20071124,20210920
710060,99999,ALLIANCE AGCM,CA,,,52.3,-111.767,+0737.0,20071124,20210920
710070,99999,BARONS AGCM,CA,,,50.017,-113.217,+0967.0,20071124,20210920
710080,99999,BASSANO AGCM,CA,,,50.883,-112.45,+0807.0,20071124,20210920
710090,99999,BEISEKER AGCM,CA,,,51.367,-113.35,+0896.0,20071124,20210920
710100,99999,BELLSHILL AGCM,CA,,CPBL,52.583,-111.467,+0721.0,20071016,20210920
710110,99999,BIG VALLEY AGCM,CA,,,51.983,-112.8,+0870.0,20071124,20210920
710120,99999,CADOGAN AGCM,CA,,,52.333,-110.5,+0690.0,20071124,20210920
710130,99999,CRAIGMYLE AGCM,CA,,,51.767,-112.25,+0845.0,20071124,20210920
710140,99999,DELBURNE AGCM,CA,,,52.183,-113.183,+0889.0,20080401,20210920
710150,99999,MILK RIVER RIDGE RESEVOIR,CA,,CPRR,49.283,-112.533,+1305.0,20090801,20210920
710160,99999,BULLHORN HEADWATERS,CA,,CPBH,49.15,-113.55,+1326.0,20071124,20210920
710220,99999,PRINCE RUPERT,CA,,,54.283,-130.433,+0035.0,20040831,20210920
710240,99999,FORT VERMILION,CA,,CXFV,58.383,-116.033,+0289.0,20030617,20210920
710260,99999,MEDICINE HAT RCS,CA,,CXMW,50.033,-110.717,+0715.0,20030330,20210920
710280,99999,TATLAYOKO LAKE RCS  BC,CA,,CXTL,51.667,-124.4,+0875.0,20030617,20210920
710320,99999,PRINCETON CS  BC,CA,,CWPR,49.467,-120.5,+0700.0,19921216,20210920
710348,99999,CHETWYND,CA,,CYCQ,55.687,-121.627,+0609.6,19990114,20210920
710350,99999,LINDEN AGCM,CA,,,51.617,-113.65,+0914.0,20080109,20210920
710354,99999,GOLDEN,CA,,CYGE,51.299,-116.982,+0784.9,19990114,20210920
710370,99999,POINT ATKINSON,CA,,CWSB,49.33,-123.265,+0035.0,20030617,20210920
710470,99999,MANNWILLE AGCM,CA,,,53.45,-111.25,+0656.0,20080401,20210920
710480,99999,ACADIA VALLEY,CA,,CPAC,51.05,-110.317,+0735.0,19950423,20210920
710500,99999,PUNTZI MOUNTAIN (AUT)  BC,CA,,CWPU,52.1,-124.133,+0910.0,19770701,20210920
710510,99999,MANYBERRIES AGCM,CA,,,49.367,-110.683,+0927.0,19551102,20210920
710560,99999,FORT CHIPEWYAN RCS,CA,,CPCH,58.767,-111.117,+0238.0,19930701,20210920
710563,99999,DAWSON CREEK,CA,,,55.733,-120.183,+0671.0,19430501,20210920
710570,99999,MOSSLEIGH AGCM,CA,,,50.667,-113.333,+0965.0,20080721,20210920
710600,99999,NORDEGG CS  ALTA,CA,,CXND,52.467,-116.067,+1362.0,19840101,20210920
710610,99999,BARRHEAD CS,CA,,CXBD,54.1,-114.45,+0648.0,19770708,20210920
710620,99999,VIOLET GROVE CS  ALTA,CA,,CXVG,53.15,-115.117,+0903.0,19770701,20210920
710650,99999,MYRNAM AGCM,CA,,,53.717,-111.117,+0580.0,20080401,20210920
710660,99999,HIGH LEVEL,CA,,CYOJ,58.621,-117.165,+0338.3,19770701,20210920
710670,99999,NEW SERPTA AGCM,CA,,,53.267,-113.167,+0765.0,20080401,20210920
710680,99999,PEACE RIVER,CA,,CYPE,56.227,-117.447,+0570.9,19590109,20210920
710690,99999,SLAVE LAKE,CA,,CYZH,55.293,-114.777,+0583.4,19550702,20210920
710700,99999,PAKOWKI LAKE AGCM,CA,,,49.217,-111.133,+0915.0,20080401,20210920
710730,99999,QUEENSTOWN,CA,,CPQU,50.6,-112.8,+0941.0,19550702,20210920
710850,99999,PINCHER CREEK,CA,,CZPC,49.517,-114.0,+1190.0,19930701,20210920
710890,99999,RIBSTONE SOUTH AGCM,CA,,,52.583,-110.35,+0644.0,20080401,20210920
711020,99999,RIVERCOURSE AGCM,CA,,,53.017,-110.1,+0669.0,19770701,20210920
711030,99999,QUESNEL,CA,,CYQZ,53.026,-122.51,+0545.3,19550702,20210920
711040,99999,WILLIAMS LAKE,CA,,CYWL,52.183,-122.054,+0940.3,19440701,20210920
711050,99999,ROLLING HILLS AGCM,CA,,CPRH,50.25,-111.7,+0645.0,19830301,20210920
711060,94234,TOFINO AIRPORT,CA,BC,CYAZ,49.083,-125.767,+0024.0,19581202,20210920
711080,99999,ABBOTSFORD,CA,,CYXX,49.025,-122.363,+0059.4,19550702,20210920
711090,99999,PORT HARDY,CA,,CYZT,50.681,-127.367,+0021.6,19550705,20210920
711130,99999,AGASSIZ CS,CA,,CWZA,49.25,-121.767,+0019.0,19770704,20210920
711140,99999,HOPE (AUT)  BC,CA,,CVPE,49.367,-121.483,+0039.0,19550702,20210920
711150,99999,VERNON AUTO,CA,,CWJV,50.217,-119.183,+0482.0,19770701,20210920
711160,99999,ONEFOUR CDA  ALTA,CA,,CWOE,49.117,-110.467,+0935.0,19910801,20210920
711180,99999,WAINWRIGHT CFB AIRFIELD 21  A,CA,,CZWN,52.817,-111.1,+0686.0,20010916,20210920
711200,99999,COLD LAKE,CA,,CYOD,54.405,-110.279,+0541.0,19550702,20210920
711210,99999,EDMONTON/NAMAO(MIL)          ,CA,,CYED,53.667,-113.467,+0688.0,19441010,20210920
711220,99999,BANFF CS,CA,,CWZG,51.2,-115.55,+1397.0,19550702,20210920
711230,99999,EDMONTON INTL,CA,,CYEG,53.31,-113.58,+0723.3,19601114,20210920
711233,99999,EDMONTON VILLENEUVE,CA,,CZVL,53.668,-113.854,+0687.3,19850102,20210920
711270,99999,EDMONTON STONY PLAIN CS,CA,,CXPS,53.55,-114.117,+0766.0,19770705,20210920
711530,99999,CARDSTON  ALTA,CA,,CWFJ,49.2,-113.283,+1136.0,19941201,20210920
711540,99999,WATERTON PARK GATE,CA,,CWGM,49.133,-113.817,+1289.0,19940706,20210920
711550,99999,EDMONTON INTERNATIONAL CS  AL,CA,,CXEG,53.3,-113.6,+0715.0,20010916,20210920
711560,99999,EDSON CLIMATE,CA,,CZZJ,53.583,-116.467,+0927.0,20010716,20210920
711570,99999,EDMONTON MUNICIPAL CR10  ALTA,CA,,CXEC,53.567,-113.517,+0671.0,20010916,20210920
711670,99999,EDSON,CA,,,53.567,-116.45,+0926.0,19940301,20210920
711750,99999,WHISTLER,CA,,,50.133,-122.95,+0658.0,20050126,20210920
711920,99999,QUESNEL,CA,,,53.017,-122.5,+0545.0,20100604,20210920
712000,99999,VICTORIA GONZALES CS  BC,CA,,CWLM,48.4,-123.317,+0070.0,19550702,20210920
712020,99999,ROSALIND AGCM,CA,,CPRL,52.783,-112.433,+0712.0,19800301,20210920
712030,99999,KELOWNA,CA,,CYLW,49.956,-119.378,+0429.5,19930408,20210920
712060,99999,BELLA COOLA,CA,,CYBD,52.388,-126.596,+0035.7,19830707,20210920
712070,99999,SQUAMISH   BC,CA,,CWSK,49.783,-123.167,+0052.0,19820624,20210920
712081,99999,POWELL RIVER,CA,,CYPW,49.834,-124.5,+0129.5,20050101,20210920
712140,99999,BODO AGDM  ALTA,CA,,CXBA,52.117,-110.1,+0687.0,20040824,20210920
712150,99999,OSOYOOS CS  BC,CA,,CWYY,49.033,-119.433,+0283.0,19950423,20210920
712160,99999,NAKUSP CS  BC,CA,,CWNP,50.267,-117.817,+0512.1,19950423,20210920
712170,99999,CHAMPION AGDM  ALTA,CA,,CXCP,50.267,-113.35,+1006.0,20021212,20210920
712180,99999,SALMON ARM CS  BC,CA,,CWSL,50.7,-119.283,+0351.0,19950423,20210920
712200,99999,LUCY ISLAND LIGHTSTATION,CA,,CWLC,54.296,-130.609,+0022.6,20010705,20210920
712210,99999,CLEARDALE AGDM  ALTA,CA,,CXCD,56.3,-119.733,+0630.0,20040713,20210920
712230,99999,CONSORT AGDM  ALTA,CA,,CXCS,51.933,-110.7,+0772.0,20040824,20210920
712240,99999,DEL BONITA AGDM  ALTA,CA,,CXDB,49.05,-112.817,+1310.0,20040824,20210920
712250,99999,FOREMOST AGDM  ALTA,CA,,CXFM,49.483,-111.483,+0881.0,20040824,20210920
712260,99999,HIGH PRAIRIE AGDM  ALTA,CA,,CXHP,55.383,-116.467,+0602.0,20040824,20210920
712270,99999,HOLDEN AGDM  ALTA,CA,,CXHD,53.183,-112.233,+0688.0,20040713,20210920
712280,99999,KILLAM AGDM  ALTA,CA,,CXKM,52.833,-111.867,+0675.0,20040824,20210920
712290,99999,MANNING AGDM  ALTA,CA,,CXMG,56.967,-117.45,+0457.0,20040824,20210920
712300,99999,BEAVERLODGE RCS  ALTA,CA,,CWBM,55.2,-119.4,+0745.0,19960816,20210920
712310,99999,BOW ISLAND,CA,,CWXL,49.733,-111.45,+0817.0,19940201,20210920
712320,99999,BOW VALLEY  ALTA,CA,,CWXA,51.083,-115.067,+1298.0,19930607,20210920
712330,99999,BRETON PLOTS  ALTA,CA,,CWOV,53.083,-114.433,+0852.0,20041005,20210920
712340,99999,CLARESHOLM,CA,,CWDK,50.0,-113.633,+1009.0,19940201,20210920
712350,99999,COP UPPER  ALTA,CA,,CWDU,51.067,-114.217,+1235.0,19930607,20210920
712360,99999,CROWSNEST  ALTA,CA,,CWRT,49.617,-114.483,+1303.0,19930607,20210920
712370,99999,DRUMHELLER EAST  ALTA,CA,,CWDZ,51.433,-112.667,+0678.0,20010916,20210920
712380,99999,ELK ISLAND NAT PARK  ALTA,CA,,CWFE,53.683,-112.867,+0713.7,19930701,20210920
712400,99999,ESTHER 1  ALTA               ,CA,,CWGY,51.667,-110.2,+0707.0,19930607,20210920
712420,99999,LACOMBE CDA 2  ALTA          ,CA,,CWQQ,52.45,-113.75,+0860.0,19930607,20210920
712430,99999,LETHBRIDGE CDA,CA,,CWQL,49.7,-112.767,+0910.0,19941201,20210920
712440,99999,MILK RIVER  ALTA,CA,,CWRY,49.133,-112.05,+1050.0,19930908,20210920
712450,99999,NAKISKA RIDGETOP  ALTA,CA,,CWNR,50.933,-115.183,+2543.0,19940303,20210920
712460,99999,RED EARTH  ALTA,CA,,CWRD,56.533,-115.267,+0546.0,19930701,20210920
712480,99999,SUNDRE A  ALTA,CA,,CWAV,51.767,-114.683,+1114.0,19930607,20210920
712490,99999,THREE HILLS,CA,,CWHI,51.768,-113.206,+0857.0,19930607,20210920
712510,99999,VAUXHALL CDA CS  ALTA,CA,,CWVO,50.05,-112.133,+0779.0,19930607,20210920
712520,99999,WILLOW CREEK 1  ALTA         ,CA,,CWWO,53.383,-118.333,+1402.0,19940414,20210920
712540,99999,CAMROSE  ALTA,CA,,CWRV,53.033,-112.817,+0739.0,19940101,20210920
712550,99999,MILDRED LAKE  ALTA,CA,,CWMX,57.033,-111.55,+0310.0,19940101,20210920
712570,99999,MORRIN AGDM  ALTA,CA,,CXMO,51.65,-112.667,+0836.0,20040824,20210920
712580,99999,OLDS AGDM  ALTA,CA,,CXOL,51.75,-114.067,+1046.0,20040824,20210920
712590,99999,POLLOCKVILLE AGDM  ALTA,CA,,CXPL,51.117,-111.7,+0750.0,20040824,20210920
712670,99999,LETHBRIDGE,CA,,CYQL,49.633,-112.8,+0929.0,20050101,20210920
712680,99999,SMITHERS AIRPORT AUTO,CA,,,54.817,-127.183,+0517.6,20040824,20210920
712690,99999,SCHULER AGDM  ALTA,CA,,CXSC,50.3,-110.083,+0800.0,20040824,20210920
712710,99999,ATHABASCA AGCM,CA,,,54.633,-113.383,+0635.0,19941201,20210920
712740,99999,SMOKY LAKE AGDM  ALTA,CA,,CXSL,54.267,-112.483,+0680.0,20040913,20210920
712750,99999,ST. PAUL AGDM  ALTA,CA,,CXSP,54.0,-111.267,+0649.0,20040713,20210920
712760,99999,TWO HILLS AGDM  ALTA,CA,,CXTH,53.617,-111.667,+0678.0,20040824,20210920
712770,99999,VALLEYVIEW AGDM  ALTA,CA,,CXVW,55.083,-117.183,+0698.0,20041005,20210920
712780,99999,VERMILLION AGDM  ALTA,CA,,CXVM,53.333,-110.867,+0623.0,20040824,20210920
712830,99999,BROWNVALE AGCM,CA,,CPBN,56.117,-117.883,+0748.0,19941201,20210920
712840,99999,BUSBY AGCM,CA,,CPBB,53.917,-113.917,+0714.0,19941201,20210920
712850,99999,ABEE AGDM  ALTA,CA,,CXAF,54.283,-112.967,+0664.0,20040824,20210920
712860,99999,ANDREW AGDM  ALTA,CA,,CXAG,53.917,-112.267,+0625.0,20040824,20210920
712870,99999,ATMORE AGDM  ALTA,CA,,CXAJ,54.767,-112.817,+0574.0,20040824,20210920
712890,99999,STETTLER AGDM  ALTA,CA,,CXAK,52.333,-112.583,+0795.0,20040713,20210920
713020,99999,PRINCE GEORGE AIRPORT AUTO,CA,,,53.883,-122.667,+0680.0,20091127,20210920
713040,99999,BEAVER MINES,CA,,,49.467,-114.183,+1257.0,20040824,20210920
713160,99999,LACLABICHE CLIMATE  ALTA,CA,,,54.767,-112.017,+0567.0,20040608,20210920
713180,99999,CORONATION CLIMATE  ALTA,CA,,CWCT,52.067,-111.433,+0791.0,20040803,20210920
713400,99999,DAPP AGDM  ALTA,CA,,CXDP,54.317,-113.95,+0614.0,20040824,20210920
713410,99999,BROCKET AGDM  ALTA,CA,,CXBR,49.617,-113.817,+1073.0,20040510,20210920
713420,99999,OYEN AGDM  ALTA,CA,,CXOY,51.383,-110.35,+0767.0,20040928,20210920
713430,99999,WRENTHAM AGDM  ALTA,CA,,CXWM,49.5,-112.117,+0944.0,20040824,20210920
713440,99999,HUSSAR AGDM  ALTA,CA,,CXHR,51.183,-112.5,+0971.0,20040510,20210920
713450,99999,MASINASIN AGDM,CA,,CXMN,49.133,-111.65,+0948.0,20040824,20210920
713460,99999,BARNWELL AGDM  ALTA,CA,,CXBW,49.8,-112.3,+0824.0,20040510,20210920
713470,99999,FAIRVIEW AGDM  ALTA,CA,,CXFR,56.067,-118.433,+0655.0,20040518,20210920
713480,99999,PEORIA AGDM  ALTA,CA,,CXPA,55.617,-118.283,+0621.0,20040510,20210920
713490,99999,RICH LAKE AGDM  ALTA,CA,,CXRL,54.5,-111.7,+0585.0,20040510,20210920
713510,99999,OLIVER AGDM  ALTA,CA,,CZOL,53.65,-113.35,+0665.0,20040510,20210920
713530,99999,PRENTISS ALBERTA  ALTA,CA,,CZPS,52.433,-113.6,+0965.0,20040608,20210920
713540,99999,MUNDARE AGDM  ALTA,CA,,CZMU,53.567,-112.3,+0683.0,20040921,20210920
713590,99999,DEWBERRY AGCM,CA,,,53.667,-110.583,+0616.0,20080401,20210920
713600,99999,EDGERTON AGCM,CA,,,52.767,-110.417,+0649.0,20071124,20210920
713690,99999,SLAVE LAKE,CA,,,55.3,-114.783,+0583.0,20040913,20210920
713800,99999,CRESTOMERE AGCM,CA,,,52.717,-113.9,+0855.0,20080721,20210920
713930,99999,CALGARY INTL CS,CA,,,51.1,-114.0,+1081.0,20040921,20210920
713990,99999,SEDALIA AGCM,CA,,CPSA,51.583,-110.75,+0755.0,19800701,20210920
714010,99999,WARFIELD RCS,CA,,CXWF,49.117,-117.733,+0566.9,20040823,20210920
714040,99999,EGG ISLAND  ALTA,CA,,CXEL,58.967,-110.433,+0215.0,20030330,20210920
714050,99999,SHONTS AGCM,CA,,,53.333,-112.533,+0679.0,19860101,20210920
714090,99999,ETZICOM AGCM,CA,,,49.55,-111.05,+0845.0,20080401,20210920
714130,99999,SPONDIN AGCM,CA,,,51.817,-111.683,+0804.0,19820102,20210920
714140,99999,DUPRE AGCM,CA,,CPDU,54.367,-110.867,+0556.0,19880622,20210920
714400,99999,STANDARD AGCM,CA,,CPSD,51.233,-112.983,+0901.0,19770611,20210920
714570,99999,BROOKS  ALTA,CA,,CWBO,50.55,-111.85,+0747.0,19910801,20210920
714580,99999,VEGREVILLE  ALTA,CA,,CWVI,53.517,-112.1,+0639.0,19910801,20210920
714610,99999,EAGLESHAM AGCM,CA,,CPEL,55.8,-117.883,+0563.0,19840921,20210920
714720,99999,KINDAKUN ROCKS (AUT)  BC,CA,,CWQS,53.3,-132.767,+0014.0,19801001,20210920
714730,99999,SATURNA ISLAND  CS,CA,,CWEZ,48.783,-123.033,+0024.0,19800914,20210920
714750,99999,PORT ALBERNI (AUT)  BC,CA,,CWQC,49.317,-124.917,+0076.0,19810201,20210920
714780,99999,SARTINE ISLAND (AUT)         ,CA,,CWFG,50.817,-128.9,+0111.0,19850130,20210920
714790,99999,SOLANDER ISLAND (AUT)  BC,CA,,CWRU,50.1,-127.933,+0099.0,19850102,20210920
714810,99999,EVANSBURG2 AGCM AB           ,CA,,CPNB,53.573,-115.124,+0819.0,19860916,20210920
714820,99999,CATHEDRAL POINT (AUT)  BC,CA,,CWME,52.183,-127.467,+0031.0,19850422,20210920
714830,99999,FORT ASSINIBOINE AGCM,CA,,CPFB,54.4,-114.767,+0676.0,19870710,20210920
714850,99999,HERBERT ISLAND,CA,,CWLP,50.933,-127.65,+1605.0,19850102,20210920
714860,99999,JASPER WARDEN  ALTA,CA,,CWJW,52.933,-118.033,+1020.0,19910801,20210920
714950,99999,NEIR AGDM,CA,,,51.367,-114.083,+1145.0,20040921,20210920
714980,99999,GLEICHEN AGCM,CA,,CPGI,50.933,-112.933,+0907.0,19901104,20210920
715000,99999,GLENEVIS AGCM,CA,,,53.817,-114.533,+0670.0,19860205,20210920
715040,99999,THORSBY AGCM,CA,,,53.217,-113.9,+0754.0,19880105,20210920
715070,99999,HAWK HILLS AGCM,CA,,CPHW,57.25,-117.283,+0455.0,19910812,20210920
715090,99999,LETHBRIDGE DEMO FARM AGDM  AL,CA,,CPQL,49.683,-112.75,+0903.0,20040921,20210920
715170,99999,BLOOD TRIBE AGDM  ALTA,CA,,CPBT,49.567,-113.05,+0980.0,20040921,20210920
715180,99999,ENCHANT AGDM  ALTA,CA,,CPEH,50.183,-112.433,+0801.0,20040921,20210920
715190,99999,BOW ISLAND IRRIGATION AGDM,CA,,CPXL,49.867,-111.383,+0799.0,20040921,20210920
715250,99999,SEVEN PERSONS AGDM  ALTA,CA,,CPSV,49.917,-110.917,+0766.0,20041005,20210920
715260,99999,STRATHMORE AGDM  ALTA,CA,,CPST,51.033,-113.283,+0967.0,20041005,20210920
715280,99999,IRON SPRINGS AGDM  ALTA,CA,,CPIR,49.9,-112.733,+0858.0,20040921,20210920
715330,99999,BELLA COOLA AIRPORT,CA,,CVBD,52.383,-126.75,+0035.7,20030617,20210920
715350,99999,FINCASTLE AGDM  ALTA,CA,,CPFI,49.8,-112.033,+0833.0,20040921,20210920
715360,99999,RAYMOND AGDM  ALTA,CA,,CPRY,49.483,-112.683,+0937.0,20040805,20210920
715370,99999,ROSEMARY AGDM,CA,,CPRO,50.82,-112.05,+0714.0,20040804,20210920
715400,99999,HESPERO AGCM,CA,,,52.3,-114.483,+0965.0,20080721,20210920
715410,99999,JEAN COTE AGCM,CA,,,55.9,-117.117,+0638.0,20080721,20210920
715420,99999,LA CRETE AGCM,CA,,,58.167,-116.333,+0323.0,20080721,20210920
715430,99999,LA GLACE AGCM,CA,,CPLG,55.417,-119.25,+0760.0,20080822,20210920
715440,99999,LEGAL AGCM,CA,,,54.0,-113.467,+0680.0,20080721,20210920
715450,99999,RADWAY AGCM,CA,,,53.983,-112.867,+0625.0,20080721,20210920
715460,99999,RYCROFT AGCM,CA,,CPRF,55.767,-118.667,+0575.0,20080721,20210920
715470,99999,SAVANNA AGCM,CA,,CPSW,56.067,-119.333,+0703.0,20080721,20210920
715480,99999,ST LINA AGCM,CA,,,54.267,-111.45,+0619.0,20080721,20210920
715490,99999,TAWATINAW AGCM,CA,,,54.283,-113.517,+0611.0,20080721,20210920
715550,99999,STAVELY AAFC,CA,,CWXN,50.183,-113.883,+1364.0,20010916,20210920
715570,99999,MERRITT,CA,,,50.1,-120.767,+0591.0,19970401,20210920
715650,99999,LEEDALE AGDM,CA,,CNLD,52.55,-114.47,+0947.0,20050322,20210920
715660,99999,TOMAHAWK AGDM,CA,,CNTK,53.43,-114.72,+0814.0,20050322,20210920
715670,99999,LINDBERGH AGDM,CA,,CNLB,53.95,-110.58,+0630.0,20050322,20210920
715820,99999,BELLA BELLA CAMPBELL,CA,,CBBC,52.183,-128.15,+0043.0,20030330,20210920
715850,99999,FORT MCMURRAY CS  ALTA,CA,,CXMM,56.65,-111.217,+0369.0,20010825,20210920
716050,99999,PORT MELLON,CA,,CVOM,49.517,-123.483,+0123.0,20030617,20210920
716080,99999,VANCOUVER SEA ISLAND CCG,CA,,CVVR,49.183,-123.183,+0002.1,19820102,20210920
716360,99999,CAMPSIE AUTO,CA,,CPZC,54.131,-111.678,+0647.0,20140404,20210920
716370,99999,RANFURLY AUTO,CA,,,53.417,-111.733,+0687.0,20140404,20210920
716380,99999,SECHELT,CA,,CVOU,49.45,-123.7,+0086.0,20030917,20210920
716440,99999,KELOWNA UBCO,CA,,,49.933,-119.4,+0456.0,20140404,20210920
716600,99999,CRANBROOK AIRPORT AUTO,CA,,,49.617,-115.783,+0929.7,20140404,20210920
716690,99999,PEKISKO,CA,,CNPK,50.367,-114.417,+1415.0,20050524,20210920
716730,99999,FERINTOSH AGCM,CA,,,52.75,-112.85,+0795.0,20080401,20210920
716740,99999,FORESTBURG AGCM,CA,,,52.55,-112.117,+0721.0,20071124,20210920
716790,99999,OOTSA LAKESKINS LAKE,CA,,CVSL,53.77,-125.98,+0861.0,20051017,20210920
716810,99999,ASHCROFT,CA,,CVAS,50.7,-121.267,+0327.0,20030405,20210920
716860,99999,DEASE LAKE,CA,,CYDL,58.417,-130.033,+0802.8,20050101,20210920
716870,99999,WHISTLER-NESTERS,CA,,CVOC,50.133,-122.95,+0659.0,20050101,20210920
716880,99999,CALLAGHAN VALLEY,CA,,CVOD,50.15,-123.117,+0884.0,20050405,20210920
716890,99999,FORT MCMURRAY AIRPORT,CA,,CYMM,56.65,-111.217,+0369.1,20050101,20210920
716900,99999,TEEPEE CREEK AGCM,CA,,CPTC,55.35,-118.4,+0670.0,20080721,20210920
717200,99999,POWELL RIVER,CA,,CVOP,49.833,-124.483,+0125.0,19770701,20210920
717360,99999,PINCHER CREEK CLIMATE,CA,,CPCK,49.517,-114.0,+1190.0,19921216,20210920
717410,99999,KAMLOOPS AUTO,CA,,CZKA,50.7,-120.45,+0345.0,20061010,20210920
717610,99999,VILNA AGCM,CA,,CPVI,54.133,-111.917,+0645.0,20010717,20210920
717650,99999,LYTTON RCS,CA,,,50.217,-121.583,+0225.0,20061010,20210920
717660,99999,QUALICUM BEACH AIRPORT,CA,,,49.333,-124.4,+0058.0,20080322,20210920
717680,99999,SUMMERLAND CS  BC,CA,,CWUS,49.567,-119.65,+0454.2,19950423,20210920
717690,99999,BALLENAS ISLAND  BC,CA,,CWGB,49.35,-124.15,+0013.0,19950423,20210920
717700,99999,CRESTON CAMPBELL SCIENTIFIC,CA,,CWJR,49.083,-116.5,+0646.0,19950423,20210920
717710,99999,CUMSHEWA ISLAND  BC,CA,,CWZL,53.033,-131.6,+0017.0,20010916,20210920
717740,99999,MALAHAT  BC,CA,,CWKH,48.567,-123.517,+0366.0,19950423,20210920
717760,99999,NELSON  BC,CA,,CWNM,49.483,-117.3,+0534.9,19950423,20210920
717770,99999,PEMBERTON AIRPORT  BC,CA,,CWGP,50.3,-122.733,+0204.0,19950423,20210920
717790,99999,QUESNEL AIRPORT AUTO,CA,,,53.033,-122.5,+0545.0,20050722,20210920
717800,99999,SHERINGHAM POINT  BC,CA,,CWSP,48.383,-123.917,+0022.0,19950423,20210920
717810,99999,SISTERS ISLAND  BC,CA,,CWGT,49.483,-124.433,+0020.0,19950423,20210920
717820,99999,SPARWOOD CS  BC,CA,,CWGW,49.75,-114.883,+1138.0,19950423,20210920
717830,99999,VICTORIA UNIVERSITY CS,CA,,CWYJ,48.45,-123.3,+0060.0,19950423,20210920
717840,99999,WEST VANCOUVER (AUT)         ,CA,,CWWA,49.35,-123.2,+0168.0,19950423,20210920
717860,99999,YOHO PARK  BC,CA,,CWYL,51.45,-116.35,+1602.0,19960501,20210920
717880,99999,GRASSY LAKE,CA,,CPGL,49.867,-111.733,+0783.0,20070605,20210920
717890,99999,FORT MACLEOD AGCM,CA,,,49.783,-113.383,+0978.0,20080401,20210920
717910,99999,GILT EDGE NORTH AGCM,CA,,,53.067,-110.617,+0647.0,20071124,20210920
717920,99999,HALKIRK AGCM,CA,,,52.117,-112.167,+0843.0,20080401,20210920
717930,99999,HEMARUKA AGCM,CA,,,51.783,-111.217,+0780.0,20080401,20210920
717940,99999,HUGHENDEN AGCM,CA,,,52.567,-110.783,+0703.0,20080721,20210920
717950,99999,IRVINE AGCM,CA,,,49.983,-110.267,+0795.0,20080401,20210920
717960,99999,KESSLER AGCM,CA,,,52.283,-111.1,+0720.0,20080721,20210920
717970,99999,KITSCOPTY AGCM,CA,,,53.35,-110.417,+0664.0,20080401,20210920
717990,99999,VICTORIA INTL,CA,,CYYJ,48.647,-123.426,+0019.2,19550702,20210920
718370,99999,ST MARY RESEVOIR,CA,,CPMR,49.367,-113.117,+1128.0,20070806,20210920
718390,99999,BULLHORN COULEE RESEVOIR,CA,,CPBR,49.3,-113.367,+1115.0,20090801,20210920
718480,99999,TRAVERS AGCM,CA,,CPTR,50.3,-112.867,+0955.0,19550702,20210920
718570,99999,TULLIBY LAKE AGCM,CA,,CPTU,53.65,-110.067,+0596.0,20040120,20210920
718600,99999,SPRINGBANK A,CA,,CYBW,51.1,-114.367,+1200.0,20030330,20210920
718710,99999,LLOYDMINSTER,CA,,CYLL,53.309,-110.073,+0668.4,19831201,20210920
718770,99999,CALGARY INTL,CA,,CYYC,51.114,-114.02,+1084.2,19550702,20210920
718780,99999,RED DEER REGIONAL,CA,,CYQF,52.183,-113.9,+0904.6,19550702,20210920
718794,99999,SPARWOOD / ELK VALLEY,CA,,CWSW,49.75,-114.88,+1138.0,19800423,20210920
718800,99999,CRANBROOK A,CA,,CYXC,49.617,-115.783,+0939.4,19770701,20210920
718810,99999,EDSON,CA,,CYET,53.579,-116.465,+0926.9,19600202,20210920
718820,99999,REVELSTOKE A,CA,,,50.967,-118.183,+0445.0,19550702,20210920
718830,99999,BLUE RIVER,CA,,CYCP,52.117,-119.283,+0682.8,19770701,20210920
718834,99999,BLUE RIVER CS,CA,,CWSV,52.13,-119.28,+0683.0,19800216,20210920
718840,99999,CASTLEGAR,CA,,CYCG,49.296,-117.633,+0495.0,19770701,20210920
718850,99999,GLENWOOD,CA,,CPCR,49.333,-113.517,+1074.0,20071124,20210920
718864,99999,PRINCETON,CA,,CYDC,49.468,-120.511,+0700.4,19781012,20210920
718870,99999,KAMLOOPS,CA,,CYKA,50.702,-120.444,+0345.3,19550702,20210920
718880,99999,VIKING AGCM,CA,,CPVA,53.183,-111.733,+0711.0,19550702,20210920
718890,99999,PENTICTON,CA,,CYYF,49.463,-119.602,+0344.1,19550702,20210920
718900,99999,NANAIMO,CA,,CYCD,49.052,-123.87,+0028.3,19550702,20210920
718920,99999,VANCOUVER INTL,CA,,CYVR,49.194,-123.184,+0004.3,19550702,20210920
718936,99999,CAMPBELL RIVER,CA,,CYBL,49.951,-125.271,+0105.5,19770701,20210920
718950,99999,WETASKIWIN AGCM,CA,,CPWT,52.967,-113.433,+0774.0,19770701,20210920
718960,99999,PRINCE GEORGE,CA,,CYXS,53.889,-122.679,+0691.0,19550702,20210920
718980,99999,PRINCE RUPERT,CA,,CYPR,54.283,-130.45,+0035.4,19550702,20210920
718990,25343,LANGARA,CA,BC,CWJU,54.25,-133.05,+0041.0,19770701,20210920
719030,99999,LANGARA ISLAND CS  BC,CA,,,54.25,-133.05,+0041.0,20010916,20210920
719040,99999,WIMBORBE AGCM,CA,,CPWB,51.933,-113.583,+0940.0,19770701,20210920
719140,99999,SATURNA / CAPMON CS,CA,,CVTS,48.767,-123.117,+0178.0,19770701,20210920
719270,99999,NORTH COWICHAN,CA,,,48.817,-123.717,+0060.0,19570802,20210920
719280,99999,ROCKY MTN HOUSE (AUT)  ALTA,CA,,CWRM,52.417,-114.9,+0988.0,19550702,20210920
719300,99999,WHITECOURT A,CA,,CYZU,54.15,-115.783,+0782.0,19550702,20210920
719330,99999,FORT ST JAMES AUTO,CA,,CVFS,54.45,-124.283,+0685.5,19770701,20210920
719400,99999,GRANDE PRAIRIE,CA,,CYQU,55.18,-118.885,+0669.0,19550702,20210920
719430,99999,FORT ST JOHN,CA,,CYXJ,56.238,-120.74,+0694.9,19420701,20210920
719440,99999,MACKENZIE A,CA,,,55.3,-123.133,+0690.0,19770701,20210920
719450,99999,FORT NELSON,CA,,CYYE,58.833,-122.6,+0381.9,19420220,20210920
719500,99999,SMITHERS,CA,,CYYD,54.825,-127.183,+0521.8,19550702,20210920
719510,99999,TERRACE,CA,,CYXT,54.469,-128.576,+0217.3,19550702,20210920
719520,25272,BURNS LAKE CAMPBELL,CA,BC,CWPZ,54.383,-125.95,+0714.0,20050101,20210920
719550,99999,STEWART,CA,,CZST,55.933,-129.983,+0007.3,19770701,20210920
719790,99999,HENDRICKSON CREEK,CA,,CWPA,53.8,-118.45,+1448.0,19950901,20210920
719810,99999,AZURE,CA,,,50.5,-114.0,+1143.0,19941201,20210920
719820,99999,BLACK DIAMOND,CA,,,50.7,-114.15,+1156.0,19950901,20210920
719860,99999,ATLEE,CA,,,50.8,-111.0,+0795.0,19951001,20210920
719990,99999,LILLOOET,CA,,,50.683,-121.933,+0235.0,20040928,20210920
710420,99999,DELTA BURNS BOG,CA,,CVBB,49.133,-123.0,+0003.0,20010916,20210920
712010,99999,VANCOUVER HARBOUR CS  BC,CA,,CWHC,49.283,-123.117,+0003.0,19800301,20210920
717780,99999,RACE ROCKS CAMPBELL SCIENTIFI,CA,,CWQK,48.3,-123.533,+0003.0,19950423,20210920
717980,99999,ESQUIMALT HARBOUR,CA,,CWPF,48.43,-123.43,+0003.0,20030617,20210920
712110,99999,HOWE SOUND - PAM ROC,CA,,CWAS,49.483,-123.3,+0005.0,19961101,20210920
712190,99999,HOLLAND ROCK  BC,CA,,CWHL,54.167,-130.35,+0005.0,20010705,20210920
714735,99999,VICTORIA HARBOUR,CA,,CYWH,48.42,-123.33,+0005.0,19921008,20210920
717720,99999,ENTRANCE ISLAND CS  BC,CA,,CWEL,49.217,-123.8,+0005.0,19950423,20210920
717750,99999,PITT MEADOWS CAMPBELL SCIENTI,CA,,CWMM,49.2,-122.683,+0005.0,19950423,20210920
711010,99999,SANDSPIT AWOS  BC,CA,,CVZP,53.25,-131.8,+0006.0,19480101,20210920
714724,99999,MASSET AIRPORT,CA,,CZMT,54.03,-132.13,+0007.0,20061024,20210920
714770,99999,ROSE SPIT (AUT)  BC,CA,,CWRO,54.15,-131.65,+0007.0,19860425,20210920
718940,99999,ESTEVAN POINT CS  BC,CA,,CWEB,49.383,-126.55,+0007.0,19550702,20210920
714760,99999,GREY ISLET (AUT)             ,CA,,CWEK,54.567,-130.683,+0008.0,19880307,20210920
715680,99999,FANNY ISLAND,CA,,CXFA,50.45,-125.983,+0008.0,20030617,20210920
712090,99999,SANDHEADS CS,CA,,CWVF,49.1,-123.3,+0011.0,20010705,20210920
710310,99999,DISCOVERY ISLAND,CA,,CWDR,48.42,-123.23,+0015.0,19921008,20210920
714840,99999,BONILLA ISLAND (AUT)  BC,CA,,CWWL,53.5,-130.633,+0015.0,19860331,20210920
